,name,god_0,god_1,god_2,city,addr,religion,tel,principal,longitude,latitude,dist
0,法蓮廟,普庵祖師,,,新竹市,福林里3鄰東大路二段375巷9號,佛教,03-5315686,劉醇富,120.961799621582,24.8188209533691,北區
1,天成宮,明明上帝,,,新竹市,磐石里6鄰西大路643巷20號,一貫道,03-5219409,陳薇郎,120.957901000977,24.8096008300781,北區
2,新興福德祠,福德正神,,,新竹市,舊社里4鄰鐵道路二段166巷47號,道教,03-5310216,鄭正義,120.972999572754,24.8212203979492,北區
3,威德廟,三府王爺,,,基隆市,八堵里第9鄰源遠路28巷16號,道教,02-24573823,鄭怡信,121.736602783203,25.1031398773193,暖暖區
4,台北協天宮,關聖帝君,,,臺北市,斯文里大龍街89-1號,道教,02-25923987,黃志成,121.516098022461,25.0671501159668,大同區
5,新竹市明福宮,玄天上帝,,,新竹市,竹光路124巷27-3號,道教,03-5439996,彭來成,120.958801269531,24.8129997253418,北區
6,萬士爺廟,有應公,,,新竹市,東大路三段377巷20號旁,道教,-0920111593,林再興,120.942398071289,24.8362293243408,北區
7,佑聖宮,玄天上帝,,,新竹市,康樂里公道五路5段195號,道教,-0920111593,林再興,120.944702148438,24.836540222168,北區
8,民富福德宮,福德正神,,,新竹市,民富里5鄰延平路一段138巷52-1號,道教,03-5212079,王清明,120.958198547363,24.8059406280518,北區
9,長和宮,天上聖母,,,新竹市,長和里1鄰北門街135號,道教,03-5267510,楊金土,120.96369934082,24.8106899261475,北區
10,代天府,五府千歲,,,新竹市,海濱里1鄰西濱路一段355號,道教,03-5361597,彭德林,120.930297851563,24.83909034729,北區
11,北極殿,玄天上帝,,,新竹市,西雅里3鄰中山路344巷14-1號,道教,03-5213574,張清樑,120.959297180176,24.8016204833984,北區
12,地藏庵,地藏王菩薩,,,基隆市,八堵路1巷67之1號,佛教,02-24575840,蔡春香,121.738700866699,25.1107501983643,暖暖區
13,新竹天凰宮,普庵祖師,,,新竹市,成功路192巷211-3號,佛教,03-5382353,鄭潮欽,120.943901062012,24.8118896484375,北區
14,境福宮,境主尊神,,,新竹市,士林里8鄰境福街197號,道教,03-5315620,郭宗源,120.959197998047,24.8202590942383,北區
15,福德宮,福德正神,,,基隆市,水源路36巷37之1號,道教,02-24573373,陳義隆,121.733901977539,25.0957202911377,暖暖區
16,長和里聖媽廟,天上聖母,,,新竹市,長和里9鄰長和街37號,道教,03-5232393,黃益國,120.963302612305,24.8095607757568,北區
17,富美宮,三府王爺,,,新竹市,南寮里5鄰東大路三段708巷6號,道教,03-5363075,彭天祥,120.937599182129,24.8409099578857,北區
18,福林堂,普庵祖師,,,新竹市,福林里5鄰境福街216號,佛教,03-5319382,許淑嬰,120.959503173828,24.8206100463867,北區
19,爵靈寺,普庵祖師,,,新竹市,舊社里10鄰湳雅街222號,佛教,03-5317704,蘇景松,120.975997924805,24.8221397399902,北區
20,證善堂,釋迦牟尼佛,,,新竹市,興南里8鄰興南街25巷2弄4號,佛教,03-5267929,周瑞淋,120.963401794434,24.8009395599365,北區
21,王先生廟,王先生,,,新竹市,古賢里3鄰東大路三段110巷15號,道教,03-5319866,李正明,120.95580291748,24.831184387207,北區
22,天公壇,玉皇大帝,,,新竹市,育英里6鄰中山路431巷36號,道教,03-5228651,陳顯榮,120.958602905273,24.7996997833252,北區
23,長和福地福德宮,福德正神,,,新竹市,湳雅里28鄰湳雅街147巷51號,道教,03-5228173,吳榮輝,120.971702575684,24.8198890686035,北區
24,暖暖聖道院,明明上帝,,,基隆市,興隆街14之3號,一貫道,02-24579386,周猶龍,121.749702453613,25.1061592102051,暖暖區
25,東連宮,玄天上帝,,,新竹市,成功路192巷191弄22號之1,道教,03-5258055,吳春吉,120.947402954102,24.8116798400879,北區
26,大橋頭福德廟,福德正神,,,臺北市,迪化街二段22號,道教,02-25529255,劉丁柱,121.509498596191,25.0638809204102,大同區
27,香光山寺,釋迦牟尼佛,,,桃園市,福安里11鄰頭寮路276巷75之1號,佛教,03-3873141,陳夏珠,121.276496887207,24.8358192443848,大溪區
28,妙法寺,釋迦牟尼佛,,,桃園市,永福里4鄰信義路649號,佛教,03-3883152,周永林,121.30827331543,24.8944644927979,大溪區
29,宏明寺,釋迦牟尼佛,,,桃園市,中央里長江路11鄰93號,佛教,03-4253849,郭文雄,121.227958679199,24.9564647674561,中壢區
30,三聖宮,保儀尊王,,,新北市,靜安路二段274巷6號,道教,02-24951242,楊明仁,121.728698730469,25.0225200653076,平溪區
31,成安宮,"天上聖母,保儀大夫,三代祖師",,,新北市,十分里十分街189號,道教,02-24958600,胡民樹,121.777801513672,25.0442409515381,平溪區
32,法主公廟,法主聖君,,,臺北市,朝陽里南京西路344巷2號,道教,02-25562964,陳麗玉,121.509925842285,25.053783416748,大同區
33,台北慈光廟,朱府王爺,,,臺北市,民權東路六段206巷143弄113號,道教,02-27862800,謝添鑄,121.613998413086,25.0653991699219,內湖區
34,平光寺,釋迦牟尼佛,,,臺北市,重慶里敦煌路78號,佛教,02-25940479,性融,121.517753601074,25.075662612915,大同區
35,八仙宮,李鐵拐,,,新北市,新庄里番社后31之1號,道教,02-26360743,江振裕,121.49829864502,25.2678298950195,三芝區
36,北星真武寶殿,玄天上帝,,,新北市,圓山村2坪頂52之3號,道教,02-26363906,黃詠湄,121.546203613281,25.2216796875,三芝區
37,南山觀音寺,普庵祖師,,,新北市,內南里興南路二段399巷140號之1,佛教,02-29428123,呂錦素,121.499198913574,24.9738101959229,中和區
38,中壢興南福德祠,福德正神,,,桃園市,興南里12鄰慈惠二街43號,道教,03-4255334,林進財,121.224029541016,24.9604682922363,中壢區
39,五指山開基祖盤古廟,盤古爺,,,新竹縣,外坪村六股8鄰12號,道教,03-5803127,曾&#29726;騰,121.09001159668,24.6420822143555,北埔鄉
40,王禪老祖鬼谷仙師廟,王禪老祖,,,新竹縣,埔尾村王禪老祖路1號,道教,03-5805319,劉逢清,121.044174194336,24.7139759063721,北埔鄉
41,福德宮,福德正神,,,基隆市,華新一路133號,道教,02-24561745,黃錦地,121.666053771973,25.1015396118164,七堵區
42,龍山巖,普庵祖師,,,新北市,五寮里五寮路180之1號,佛教,02-26729021,黃賢明,121.354438781738,24.8715305328369,三峽區
43,台北神德宮,福德正神,,,臺北市,大佳里濱江街180巷13號,道教,02-25032358,李隆德,121.54109954834,25.0714893341064,中山區
44,中嶽殿,地藏王菩薩,,,臺北市,大佳里民族東路115號,道教,02-25054267,陳順傑,121.538299560547,25.0683498382568,中山區
45,僑愛佛教講堂,釋迦牟尼佛,,,桃園市,仁善里介壽路238號,佛教,03-3801956,許傳齡,121.29174041748,24.919527053833,大溪區
46,佛教居士林,釋迦牟尼佛,,,基隆市,仁三路3巷2弄10號,佛教,02-24243609,陳林程,121.744903564453,25.1268196105957,仁愛區
47,舊社福德祠,福德正神,,,新竹市,舊社里7鄰湳雅街311巷2號,道教,03-5338479,戴錦燦,120.975997924805,24.8229808807373,北區
48,中和中興福德宮,福德正神,,,新北市,中興街122之2號,道教,02-22478669,簡德旺,121.499603271484,24.9931907653809,中和區
49,三峽龍天宮,瑤池金母,,,新北市,溪北里17鄰介壽路三段200巷1號,道教,02-26743219,高萬成,121.403442382813,24.9441261291504,三峽區
50,天福道院,彌勒佛,,,新北市,添福里添福215之4號,一貫道,02-26711924,王垂禾,121.380401611328,24.8960609436035,三峽區
51,地藏庵,地藏王菩薩,,,臺北市,玉門街圓山里11號,佛教,02-25977057,劉鄭巧華,121.520599365234,25.0720500946045,中山區
52,大忠宮,延平郡王,,,臺北市,劍潭里中山北路四段71巷2弄5號,佛教,02-28856791,游騰泉,121.526298522949,25.0804901123047,中山區
53,永福宮,福德正神,,,桃園市,19鄰仁和里士香街172號,道教,03-3894020,江如翠,121.27449798584,24.8971996307373,大溪區
54,福德宮,福德正神,,,基隆市,友二里華新二路110號邊,道教,02-24515632,詹春長,121.663803100586,25.1233406066895,七堵區
55,中和佛安宮,天上聖母,,,新北市,永和路199巷3號,道教,02-22405881,羅一郎,121.496452331543,25.0065689086914,中和區
56,新北市三峽靈隱寺,濟公活佛,,,新北市,竹崙里紫微南路11號,道教,02-26726676,董招賢,121.425903320313,24.921049118042,三峽區
57,慧日講堂,釋迦牟尼佛,,,臺北市,朱崙街力行里36號,佛教,02-27711417,陳裕焜,121.541297912598,25.0499000549316,中山區
58,仁安宮,元帥爺,,,桃園市,康安里13鄰安和路1號,道教,03-3888500,簡子嚴,121.281005859375,24.8572998046875,大溪區
59,雲山寺,藥師佛,,,新北市,米倉里牛寮埔8號,佛教,02-26106659,許向益,121.434097290039,25.1416091918945,八里區
60,西雲寺,普庵祖師,,,新北市,成州里3鄰西雲路185巷3號,佛教,02-22914392,陳坤桐,121.445907592773,25.0966053009033,五股區
61,奠濟宮,開漳聖王,,,基隆市,仁三路27之2號,道教,02-24289266,謝文賢,121.74324798584,25.1282234191895,仁愛區
62,太乙宮,三山國王,,,基隆市,愛四路2巷30號,道教,02-24280073,張益銓,121.743103027344,25.1274890899658,仁愛區
63,衜竹寺,普庵祖師,,,基隆市,華新二路150之2號,佛教,02-24511720,黃詩淵,121.641441345215,25.1392059326172,七堵區
64,瑪南里福興宮,福德正神,,,基隆市,瑪南里大華二路2之1號,道教,02-24561212,張景明,121.69979095459,25.1008586883545,七堵區
65,明德禪寺,普庵祖師,,,新北市,錦昌里圓通路367巷33弄36號,佛教,02-22466836,許經術,121.495498657227,24.9848308563232,中和區
66,紫竹寺,普庵祖師,,,新北市,橫路里興南路3段91巷臨57號,道教,02-29460002,陳仕宏,121.491600036621,24.9699802398682,中和區
67,準提寺,釋迦牟尼佛,,,新北市,嘉添里白雞路100之8號,佛教,02-26743750,周翠娥,121.393997192383,24.9008598327637,三峽區
68,蓮座山觀音寺,普庵祖師,,,桃園市,康安里22鄰瑞安路2段48巷28號,佛教,03-3885674,徐嵐輝,121.281402587891,24.8714694976807,大溪區
69,妙僊山聖慈宮,瑤池金母,,,新北市,民義路二段37號之34,道教,02-22931729,林文錡,121.413101196289,25.1004390716553,五股區
70,金碧宮,天上聖母,,,臺北市,內湖里金龍路92號,道教,02-27900849,賴吉雄,121.591400146484,25.0852508544922,內湖區
71,瑪陵坑南聖宮,天上聖母,,,基隆市,大華二路2之3號,道教,02-24551212,張瓏瀚,121.699798583984,25.1008605957031,七堵區
72,福德宮,福德正神,,,基隆市,瑪東里大同街52之1號邊,道教,02-24564256,李川,121.693717956543,25.131383895874,七堵區
73,七堵福德宮,福德正神,,,基隆市,富民里崇廉街11號,道教,02-24568655,詹福榮,121.715911865234,25.0991153717041,七堵區
74,福德宮,福德正神,,,基隆市,華新二路122之1號旁,道教,02-24515632,詹春長,121.648101806641,25.1277961730957,七堵區
75,力行福德宮,福德正神,,,新北市,力行里圓通路162巷2弄2號,道教,02-22484646,林寬仁,121.497299194336,24.9954795837402,中和區
76,修德寺,釋迦牟尼佛,,,桃園市,普濟路122號,佛教,03-3883406,簡阿蘭,121.285949707031,24.8864364624023,大溪區
77,大龍峒福壽宮,福德正神,,,臺北市,重慶里敦煌路2之1號,道教,02-25910340,陳源陽,121.520797729492,25.0748996734619,大同區
78,龍雲寺,釋迦牟尼佛,,,臺北市,景星里延平北路三段18巷1號,佛教,02-25948980,王照文(釋明藹),121.510704040527,25.0665626525879,大同區
79,樹人書院文昌祠,文昌帝君,,,臺北市,老師里迪化街二段364巷14號,道教,02-25992878,陳錫彰,121.510009765625,25.0677585601807,大同區
80,內湖承天宮,天上聖母,,,臺北市,文湖街21巷93號,道教,09-35025117,郭慶輝,121.564697265625,25.0865497589111,內湖區
81,台北太子宮無極聖殿,瑤池金母,,,新北市,茂長里7鄰陳厝坑51號之2,道教,02-26365377,沈吉東,121.520401000977,25.2479496002197,三芝區
82,水口民主公王宮,民主公王爺,,,新北市,新庄里新庄子59號之3,道教,02-26364096,江重光,121.507598876953,25.2743492126465,三芝區
83,鶴嶺天乙寺,濟公活佛,,,新北市,集福里天乙路129號,佛教,02-22912698,藍德鋆,121.442199707031,25.1145191192627,五股區
84,福安宮,福德正神,,,基隆市,中正路318巷11之1號,道教,02-24625163,陳宋萬定(逕予登),121.761497497559,25.1422805786133,中正區
85,東山夫子宮,關聖帝君,,,基隆市,正榮街110巷41號,道教,02-24625505,李泰雄,121.764022827148,25.1433238983154,中正區
86,福忠宮,池府王爺,,,桃園市,圳頭村古亭9鄰25號,道教,03-3868776,劉傳德,121.19953918457,25.0893115997314,大園區
87,廣安宮,開漳聖王,,,新北市,金包里街104號,道教,02-24983815,陳振基,121.638313293457,25.2219142913818,金山區
88,天母三玉宮,神農大帝,,,臺北市,天福里天母東路6號,道教,02-28754000,莊千鑫,121.530601501465,25.1180191040039,士林區
89,陽明山公館里關聖帝君廟,關聖帝君,,,臺北市,永公路350巷55號1樓,道教,02-28613090,葉進財,121.565498352051,25.1240997314453,士林區
90,義勇祠,大眾爺,,,基隆市,安一路266巷76之8號,道教,02-24262125,郭宗山,121.730201721191,25.1335792541504,安樂區
91,水尾福德宮,福德正神,,,桃園市,水尾里新生路522-1號,道教,03-4342779,莊建成,121.224006652832,24.9686965942383,中壢區
92,瑪西里面桶寮福德宮,福德正神,,,基隆市,大華三路109之1號前約600公尺,道教,02-24563743,王和雄,121.661590576172,25.1431121826172,七堵區
93,湖山巖,普庵祖師,,,新北市,興南路2段261巷11號,道教,02-29441680,蘇發,121.504058837891,24.9769630432129,中和區
94,三峽九龍萬億宮,天上聖母,,,新北市,金圳里互圳頭7之1號,道教,02-26720426,蔡郭片,121.37434387207,24.8897380828857,三峽區
95,九府仙師廟,九府仙師,,,臺北市,集英里民權西路70巷31、33號,道教,02-25317349,李宗波,121.519599914551,25.0630493164063,中山區
96,福山巖,清水祖師,,,桃園市,福山一路3號,道教,03-3888235,楊賴傳,121.265800476074,24.827579498291,大溪區
97,三武宮,郭王爺,,,新竹縣,文林村10鄰10號,道教,03-5924166,魏劉茂興,121.082397460938,24.7806301116943,芎林鄉
98,天德堂,明明上帝,,,桃園市,忠福里14鄰南園二路98號,一貫道,03-4520378,廖永康,121.231292724609,24.9719638824463,中壢區
99,善覺寺,普庵祖師,,,新北市,望古里灰窯24號,佛教,09-76255121,王巡,121.762702941895,25.0189208984375,平溪區
100,大香山觀音禪寺,普庵祖師,,,新北市,薯榔里靜安路二段3巷29號,佛教,02-24951696,顧希珍,121.704002380371,25.0212306976318,平溪區
101,福興宮,福德正神,,,新北市,興珍里中興路一段151巷4號,道教,02-29887412,林義一,121.464897155762,25.0733699798584,五股區
102,福昌宮,三山國王,,,新竹縣,石潭村8鄰福昌街300巷1號,道教,03-5928753,林政良,121.100608825684,24.7486572265625,芎林鄉
103,大覺寺,釋迦牟尼佛,,,新竹縣,長春路一段167號,佛教,03-5963646,釋永澄,121.089500427246,24.7333011627197,竹東鎮
104,天使宮,黃府王爺,,,基隆市,實踐路253巷19之1號,道教,02-24511220,謝柄寬,121.676597595215,25.0870609283447,七堵區
105,中和海山宮,天上聖母,,,新北市,嘉新里員山路327巷42號,道教,02-22217969,張禎祥,121.480598449707,25.0018196105957,中和區
106,道家萬玄仙宗三清道院總院,三清道祖,,,新北市,嘉添里白雞路40之5號,道教,02-86712253,李隆漢,121.376098632813,24.9116992950439,三峽區
107,得安宮,劉府王爺,,,新北市,安坑里安坑105之1號,道教,02-26726698,洪兩全,121.444412231445,24.9387626647949,三峽區
108,瑞源宮,開漳聖王,,,桃園市,瑞源里石園路760巷100號,道教,03-3809280,簡文德,121.25252532959,24.8671894073486,大溪區
109,督署宮(已拆除),裴先帥,,,新北市,崇德里9鄰仁愛街81號3樓,道教,02-29755872,何素馨,121.496055603027,25.0731353759766,三重區
110,無極金玉殿,玉皇大帝,,,新竹縣,新鳳村倒別牛1鄰15號,道教,03-5922699,邱瑞國,121.100563049316,24.7663421630859,芎林鄉
111,下山月桃窩萬善祠,有應公,,,新竹縣,下山村7鄰79號,道教,03-5921599,謝木水,121.057067871094,24.8108329772949,芎林鄉
112,代天巡狩三王府陳池姜三府王爺,三府王爺,,,新北市,店子里龜子山26之1號,道教,02-26371649,莊文松,121.505401611328,25.21217918396,三芝區
113,慈天宮,普庵祖師,,,新竹縣,北埔村北埔街1號,佛教,03-5801575,姜維經,121.058448791504,24.6997394561768,北埔鄉
114,北海天公廟,關聖帝君,,,新北市,後厝里土地公坑61之5號,道教,02-26363508,鄭重信,121.465103149414,25.2473392486572,三芝區
115,瑪南里大埔福德宮,福德正神,,,基隆市,大華二路130號旁,道教,02-24563333,蘇戊長,121.692230224609,25.1080894470215,七堵區
116,福德宮,福德正神,,,基隆市,瑪東里大華二路190號前,道教,02-24562574,張清波,121.687156677246,25.1111259460449,七堵區
117,溥濟宮,保生大帝,,,新北市,福真里橋和路202號,道教,02-22452005,林炎埤,121.49520111084,25.005880355835,中和區
118,天山靈寶寺,濟公活佛,,,桃園市,美華里金山路169巷66號,道教,03-3889729,吳德聖,121.310203552246,24.8807792663574,大溪區
119,福安宮,福德正神,,,新北市,更寮里更洲路47號之1,道教,02-29856396,陳天祥,121.457298278809,25.0793704986572,五股區
120,五股靜修寺,普庵祖師,,,新北市,觀音里中直路15號之3,佛教,02-22911166,蔡李順,121.424301147461,25.1118202209473,五股區
121,五股仙佛寺,釋迦牟尼佛,,,新北市,民義路一段220巷17之15號,佛教,02-82952117,陳受堯,121.42749786377,25.0968494415283,五股區
122,永興宮,財神爺,,,桃園市,榮興南路92之1號,道教,03-3775713,林健仁,121.30598449707,24.9485092163086,八德區
123,長和福地福德宮,福德正神,,,新竹市,長和里愛文街26巷60號,道教,03-5228173,林金地,120.962699890137,24.8102016448975,北區
124,威靈宮,廣澤尊王,,,新竹市,新雅里13鄰成功路278號,道教,03-5246172,楊昔祥,120.952003479004,24.811580657959,北區
125,祠宇媽祖宮,天上聖母,,,臺北市,延平里保安街49巷17號,道教,02-25539978,莊家聲,121.512252807617,25.0584716796875,大同區
126,集福宮福德爺,福德正神,,,新竹市,崇禮里6鄰中山路254號,道教,03-5229329,鄭錦洲,120.962089538574,24.802640914917,北區
127,太和宮,三官大帝,,,新竹縣,東興里大同路30號,道教,03-5872216,羅吉信,121.176811218262,24.7905082702637,關西鎮
128,上德宮,天上聖母,,,新北市,上德村崩山坑10之1號,道教,02-26656895,黃宗盛,121.69034576416,24.9485511779785,坪林區
129,六堵嶺頭福德宮,福德正神,,,基隆市,工建路104巷67之2號,道教,02-24512770,許金信,121.703598022461,25.0885791778564,七堵區
130,福德宮,福德正神,,,基隆市,八德路26之3號,道教,02-24311815,歐聰明,121.727272033691,25.111873626709,七堵區
131,乾德宮,五府千歲,,,新竹市,水田里12鄰水田街50巷3-1號,道教,03-5331871,陳志鴻,120.966400146484,24.812780380249,北區
132,冥漠公廟,有應公,,,新竹市,湳雅街174號,道教,03-5310031,陳嘉萌,120.974502563477,24.8209590911865,北區
133,新竹都城隍廟,城隍爺,,,新竹市,中山里14鄰中山路75號,道教,03-5223666,鄭來聖,120.965896606445,24.8044891357422,北區
134,軒轅教新竹黃帝神宮,軒轅黃帝,,,新竹市,新雅里5鄰和平路192號,道教,03-5250341,王秀螺,120.954399108887,24.8129806518555,北區
135,南中宮,福德正神,,,新竹市,湳中里8鄰湳中街40巷40-7號,道教,03-5346632,洪進上,120.966537475586,24.8215599060059,北區
136,大覺寺,釋迦牟尼佛,,,桃園市,保生里5鄰濱海路保生段306巷155號,佛教,03-4732570,黃鳳嬌,121.048515319824,25.0187320709229,觀音區
137,石橋復興宮,開漳聖王,,,桃園市,新興村4鄰26號,理教,03-4772318,陳俊宏,121.090614318848,25.0063495635986,觀音區
138,雲台山大羅金仙府,太上老君,,,新北市,永定里蚯蚓坑19之2號,道教,02-26631111,周秀梅,121.686798095703,25.0036506652832,石碇區
139,新北市板橋區北天廟,玄天上帝,,,新北市,振義里萬安街124巷4號,道教,02-29618737,楊勝興,121.484001159668,25.0248603820801,板橋區
140,道玄宮,太上老君,,,基隆市,壽山路10號,道教,02-24228393,簡紹林,121.75227355957,25.1333618164063,信義區
141,水仙宮,水仙尊王,,,新竹市,長和里1鄰北門街135號,道教,03-5267510,楊金土,120.96369934082,24.8106899261475,北區
142,修德寺,釋迦牟尼佛,,,新竹市,育英里6鄰中山路431巷34弄1號,佛教,03-5251557,郭淑琴,120.958702087402,24.7999897003174,北區
143,寄靈菴廟,有應公,,,新竹市,舊社里7鄰湳雅街351號,道教,03-5315355,黃文忠,120.977195739746,24.8232479095459,北區
144,暖暖安德宮,天上聖母,,,基隆市,暖暖里第2鄰暖暖街63號,道教,02-24575692,鄭怡信,121.73860168457,25.1011695861816,暖暖區
145,八卦福德宮,福德正神,,,新竹市,湳雅里2鄰東大路二段446巷271弄28號,道教,03-5422313,張慶順,120.961097717285,24.8203506469727,北區
146,七伍宮,七府王爺,,,新竹市,古賢里3鄰東大路三段110巷2弄1號,道教,03-5335339,王泰山,120.956199645996,24.8296394348145,北區
147,潛園里福德宮,福德正神,,,新竹市,潛園里西大路469巷17號,道教,03-5331819,柳宗義,120.965202331543,24.8021907806396,東區
148,北辰宮,福德正神,,,新竹市,仁德里4鄰北大路249號,道教,03-5223590,李清木,120.964302062988,24.8072891235352,北區
149,和平福德宮,福德正神,,,新竹市,磐石里7鄰磐石路28號,道教,03-5240095,張蔡淑珠,120.957000732422,24.8089408874512,北區
150,聖媽廟,天上聖母,,,新竹市,西門里7鄰江山街6-13號,道教,03-5260099,曾再霖(代理),120.964622497559,24.8053092956543,北區
151,北門口福聚宮,福德正神,,,臺北市,玉泉里延平北路1段68號,道教,02-25550051,陳正賢,121.511810302734,25.0516242980957,大同區
152,新竹崙仔受天宮,玄天上帝,,,新竹市,愛文街106-6號,道教,03-5232988,黃坤隆,120.962303161621,24.8093795776367,北區
153,聖母宮,天上聖母,,,基隆市,堵南里長安街245巷29號,道教,02-24511632,余明忠,121.696029663086,25.0753364562988,七堵區
154,圓明慈惠堂,瑤池金母,,,新北市,吉興里15鄰南山路315巷12號,道教,02-29416100,林雪子,121.504898071289,24.9919109344482,中和區
155,板橋慈惠堂,瑤池金母,,,新北市,嘉添里白雞路33之47號,道教,02-26730801,楊秀雪,121.371002197266,24.9127407073975,三峽區
156,佛國寺,釋迦牟尼佛,,,新北市,成福里成福路315巷21號,佛教,02-26681482,許雪娥,121.428001403809,24.9236392974854,三峽區
157,桃園市大溪區永安宮,三官大帝,,,桃園市,瑞興里8鄰大鶯路870巷5號,道教,03-3801239,林繼雄,121.301803588867,24.9187107086182,大溪區
158,慈聖宮,天上聖母,,,桃園市,美華里美山路1段12鄰693巷49號,道教,03-3886432,蔡水木,121.30069732666,24.8738594055176,大溪區
159,月眉山觀音寺,普庵祖師,,,桃園市,月眉里15鄰月眉路1號,佛教,03-3881746,李戶峯,121.28630065918,24.8877201080322,大溪區
160,妙音寺,釋迦牟尼佛,,,桃園市,內定里合圳北路2段5鄰470號,佛教,03-4531778,游蘭蕾,121.247276306152,25.0060768127441,中壢區
161,普陀山慈航宮,普庵祖師,,,新北市,乾華里阿里磅88號之1,道教,02-26380519,江炎泉,121.744400024414,25.0433692932129,石門區
162,財團法人台北行天宮北投分宮,關聖帝君,,,臺北市,中央北路四段18巷50號,道教,02-28912731,吳岳羽,121.477699279785,25.1366806030273,北投區
163,廣天寺,釋迦牟尼佛,,,桃園市,青埔里7鄰55號,佛教,03-4531610,李文鈺,121.21849822998,25.0149402618408,中壢區
164,福源宮,福德正神,,,基隆市,友一里華新一路107之5號,道教,02-24516934,黃文進,121.665733337402,25.09934425354,七堵區
165,自強里水尾福德廟,福德正神,,,基隆市,自強里大華一路123號旁,道教,02-24569686,張燈錄,121.712425231934,25.1012592315674,七堵區
166,聖安慈惠堂,瑤池金母,,,基隆市,友二里14鄰華新二路112號,道教,02-24516161,吳麗霞,121.664497375488,25.1229953765869,七堵區
167,觀音禪院,普庵祖師,,,新北市,安樂里安樂路217巷22號,佛教,02-29421035,蕭金蘭,121.513801574707,24.9985599517822,中和區
168,和美宮,福德正神,,,新北市,福祥里永和路66巷1之1號,道教,02-22438310,許全興,121.498802185059,25.0045795440674,中和區
169,無極七玄宮,九天玄女,,,新北市,鳶山里中山路459巷201號,道教,02-26746506,劉輦,121.344802856445,24.9297790527344,三峽區
170,普陀淨苑,釋迦牟尼佛,,,新北市,溪東里溪東路233巷47弄2號,佛教,02-86768796,連阿惠,121.407997131348,24.934419631958,三峽區
171,三層福安宮,天上聖母,,,桃園市,福安里24鄰三層43號,道教,03-3884767,林阿傳,121.296714782715,24.8586235046387,大溪區
172,廣福宮,福德正神,,,新北市,積穗里11鄰中山路三段63巷臨27號,道教,02-22211519,何雲坊,121.476654052734,25.0030841827393,中和區
173,保慶宮,福德正神,,,新北市,保平路326巷28號,道教,02-22498995,陳建行,121.506202697754,25.004919052124,中和區
174,保儀宮,廣澤尊王,,,新北市,安坑里安坑路38之7號,道教,02-26726169,翁利成,121.454238891602,24.9320201873779,三峽區
175,福正宮,福德正神,,,臺北市,劍潭里中山北路4段67號,道教,02-25925144,陳健智,121.52449798584,25.0804290771484,中山區
176,齋明寺,普庵祖師,,,桃園市,光明里齋明街153號,佛教,03-3801426,洪鴻榮,121.274528503418,24.8890705108643,大溪區
177,北源天山無極靈山宮,瑤池金母,,,新北市,長坑里長道坑36號之2,道教,02-86303247,洪店,121.389137268066,25.1273326873779,八里區
178,新北市集福宮福德爺,福德正神,,,新北市,成德里天乙路14號,道教,02-82951212,林正盛,121.44889831543,25.1030197143555,五股區
179,友蚋清水岩,清水祖師,,,基隆市,友一里華新一路39號,道教,02-24515607,王高程,121.66780090332,25.0908107757568,七堵區
180,圓通禪寺,釋迦牟尼佛,,,新北市,錦昌里圓通路367巷64號,佛教,02-22472350,蔡杏紋,121.492698669434,24.9822902679443,中和區
181,中和協昇廟,玄天上帝,,,新北市,灰磘里員山路49號之5,道教,02-22238558,游丙丁,121.480499267578,24.9915008544922,中和區
182,台北紫微天后宮,天上聖母,,,新北市,竹崙里紫微南路50號,道教,02-26726400,劉燕耀,121.422302246094,24.9089393615723,三峽區
183,三峽福安宮,福德正神,,,新北市,民權街32號,道教,02-26731091,黃宗祥,121.369903564453,24.9341106414795,三峽區
184,植福宮,福德正神,,,臺北市,成功里北安路608巷14弄1號,道教,02-25323316,陳志堂,121.550598144531,25.0817794799805,中山區
185,福德宮,福德正神,,,桃園市,大鶯路1566之1號,道教,03-3076599,沈龍飛,121.318786621094,24.9302158355713,大溪區
186,聚賢慈惠堂,瑤池金母,,,桃園市,復興里復興路2段318號,道教,03-3884303,李賢生,121.31169128418,24.8258361816406,大溪區
187,明園大佛寺,釋迦牟尼佛,,,新北市,米倉里牛寮埔1號,佛教,02-26182525,徐蔡靜江,121.436302185059,25.1486206054688,八里區
188,瞿公真人廟,瞿公真人,,,臺北市,建功里天水路49-1號,道教,02-25586595,林程品,121.512771606445,25.0529232025146,大同區
189,太陽堂,太陽星君,,,臺北市,碧山里碧山路2號,道教,02-27909328,李根木,121.591300964355,25.0866203308105,內湖區
190,福德宮,福德正神,,,基隆市,愛三路49巷9號,道教,02-24257937,江陳麟,121.742134094238,25.1280879974365,仁愛區
191,信天宮,玄天上帝,,,新北市,店子里菜公坑97之1號,道教,02-26371011,蘇洺湫,121.515197753906,25.20578956604,三芝區
192,鳳舞慈惠宮,瑤池金母,,,桃園市,復興里3鄰復興路2段316巷39號,道教,03-3885910,李呂彩玉,121.31298828125,24.8251895904541,大溪區
193,元化院,釋迦牟尼佛,,,桃園市,中央里21鄰元化路205號,佛教,03-4523341,徐瑞蟬,121.22745513916,24.9606475830078,中壢區
194,九天玄女宮,九天玄女,,,新北市,中直路崩山巷9之3號,道教,02-22933177,馬黃敏婉,121.419479370117,25.1218719482422,五股區
195,聖南寺,釋迦牟尼佛,,,新北市,牡丹里聖南30號,佛教,02-24933332,湯玉兒,121.85710144043,25.0521793365479,雙溪區
196,三忠廟,文天祥,陸秀夫,張世傑,新北市,雙溪里長安街15號,道教,02-24933327,連隆盛,121.864700317383,25.0347595214844,雙溪區
197,雙溪聖龍宮,瑤池金母,,,新北市,外柑里10鄰三叉坑4之2號,道教,02-24934048,林宏茂,121.824722290039,25.0136737823486,雙溪區
198,龍華山大觀寺,釋迦牟尼佛,,,新北市,三港里雙澳路35之1號,佛教,02-24934920,鄭松明,121.868499755859,25.0513191223145,雙溪區
199,碧龍福德祠,福德正神,,,新竹縣,石潭村5鄰,道教,03-5928753,李阿愆,121.100769042969,24.7521991729736,芎林鄉
200,普照山大同寺,普庵祖師,,,新北市,店子里7鄰36號邊,佛教,02-26372118,鄭清波,121.506202697754,25.2063007354736,三芝區
201,福惠宮,三府王爺,,,新北市,圓山里石曹子坑51號,道教,02-26371161,吳健功,121.518997192383,25.2136192321777,三芝區
202,北聖宮,天上聖母,,,新北市,板南路123之1號,道教,02-22474798,林進益,121.501998901367,24.9924907684326,中和區
203,廣德堂,明明上帝,,,桃園市,東興里25鄰東興街117號,一貫道,03-4575011,謝德財,121.223991394043,24.9496078491211,中壢區
204,觀音巖,普庵祖師,,,新北市,公園街18號,佛教,02-24951292,林文喜,121.734596252441,25.0247993469238,平溪區
205,關渡萬善同公祠,地藏王菩薩,,,臺北市,一德里中央北路4段583巷10弄26號,道教,02-28955147,林福真,121.465698242188,25.1246395111084,北投區
206,寶纈禪寺,釋迦牟尼佛,,,新北市,集福里成泰路4段43號,佛教,02-22911632,林美月,121.456497192383,25.1117401123047,五股區
207,台北市松山五分埔福德宮,福德正神,,,臺北市,虎林街四育里47之3號,道教,02-27692247,陳永昌,121.576698303223,25.0476493835449,信義區
208,埤墘福德宮,福德正神,,,新北市,華江里莊敬路179號,道教,02-22521239,林朝枝,121.471099853516,25.0237503051758,板橋區
209,新北市烏來普陀山慈音精舍,普庵祖師,,,新北市,烏來里西羅岸路122號之5,佛教,02-26616397,陳東鍠,121.540000915527,24.8635807037354,烏來區
210,松山慈惠堂,瑤池金母,,,臺北市,中行里福德街251巷33號,道教,02-27261735,李郭葉子,121.587501525879,25.0365390777588,信義區
211,靈山禪林寺,釋迦牟尼佛,,,新北市,永定里藤寮坑2號,佛教,02-23818827,釋秋焱,121.702102661133,25.0089302062988,石碇區
212,添福宮,福德正神,,,新北市,茄苳里茄福街73巷8號,道教,02-86487124,廖豐文,121.673301696777,25.066219329834,汐止區
213,板橋庭天宮,關聖帝君,,,新北市,浮洲里大觀路一段28巷26號,道教,02-29668964,林明田,121.449996948242,25.009349822998,板橋區
214,菩提院,釋迦牟尼佛,,,新北市,漢生里光正街45巷17號,佛教,02-29657185,釋性定,121.461700439453,25.016529083252,板橋區
215,台北市文山區頂公館福德宮,福德正神,,,臺北市,公館街44之1號,道教,02-29343086,許朝杉,121.537696838379,25.0054492950439,文山區
216,天宇三三道合五化院母懿堂,瑤池金母,,,新北市,汐萬路三段66號,道教,02-26431133,陳榮宗,121.643997192383,25.0933494567871,汐止區
217,聖德宮,瑤池金母,,,新北市,勤進路193號,道教,02-26419933,王炎山,121.665214538574,25.0542049407959,汐止區
218,白雲福德宮,福德正神,,,新北市,白雲里水源路二段34號對面,道教,02-26421023,陳錦順,121.654800415039,25.0571193695068,汐止區
219,三重玄帝宮,玄天上帝,,,新北市,重陽路三段5巷8弄47號旁,道教,02-29835265,王明達,121.490196228027,25.0667705535889,三重區
220,龍雲宮,玄天上帝,,,新北市,永順里永安北路一段27巷58號旁,道教,02-22878704,余炳鑫,121.478073120117,25.0756320953369,三重區
221,大眾爺,老大公,,,基隆市,調和街301之106號,道教,02-24693042,張金土,121.799102783203,25.1243896484375,中正區
222,聖平宮,中壇元帥,,,基隆市,中正路656巷71弄30號之1,道教,02-24629458,吳文綜,121.768600463867,25.1493091583252,中正區
223,福林宮,福德正神,,,基隆市,環港街84號3樓,道教,02-24692364,蔡永源,121.792602539063,25.1409797668457,中正區
224,福惠宮,大眾爺,,,基隆市,八斗街122之1號,道教,02-24692614,許焜山,121.796401977539,25.1434707641602,中正區
225,福德宮,福德正神,,,新北市,西湖村1鄰13號旁,道教,-,陸宜芳,121.622657775879,25.2481956481934,金山區
226,台北霞海城隍廟,城隍爺,,,臺北市,永樂里迪化街1段61號,道教,02-25580346,陳文文,121.510101318359,25.0556201934814,大同區
227,福德祠,福德正神,,,臺北市,康寧路1段236號,道教,02-27900442,陳東源,121.596199035645,25.0779991149902,內湖區
228,東方寺,釋迦牟尼佛,,,臺北市,公館里永公路245巷24號,佛教,02-28616170,彭世珠,121.55899810791,25.1231803894043,士林區
229,士林街福德宮,福德正神,,,臺北市,義信里大南路138號,道教,02-28819326,陳中和,121.522903442383,25.0898609161377,士林區
230,鶯歌石萬善祠,福德正神,,,基隆市,樂利三街1之1號,道教,02-24312055,李財(逕予登,121.717399597168,25.1290893554688,安樂區
231,國家新城福德宮,福德正神,,,基隆市,樂利三街38巷13之4號,道教,02-24324239,戴勝雄,121.713203430176,25.1265106201172,安樂區
232,定國宮,天上聖母,,,基隆市,定國里定國街119巷65號,道教,02-24291933,廖龍雄,121.731597900391,25.1353092193604,安樂區
233,法藏寺,釋迦牟尼佛,,,臺北市,溫泉路林泉里156號,佛教,02-28912314,林珠,121.513496398926,25.1394100189209,北投區
234,內湖公舘庄武身開漳聖王廟,開漳聖王,,,臺北市,內湖路3段256巷8號,道教,02-27955342,林金榜,121.586502075195,25.0913791656494,內湖區
235,福德宮,福德正神,,,基隆市,東新街42之1號,道教,02-24564676,姚琴富,121.719017028809,25.0946483612061,七堵區
236,碧山巖開漳聖王廟,開漳聖王,,,臺北市,碧山里碧山路24號,道教,02-27963755,林明脩,121.587600708008,25.0973205566406,內湖區
237,屏山天元宮,關聖帝君,,,新北市,橫山56之2號,道教,02-26363837,陳淑貞,121.53589630127,25.2537403106689,三芝區
238,菩提禪寺,釋迦牟尼佛,,,基隆市,安一路100巷299號,佛教,02-24225645,林美絹,121.732597351074,25.1329708099365,安樂區
239,中埔福德宮,福德正神,,,基隆市,實踐里實踐路61之1號,道教,02-24528137,蔡旺璉,121.692687988281,25.0808448791504,七堵區
240,七堵福安宮,福德正神,,,基隆市,明德一路258號,道教,02-24561277,張世璿,121.710296630859,25.0955905914307,七堵區
241,草濫清水巖,清水祖師,,,基隆市,泰安里泰安路2巷10號,道教,02-24515515,李精江,121.711128234863,25.0873851776123,七堵區
242,潭墘樂墘宮,福德正神,,,新北市,安和里安平路99號,道教,02-89411342,呂芳齊,121.511100769043,24.9969806671143,中和區
243,三峽廣行宮,關聖帝君,,,新北市,龍埔里三樹路98巷187之1號,道教,02-26730131,黃騰霆,121.385147094727,24.941915512085,三峽區
244,金剛寺,阿彌陀佛,,,臺北市,劍潭里中山北路4段71巷2弄臨3號,佛教,02-28851890,陳添益,121.525901794434,25.0809192657471,中山區
245,萬聖堂,關聖帝君,,,桃園市,復興里環湖1段238巷57號,道教,03-4112137,曾振達,121.261108398438,24.8087482452393,大溪區
246,復興宮,開漳聖王,,,桃園市,復興里復興路二段287巷15號,道教,03-3888875,朱子明,121.310302734375,24.8257808685303,大溪區
247,紫皇天乙真慶宮,玄天上帝,,,新北市,舊城里中華路二段165巷33號,道教,02-26104373,陳文清,121.410697937012,25.1487598419189,八里區
248,台北五股坑朝天府,北府五王,,,新北市,民義里民義路一段255號之12,道教,02-22917458,翁水河,121.426399230957,25.0909996032715,五股區
249,霄裡玉元宮,玉皇大帝,,,桃園市,竹園里2鄰長興路756號,道教,03-3652098,段樹文,121.26439666748,24.9334506988525,八德區
250,青埔青昇宮,開漳聖王,,,桃園市,青埔里3鄰青溪路二段35號,道教,03-4531673,林永貴,121.222503662109,25.0156192779541,中壢區
251,海會禪苑,釋迦牟尼佛,,,新竹市,光鎮里13鄰南大路748巷3弄2號,佛教,03-5265686,陳米雲,120.964797973633,24.7899208068848,東區
252,靜修寺,燃燈佛,釋迦牟尼佛,彌勒佛,基隆市,華新二路97巷3號,佛教,02-24512689,許瑜容,121.664901733398,25.1034507751465,七堵區
253,基隆六堵代天府,五府千歲,,,基隆市,工建路104巷17之5號,道教,02-29514239,詹汝,121.702156066895,25.0908317565918,七堵區
254,慈雲岩,普庵祖師,,,新北市,圓通路367巷66號,佛教,02-22473525,張月,121.490798950195,24.9813194274902,中和區
255,大天府,玉皇大帝,,,新北市,添福里7鄰添福207號,道教,02-26931690,詹文質,121.38419342041,24.8923091888428,三峽區
256,八里代天府奉天宮,五府千歲,,,新北市,米倉里米倉26之1號,道教,02-26181966,陳春長,121.438903808594,25.1484107971191,八里區
257,三重安北宮,吳府千歲,,,新北市,五龍里民義路二段52巷27號之1,道教,02-22923726,謝明德,121.410797119141,25.1135997772217,五股區
258,桃園八德指玄宮,孚佑帝君,,,桃園市,指玄街66號,道教,03-3669941,邱創漢,121.309593200684,24.955207824707,八德區
259,天王宮,李靖托塔天王,,,基隆市,復興街60巷85號,道教,02-24242817,呂黃阿珠,121.751586914063,25.1244430541992,仁愛區
260,景山岩廟,神農大帝,,,基隆市,南榮路231巷33之3號,道教,02-24286871,陳志興(已死亡),121.743911743164,25.1214790344238,仁愛區
261,永勝慈惠堂,瑤池金母,,,新北市,國隆里大同北路54巷10號,道教,02-29832017,蘇來傳,121.493797302246,25.063570022583,三重區
262,松湖宮,天上聖母,,,基隆市,中正路182巷24之3號,道教,02-24260660,陳榮興,121.755531311035,25.1383285522461,中正區
263,福泉庵,釋迦牟尼佛,,,基隆市,新豐街12號,佛教,02-24621501,釋心嚴,121.789031982422,25.1421203613281,中正區
264,仁德宮,天上聖母,,,桃園市,田心村29鄰30號,道教,03-3866259,黃興隆,121.196403503418,25.0576820373535,大園區
265,水濂洞梵音寺,釋迦牟尼佛,,,新竹縣,七星村14鄰61號,佛教,03-5800862,陳源明,121.025398254395,24.6548099517822,峨眉鄉
266,金龍聖殿,普庵祖師,,,新竹縣,錦山里12鄰錦山138號,道教,03-5478787,蘇柏宇,121.271614074707,24.7695636749268,關西鎮
267,清雲殿,神農大帝,,,新北市,灣潭4號,道教,02-87126708,馮明祥,121.676048278809,24.9319820404053,坪林區
268,準提寺,準提菩薩,,,基隆市,安一路278巷62弄64號,佛教,02-24225828,陳秀葉,121.728996276855,25.1334705352783,安樂區
269,寶明寺,釋迦牟尼佛,,,基隆市,南榮路463巷36號,佛教,02-24226627,何美玉,121.746109008789,25.1160545349121,仁愛區
270,順安宮,福德正神,,,基隆市,南榮路269巷28號,道教,02-24245054,陳芳國(暫代),121.743980407715,25.120454788208,仁愛區
271,天后宮,天上聖母,,,基隆市,和一路84巷16號,道教,02-24625061,賴澄龍,121.766647338867,25.1555480957031,中正區
272,台北市士林區合誠宮,開漳聖王,,,臺北市,平等里平菁街106巷6之1號,道教,02-28616866,徐明忠,121.575500488281,25.1275196075439,士林區
273,廣明寺,普庵祖師,,,臺北市,延平北路６段社園里116巷13號,佛教,02-28127061,李悟和,121.501197814941,25.0911903381348,士林區
274,福興宮,福德正神,,,臺北市,福興路5號,道教,02-29309628,高昌倫,121.551399230957,25.0022602081299,文山區
275,應天宮,關聖帝君,,,桃園市,新興村7鄰16之10號,道教,03-4771242,溫福昭,121.097396850586,25.0065288543701,觀音區
276,無極天明宮,玉皇大帝,,,新北市,格頭里北宜路五段火燒樟巷9之1號,道教,02-26651709,黃阿寬,121.626449584961,24.9556369781494,石碇區
277,宜興福德宮,福德正神,,,新北市,宜興里林森街70號,道教,02-26603305,闕壯昇,121.623001098633,25.0404891967773,汐止區
278,明月寺,釋迦牟尼佛,,,基隆市,仁一路7巷9弄18號,佛教,02-24262080,李春福,121.755699157715,25.1273002624512,信義區
279,關聖宮,關聖帝君,,,新竹縣,員山村建興路一段202號,道教,03-5594613,謝英旭,120.994316101074,24.8828105926514,新豐鄉
280,五台殿,大德禪師,,,基隆市,正光里自治街18鄰37號,道教,02-24565108,雷國清,121.713684082031,25.0955543518066,七堵區
281,南山慈惠堂,瑤池金母,,,新北市,內南里38鄰興南路二段399巷112號,道教,02-29425382,呂麗雪,121.500518798828,24.9767761230469,中和區
282,台北佛教淨業林,阿彌陀佛,,,新北市,介壽路2段138巷1弄168號,佛教,02-26712882,吳淑玲,121.402603149414,24.9266395568848,三峽區
283,隆恩埔福恩宮,福德正神,,,新北市,隆恩街110巷17號,道教,-,陳正松,121.365440368652,24.9472713470459,三峽區
284,晧月精舍,阿彌陀佛,,,桃園市,美華里3鄰復興路1段39巷211弄60號,佛教,03-3889519,周玉英,121.297500610352,24.8732795715332,大溪區
285,洲子芳洲祠,福德正神,,,新北市,西雲路12巷1號之1,道教,02-22920501,陳永堅,121.443099975586,25.090160369873,五股區
286,南天宮,三官大帝,,,新北市,五湖里南勢湖69號,道教,02-24982588,陳金城,121.616798400879,25.2146091461182,金山區
287,淨光寺,釋迦牟尼佛,,,臺北市,天母里中山北路7段190巷113之3號,佛教,02-28718214,詹舜華,121.537300109863,25.1280002593994,士林區
288,基隆市中山區協和宮,福德正神,天上聖母,,基隆市,文化路10巷8之3號,道教,02-24289518,蔡佳富,121.737075805664,25.1511707305908,中山區
289,福德宮,福德正神,,,基隆市,中崙里基金二路1巷8之1號,道教,02-24310272,吳伯宗(暫代),121.702796936035,25.1425590515137,安樂區
290,大雲碧仙寺,釋迦牟尼佛,,,桃園市,華勛里8鄰華勛街208巷38弄26號,佛教,03-4657973,吳德久,121.259399414063,24.9489822387695,中壢區
291,福興宮,福德正神,,,基隆市,中華路69號,道教,02-24294870,陳仁傑,121.738296508789,25.1465606689453,中山區
292,協安宮,五府千歲,,,基隆市,協和街167之1號,道教,02-24277672,童再添,121.732803344727,25.1584091186523,中山區
293,北投天寶聖道宮,玉皇大帝,,,臺北市,林泉里幽雅路杏林巷5之1號,道教,02-28956003,陳科稦,121.518898010254,25.1382503509521,北投區
294,福山巖顯應廟,顯應祖師,,,新北市,福山里民權街2段121號,道教,02-26401827,林鴻坤,121.618797302246,25.0463790893555,汐止區
295,褒忠祠,義民,,,桃園市,義民里14鄰復旦路2段23巷8號,道教,03-4932246,宋隆虎,121.205001831055,24.9473896026611,平鎮區
296,財團法人軒轅教,軒轅黃帝,,,臺北市,歸綏街79號之6,軒轅教,02-2388,熊芳信,121.51668548584,25.0590438842773,大同區
297,五指山觀音寺,普庵祖師,,,新竹縣,瑞峰里4鄰94號,佛教,03-5801429,黃月星,121.094100952148,24.6483192443848,竹東鎮
298,霹靂宮,五雷元帥,,,新北市,中原里永和路514號,道教,02-22220989,廖江雄,121.482398986816,25.0123100280762,中和區
299,武聖宮,關聖帝君,,,新北市,中正路二段85號,道教,02-26735647,林友義,121.366722106934,24.9178371429443,三峽區
300,慈慧寺,燃燈佛,釋迦牟尼佛,彌勒佛,新北市,添福里添福195之1號,佛教,02-26721550,林金蓮,121.386703491211,24.8938808441162,三峽區
301,新福宮,福德正神,,,臺北市,中山里新生北路2段62巷33號,道教,02-25631982,洪煌龍,121.52619934082,25.0575294494629,中山區
302,和福宮,福德正神,,,桃園市,埔頂路一段410號,道教,03-3802836,李柏坊,121.276260375977,24.9042224884033,大溪區
303,忠魂堂,釋迦牟尼佛,,,桃園市,普濟路132號,佛教,03-3882308,簡安申,121.286483764648,24.8869934082031,大溪區
304,南嶽宮,南嶽聖侯,,,新北市,下罟里下罟子臨8-3號,道教,02-26101139,鄭康忠,121.388000488281,25.1417407989502,八里區
305,開臺天后宮,天上聖母,,,新北市,龍米路二段191號,道教,02-26108500,張金貴,121.434097290039,25.1581993103027,八里區
306,法源講寺,釋迦牟尼佛,,,新竹市,高峰里17鄰高峰路236號,佛教,03-5215302,葉秀月,120.976501464844,24.7846908569336,東區
307,新豐宮,三山國王,,,新竹縣,新城村5鄰新湖路5段326號,道教,03-5762056,彭鼎煌,120.965896606445,24.7309055328369,寶山鄉
308,楊公廟,楊府真人,,,新竹縣,富興村9鄰23-1號,道教,03-5806846,羅逢森,120.980499267578,24.6876792907715,峨眉鄉
309,福德祠,福德正神,,,新竹縣,福興村7鄰43號,道教,03-5993949,范賢妹,121.035194396973,24.9415950775146,新豐鄉
310,普元宮,清府王爺,,,新竹縣,坡頭村6鄰95之7號,道教,03-5680379,李錦珍,120.977600097656,24.9249153137207,新豐鄉
311,光淨寺,釋迦牟尼佛,,,臺北市,興隆路4段1巷88號,佛教,02-29395086,張再綿,121.558799743652,24.9878406524658,文山區
312,復興宮,開漳聖王,,,桃園市,樹林里16鄰35號,道教,03-4830783,鄧宗文,121.128425598145,25.0605201721191,觀音區
313,慈蓮苑,釋迦牟尼佛,,,新北市,豐田里華梵路2號,佛教,02-26631505,王淑雲,121.691596984863,24.9775905609131,石碇區
314,一言精舍,釋迦牟尼佛,,,新北市,光榮里光華街62.64號,佛教,02-29680802,劉育誌,121.45369720459,25.0132293701172,板橋區
315,鳳山寺,保儀尊王,,,新北市,文翠里4鄰仁化街181號,佛教,02-22515955,藍玉來,121.478218078613,25.0337982177734,板橋區
316,名山宮,福德正神,,,基隆市,壽山路19之1號,道教,02-24259220,朱清景,121.755279541016,25.1347198486328,信義區
317,靜修禪寺,普庵祖師,,,基隆市,東信路258巷132號,佛教,02-24662191,鄭葉文,121.76261138916,25.1315517425537,信義區
318,啟化講堂,明明上帝,,,基隆市,獅球路48巷174號,一貫道,02-24334972,高遂鳳,121.734497070313,25.1224594116211,仁愛區
319,富文宮,三府王爺,,,桃園市,北港里10鄰潮音二路190號,道教,03-3861424,許阿鐘,121.16926574707,25.0769519805908,大園區
320,智成堂,關聖帝君,,,新北市,錫板里海尾17號,道教,02-26362557,楊邱美雲,121.478996276855,25.2569904327393,三芝區
321,妙宗秀明宮,普庵祖師,,,新北市,興華里車埕68號之1,道教,02-26371998,邱黃金子,121.493698120117,25.1933193206787,三芝區
322,圓覺精舍,釋迦牟尼佛,,,桃園市,福德里13鄰光華二街1號,佛教,03-4635396,張松村,121.257400512695,24.9779510498047,中壢區
323,三元宮,三官大帝,,,新竹縣,南坑村2鄰九份子29號,道教,03-5801014,羅玉湘,121.054420471191,24.6746444702148,北埔鄉
324,長慶廟,福德正神,,,臺北市,板溪里晉江街34號,道教,02-23653426,洪文勝,121.521842956543,25.0251026153564,中正區
325,上清宮,天上聖母,,,新北市,集福里成泰路四段43之1號,道教,02-22912961,鄭漢騰,121.456497192383,25.1117401123047,五股區
326,草山福德宮,福德正神,,,基隆市,調和街154之3號,道教,02-24693042,邱明山,121.798500061035,25.1315498352051,中正區
327,金山寺,釋迦牟尼佛,,,新北市,清泉里8鄰西勢13之1號,佛教,02-24987696,林美皇,121.624885559082,25.2346858978271,金山區
328,五股玄女宮,九天玄女,,,新北市,民義路一段220巷21號,道教,02-22914610,李士彬,121.429298400879,25.095100402832,五股區
329,明玄宮,地母至尊,,,基隆市,南榮路117巷31弄1號,道教,02-24223163,林木火,121.743797302246,25.1257705688477,仁愛區
330,福長宮,福德正神,,,基隆市,北寧路369巷43之7號,道教,02-00000000,朱英和,121.802192687988,25.1423473358154,中正區
331,寧興宮,楊府真人,,,新竹市,三民里14鄰民族路193巷16號,道教,03-5335291,呂惟源,120.979698181152,24.8100700378418,東區
332,岐山巖,清水祖師,,,新北市,屈尺里屈尺路125號,道教,02-26668220,唐萬居,121.545097351074,24.9232807159424,新店區
333,潤濟宮,三官大帝,,,新北市,安康路三段306號,道教,02-22151417,廖榮權,121.487396240234,24.9521503448486,新店區
334,集義宮,三府王爺,,,臺北市,富福里康定路249號,道教,02-23067676,高王燦,121.50129699707,25.0349102020264,萬華區
335,保坪宮,玄天上帝,,,新北市,坪林街79號,道教,02-00000000,陳人華,121.711502075195,24.9371299743652,坪林區
336,壽山宮,天上聖母,,,新北市,泰平里溪尾寮45號,道教,02-24933518,呂傳義,121.820899963379,24.9675903320313,雙溪區
337,深庫佛寺,釋迦牟尼佛,,,新北市,外柑里15鄰三叉坑11之2號,佛教,02-24934257,曾清和,121.829696655273,25.0012435913086,雙溪區
338,興隆宮,福德正神,,,基隆市,興隆街2號邊,道教,02-24577718,陳桂葉(暫代),121.745697021484,25.1033897399902,暖暖區
339,福林宮,三官大帝,,,桃園市,福林里9鄰6號,道教,03-4699226,張金龍,121.213150024414,24.8994426727295,平鎮區
340,福德祠,福德正神,,,桃園市,東社里圳南路11鄰18巷2之1號,道教,03-4501106,姜尾鳳,121.24390411377,24.9234752655029,平鎮區
341,圓光寺,釋迦牟尼佛,,,新竹市,高峰里12鄰高峰路131號,佛教,03-5224064,釋文徹,120.974403381348,24.7908992767334,東區
342,和德宮,福德正神,,,新北市,樟樹一路129巷34弄21號,道教,02-26415298,黃天福,121.640502929688,25.0653800964355,汐止區
343,賜福宮,福德正神,,,新北市,茄苳里茄福街76巷1號邊,道教,02-86480327,鄭月春,121.672401428223,25.067289352417,汐止區
344,板橋區深丘福德宮,福德正神,,,新北市,區運路77號,道教,02-29610359,黃水盛,121.467796325684,25.0112495422363,板橋區
345,福安宮,關聖帝君,,,新北市,樟樹二路357號門前,道教,02-26423520,吳生輝,121.644607543945,25.0744934082031,汐止區
346,仁和佛院,彌勒佛,,,新竹縣,坑子口上坑村189之1號,一貫道,03-5595031,翁生春,120.976196289063,24.8844699859619,新豐鄉
347,德和宮,福德正神,,,基隆市,復興路228之1號,道教,02-24377659,楊振源,121.726081848145,25.1466941833496,中山區
348,善果林淨土寺,阿彌陀佛,觀世音菩薩,大勢至菩薩,桃園市,過嶺里4鄰福田路99號,佛教,03-4907463,周書賢,121.167503356934,24.9584007263184,中壢區
349,普濟寺（原名鐵真院）,普庵祖師,,,臺北市,溫泉路112、114號,佛教,02-28914386,陳建中,121.515197753906,25.141300201416,北投區
350,新福宮,福德正神,,,新北市,茄苳路25號後方100公尺處,道教,02-86488948,陶威中,121.665298461914,25.0709400177002,汐止區
351,三崇宮,三官大帝,,,桃園市,新榮里振興西路16鄰112號之1,道教,03-4923027,卓信旺,121.214500427246,24.9458694458008,平鎮區
352,元光寺,釋迦牟尼佛,,,新竹縣,七星村13鄰6寮53號,佛教,03-5809351,釋普獻,121.01358795166,24.6425533294678,峨眉鄉
353,翠壁岩寺,釋迦牟尼佛,,,新竹市,仙宮里5鄰高翠路6號,佛教,03-5226555,楊碧娟,120.987648010254,24.78493309021,東區
354,燥坑永和宮,三官大帝,,,新竹縣,南新里燥坑5鄰61之2號,道教,03-5872740,劉興業,121.167617797852,24.7756328582764,關西鎮
355,基隆太白莊福德宮,福德正神,,,基隆市,光華路15巷11之1號,佛教,02-24286519,呂清波,121.744102478027,25.1535892486572,中山區
356,汾陽宮,開漳聖王,,,臺北市,福興里石牌路1段58巷28弄臨7號,道教,02-28272054,郭金龍,121.512100219727,25.1124401092529,北投區
357,增福慈惠堂,瑤池金母,,,新北市,長青里八連路三段238號之3,道教,02-26452242,張秋霞,121.610122680664,25.1223297119141,汐止區
358,濟德宮,天上聖母,,,新北市,禮門里中正路239號,道教,02-26411362,許仲辰,121.657699584961,25.0685501098633,汐止區
359,中埔聖德宮,福德正神,,,新竹市,中埔里7鄰牛埔東路150巷3號,道教,03-5386461,曾炎基,120.947792053223,24.7979068756104,香山區
360,福安堂,普庵祖師,,,桃園市,朝陽街36巷15號,佛教,03-3324385,呂阿美,121.313697814941,24.9971809387207,桃園區
361,代天府,三府王爺,,,新北市,汽車路56號,道教,02-24976759,石智能,121.845703125,25.111270904541,瑞芳區
362,忠義宮蘇府王爺廟,蘇府王爺,,,新北市,中正路一段32號,道教,02-28051276,陳榮煌,121.426597595215,25.1766204833984,淡水區
363,淡水清水巖,清水祖師,,,新北市,清水街87號,道教,02-26212236,李宗燦,121.441101074219,25.1703205108643,淡水區
364,下街福德宮,福德正神,,,新北市,智慧里汐萬路一段37號,道教,092-8609111,高睿勲,121.655601501465,25.0679607391357,汐止區
365,青山巖,普庵祖師,,,新北市,柴埕里柴埕路52巷20號,佛教,02-22116642,周艷麗,121.510200500488,24.9657592773438,新店區
366,萬里區磺潭里福德宮,福德正神,,,新北市,磺潭里磺溪12號左前方100公尺,道教,032-983580,江榮春,121.630165100098,25.2031211853027,萬里區
367,新店竹雲寺,普庵祖師,,,新北市,員潭里中生路149號,佛教,02-22195353,吳竹崎,121.567306518555,24.9499549865723,新店區
368,富士坪福德宮,福德正神,,,新北市,溪底里富士坪6號之2,道教,02-24923479,吳貦鈍,121.621681213379,25.1558666229248,萬里區
369,長興宮,福德正神,,,新北市,粗坑里新烏路1段70號,道教,02-26667370,鄭明華,121.5458984375,24.9473991394043,新店區
370,先帝宮,神農大帝,,,新北市,雙坑里北宜路3段335巷15號,道教,02-22176253,葉進芳,121.609596252441,24.9572296142578,新店區
371,開靈慈隱宮,普庵祖師,,,新北市,廣興里小坑二路2巷7號,道教,02-26668090,鄭菊,121.532302856445,24.9166297912598,新店區
372,建業福德宮,福德正神,,,新北市,日興里建業路2號之1,道教,02-22156266,余昱興,121.484100341797,24.9512805938721,新店區
373,野柳保安宮,開漳聖王,,,新北市,野柳里港東69號,道教,02-24925659,林元莊,121.688102722168,25.2044792175293,萬里區
374,北城順清宮,正一天師,,,新北市,磺潭里清水路18號,道教,02-24987405,諶游永,2.68102189693309e-06,8.04544288257603e-06,萬里區
375,萬里里成功新邨福德宮,福德正神,,,新北市,萬里里成功新村環河路旁,道教,02-24921789,何文杞,-3.48675457644276e-05,-0.0001072884115274,萬里區
376,天佛禪寺,藥師佛,,,新北市,大林里(魚逮)魚堀26之2號,佛教,02-26658092,印良,121.7041015625,24.924430847168,坪林區
377,慈安宮,天上聖母,,,新北市,三港里三港7號,道教,02-24931816,葉俊郎,121.880096435547,25.0529403686523,雙溪區
378,志安宮,五府千歲,,,新北市,明志路3段196巷23弄22號,道教,02-29023064,顏日清,121.422798156738,25.0389995574951,泰山區
379,蓮光寺,釋迦牟尼佛,,,新北市,興華里鄰車埕9之1號,佛教,02-26372047,陳金英,121.502502441406,25.2001399993896,三芝區
380,天德宮,關聖帝君,,,基隆市,中正路656巷97號,道教,02-24621239,蘇忠山,121.767700195313,25.1497402191162,中正區
381,鎮天宮,五年千歲,,,新北市,法鼓118號,道教,02-24982114,李鑫濃,121.638000488281,25.2221508026123,金山區
382,武英殿廟,西秦王爺,,,新北市,美田里文化二路4號,道教,02-24981624,許權賜,121.63680267334,25.2247295379639,金山區
383,法雨山普宜苑,釋迦牟尼佛,,,臺北市,溪山里至善路3段181巷5弄5號,佛教,02-28413393,張立臻,121.577201843262,25.1213798522949,士林區
384,仙洞巖佛寺,釋迦牟尼佛,,,基隆市,仁安街1號(右側天然山洞),佛教,02-24228359,吳海芳,121.748245239258,25.1450424194336,中山區
385,五顯宮,五顯大帝,,,基隆市,定國街149號,道教,02-24232348,洪士文,121.732200622559,25.1360893249512,安樂區
386,東興廟,里主尊王爺,,,基隆市,東勢街8之25號,道教,02-24572286,李銘村,121.73860168457,25.0950107574463,暖暖區
387,竹林寺,釋迦牟尼佛,,,新北市,文中里文中路66號,佛教,02-29111937,陳麗君,121.541702270508,24.9564208984375,新店區
388,萬里區龜吼里鼓亭路福安宮,福德正神,,,新北市,龜吼里鼓亭路11號之1,道教,02-24921927,林家淵,121.68359375,25.1902828216553,萬里區
389,北基福德宮,福德正神,,,新北市,北基里忠一街1號對面,道教,02-24921239,王水慶,121.686401367188,25.1764698028564,萬里區
390,泰山鳳山寺,廣澤尊王,,,新北市,大科里1鄰大科路80號旁,道教,02-29096966,黃宗德,121.410003662109,25.0613594055176,泰山區
391,金山寺,釋迦牟尼佛,,,基隆市,金山街52號,佛教,02-24592378,釋宗音,121.740501403809,25.1004600524902,暖暖區
392,顯應祖師泰山巖,顯應祖師,,,新北市,山腳里明志路1段254號,佛教,02-29094226,李鴻鈞,121.431999206543,25.0606803894043,泰山區
393,南天宮,玉皇大帝,,,基隆市,南榮路231巷35號,道教,02-24235161,游林碧英,121.743919372559,25.1214237213135,仁愛區
394,浮雲寺,普庵祖師,,,基隆市,平一路12號,佛教,02-24624074,劉坤輝,121.765914916992,25.1553974151611,中正區
395,淡水大庄福德廟府,福德正神,,,新北市,沙崙里新民街一段136號,道教,02-28052332,謝敏男,121.427597045898,25.1891193389893,淡水區
396,林口嘉天宮,天上聖母,,,新北市,嘉寶里嘉溪雅坑27號,道教,02-26052386,黃偉義,121.316802978516,25.1190605163574,林口區
397,竹林慈玄宮,玄天上帝,,,新北市,民生里大同路220號,道教,02-28098878,蔡錦賢,121.465202331543,25.1413307189941,淡水區
398,林口雷興寺仙公廟,孚佑帝君,,,新北市,竹林路270號,道教,02-26013878,陳文杰,121.389938354492,25.0813140869141,林口區
399,林口鄉鳳陽寺,普庵祖師,,,新北市,湖北里6鄰湖子36號之1,道教,02-86012030,洪麗媚,121.386077880859,25.0934410095215,林口區
400,新北市淡水區普照寺,釋迦牟尼佛,,,新北市,賢孝里公埔子2號,佛教,02-28011596,林靜宜,121.463302612305,25.2266902923584,淡水區
401,十方大法寺,燃燈佛,釋迦牟尼佛,彌勒佛,新北市,靜安路三段10號,佛教,02-24951363,呂瑞麒,121.750297546387,25.0258903503418,平溪區
402,蓮法寺,釋迦牟尼佛,,,基隆市,劉銘傳路29號,佛教,02-24247776,釋傳璽,121.750900268555,25.1271591186523,仁愛區
403,銅陵關聖帝君廟,關聖帝君,,,基隆市,獅球路163號,道教,02-24317182,林捷盛,121.73690032959,25.1242351531982,仁愛區
404,聖佑宮,天上聖母,,,新北市,永福街269號,道教,02-22869473,黃文雄,121.481903076172,25.0742607116699,三重區
405,大和宮,福德正神,,,基隆市,中船路112巷30弄63號,道教,02-24288580,李煥文,121.753410339355,25.1376285552979,中正區
406,紫竹巖,普庵祖師,,,基隆市,中船路78巷22號,佛教,02-24226683,何文美,121.751907348633,25.1371974945068,中正區
407,菩因禪寺,阿彌陀佛,,,桃園市,後厝村4鄰10-5號,佛教,03-3867908,李秀琴,121.225051879883,25.0875701904297,大園區
408,承天宮,延平郡王,,,新北市,磺港里磺港路161號,道教,02-24983239,謝福壽,121.644599914551,25.2254600524902,金山區
409,淨因寺,釋迦牟尼佛,,,臺北市,臨溪里劍南路201號,佛教,02-28412935,謝江麗英,121.556396484375,25.0999202728271,士林區
410,鶯歌碧龍宮,八卦祖師,,,新北市,建德里中正一路碧龍巷33號,道教,02-26795842,周德永,121.366096496582,24.9623603820801,鶯歌區
411,林口福滿宮,福德正神,,,新北市,嘉寶里寶斗厝坑38號之2,道教,02-26051109,黃凱生,121.347602844238,25.1156406402588,林口區
412,淡水鎮天后宮,天上聖母,,,新北市,中興里水源街1段53巷31號之8,道教,02-26229233,呂雨亭,121.444755554199,25.1751346588135,淡水區
413,台北市聖安宮,天上聖母,,,臺北市,和德里西園路2段372巷16號,道教,02-23075012,洪全璋,121.495796203613,25.0306301116943,萬華區
414,芝山巖惠濟宮,開漳聖王,,,臺北市,名山里至誠路1段326巷26號,道教,02-28311728,邱德旺,121.536697387695,25.1014499664307,士林區
415,仁義宮,關聖帝君,,,基隆市,太白街37巷3號,佛教,02-24231035,廖柯巧雲,121.745903015137,25.1470508575439,中山區
416,福德宮,福德正神,,,基隆市,文明路65號,佛教,02-24239180,梁高淑真,121.729301452637,25.1569900512695,中山區
417,福慈宮,福德正神,,,臺北市,中央北路4段30巷臨68號,道教,02-28916058,丁福訓,121.476196289063,25.1380004882813,北投區
418,上下山三崁店福德祠,福德正神,,,新竹縣,上山村文山路1205號,道教,03-5922260,何信橋,121.064102172852,24.790599822998,芎林鄉
419,協天宮,關聖帝君,,,桃園市,樹林村5鄰55號,道教,03-4839546,李德木,121.121223449707,25.0525035858154,觀音區
420,儒林佛院,彌勒佛,,,新北市,隆盛里八分寮43號,一貫道,02-26633756,林義雄,121.642303466797,25.0119495391846,石碇區
421,青龍宮,九龍三公,,,臺北市,和平里雙園街60巷88號,道教,02-23066456,林祈賢(代),121.492401123047,25.0288200378418,萬華區
422,泓德佛堂,明明上帝,,,桃園市,富國路717巷12-3號,一貫道,03-3071758,姚明宏,121.279167175293,25.0217552185059,桃園區
423,深坑慈聖宮,蘇府王爺,,,新北市,北深路1段300號,道教,02-26621515,黃明亮,121.623596191406,25.0055904388428,深坑區
424,九份聖明宮,關聖帝君,,,新北市,崇文里街頂巷56號,道教,02-24972819,林添麟,121.844200134277,25.1078796386719,瑞芳區
425,磅磅仔三府宮,三府王爺,,,新北市,瑞濱里瑞濱路55之2號,道教,02-24976104,張進忠,121.825897216797,25.1208992004395,瑞芳區
426,賢孝玄聖殿,無極聖祖,,,新北市,賢孝里後洲子6之1號,道教,02-28010796,游天來,121.448501586914,25.2238292694092,淡水區
427,財團法人桃園市大樹林天后宮,天上聖母,,,桃園市,保羅街58號,,03-3626009,,121.309562683105,24.9825839996338,桃園區
428,桃園市中山福德宮,福德正神,,,桃園市,泰成路62巷67-3號,道教,092-0713097,林人哲,121.297309875488,24.9886035919189,桃園區
429,忠孝宮,關聖帝君,,,新北市,深澳里14鄰建基路二段5號,道教,09-35142040,陳世力,121.810997009277,25.1324195861816,瑞芳區
430,玉山宮,福德正神,,,桃園市,大同西路122號,道教,03-3355862,游輝居,121.301246643066,24.9892101287842,桃園區
431,宏德宮,福德正神,,,桃園市,龍崗里上海路226-1號,道教,03-3797236,蕭愛圓,121.281929016113,24.9932460784912,桃園區
432,新興宮,天上聖母,,,新北市,鼻頭里鼻頭路41號之2,道教,02-24911322,王彥斌,121.916297912598,25.1246891021729,瑞芳區
433,助順將軍廟,助順將軍,,,臺北市,萬壽里康定路9、11、13號,道教,02-23716144,洪祝顯,121.503303527832,25.0454292297363,萬華區
434,福山宮,福德正神,,,新北市,永慶里崙頂路2號,道教,02-24960303,江本平,121.846420288086,25.1071548461914,瑞芳區
435,田都元帥廟,田都元帥,,,基隆市,西川里新西街2巷55之3號,道教,02-24273596,姚強(逕予登錄),121.729705810547,25.1363735198975,安樂區
436,圓通寺,普庵祖師,,,基隆市,新西街89巷26號,佛教,02-24233552,郭果賢,121.725997924805,25.1397800445557,安樂區
437,台北市北投區佛林寺,阿彌陀佛,觀世音菩薩,大勢至菩薩,臺北市,林泉里溫泉路150-1號,佛教,02-28968310,吳柏宏,121.513298034668,25.1390895843506,北投區
438,虎形山福德宮,福德正神,,,新北市,新昌里招商街1號,道教,02-26435405,林萬財,121.665397644043,25.069709777832,汐止區
439,鳳和宮,天上聖母,,,新竹市,樹下里7鄰浸水街191巷54號,道教,03-5300136,吳漢欽,120.931884765625,24.7977046966553,香山區
440,頂埔宮,福德正神,,,新竹市,頂埔里18鄰中山路600巷8弄2號,道教,03-5225771,陳文禮,120.954650878906,24.7973175048828,香山區
441,新竹市龍興宮,友聖公,,,新竹市,牛埔東路178巷6-2號,道教,03-5386510,蘇寬裕,120.947250366211,24.7978534698486,香山區
442,幸山宮,廣澤尊王,,,新竹市,南港里6鄰南港街101巷5-1號,道教,03-5374877,許玉堂,120.891960144043,24.7371768951416,香山區
443,拾壹公廟,拾壹公,,,新竹市,虎山里7鄰延平路二段1239巷100號,道教,03-5266772,蔡木榮,120.93677520752,24.8407783508301,北區
444,九份明聖宮,關聖帝君,,,新北市,頌德里坑尾巷37號,道教,02-24971238,魏水田,121.844299316406,25.1114692687988,瑞芳區
445,勸濟堂,關聖帝君,,,新北市,銅山里祈堂路53號,道教,02-24961273,連城珍,121.859802246094,25.1100406646729,瑞芳區
446,淡水真武廟,玄天上帝,,,新北市,八勢里八勢路一段100巷6號,道教,02-28093195,盧木安,121.467300415039,25.1547393798828,淡水區
447,慶安宮,天上聖母,,,基隆市,忠二路1號,道教,02-24247708,童永,121.740798950195,25.1295299530029,仁愛區
448,福安宮,福德正神,,,基隆市,愛四路2巷22號,道教,02-24250557,闕美玉(暫代),121.743698120117,25.1271133422852,仁愛區
449,保安宮,廣澤尊王,,,桃園市,沙崙村12鄰38-1號,道教,03-3836940,陳連壽,121.223808288574,25.0937309265137,大園區
450,台北地藏禪寺,地藏王菩薩,,,臺北市,福安里延平北路7段189號,佛教,02-28100237,林慧明,121.491401672363,25.0996208190918,士林區
451,關聖宮,關聖帝君,,,新北市,石嘈里6鄰碧湖8號之5,道教,02-26657364,鄭天來,121.762092590332,24.8753223419189,坪林區
452,聖德福龍廟,福德正神,,,新北市,保長里保新街147號,道教,02-26486587,曾美華,121.688201904297,25.0699501037598,汐止區
453,慈幸宮,關聖帝君,,,基隆市,信二路74巷21號,道教,02-24229508,連轉旺,121.755599975586,25.1296005249023,信義區
454,財團法人九府仙師普惠堂,九府仙師,,,臺北市,集英里民權西路70巷49號,道教,02-25426811,張輝雄,121.520599365234,25.060640335083,中山區
455,佛國寺,阿彌陀佛,,,新北市,明志里明志路二段254巷16弄37號,佛教,02-22968210,姜仁等,121.426002502441,25.0491409301758,泰山區
456,德安宮,福德正神,,,基隆市,太白街111巷1號,佛教,02-24241880,王金城,121.744499206543,25.1485500335693,中山區
457,北投天保宮,玄天上帝,,,臺北市,中和街秀山里446巷74號樓,道教,02-28934837,葉雲富(代),121.504203796387,25.1390209197998,北投區
458,秀峰山靜修禪院,釋迦牟尼佛,,,新北市,秀山里秀峰路155號,佛教,02-26412614,謝貴貞,121.661499023438,25.0617198944092,汐止區
459,林口新福宮,福德正神,,,新北市,文化北路1段412巷76號前,道教,02-26011833,陳文隆,121.365798950195,25.0761394500732,林口區
460,咸亨宮,福德正神,,,新北市,百忍里自由街2號,道教,02-29173839,陳文雄,121.535400390625,24.9751491546631,新店區
461,祈福保生宮,保生大帝,,,新北市,義山里下圭柔山28之1號,道教,02-26214589,蔡明和,121.45760345459,25.2045593261719,淡水區
462,基隆護國城隍廟,城隍爺,,,基隆市,忠一路7號,道教,02-24250955,郭張碧玉,121.740600585938,25.1308193206787,仁愛區
463,南華宮,三一教主,,,新竹市,南港里2鄰南港街32巷16號,道教,03-5374880,林英男,120.899658203125,24.7416152954102,香山區
464,桃園永安宮,三府王爺,,,桃園市,大有路946巷203號,道教,03-3253416,郭來哲,121.318031311035,25.0256080627441,桃園區
465,萬福寺,普庵祖師,,,新北市,萬福里萬福路75巷73號,道教,02-26622911,張陳美華,121.598701477051,25.009220123291,深坑區
466,福龍宮,天上聖母,,,新北市,海濱里海濱路39號,道教,02-24978281,呂萬和,121.831100463867,25.1243591308594,瑞芳區
467,緣道觀音廟,大自在王佛,,,新北市,蕃薯里安子內3號,佛教,02-26269242,黃錦春,121.48690032959,25.2147407531738,淡水區
468,南山寺,孚佑帝君,,,新北市,漁光里樟空子5號,道教,02-26656697,白明堂,121.72730255127,24.9677391052246,坪林區
469,新店寶橋福壽宮,福德正神,,,新北市,寶福里寶橋路266號,道教,02-29146588,陳金定,121.55290222168,24.9790592193604,新店區
470,保生宮,保生大帝,,,桃園市,永安里13鄰保生路51號,道教,03-4861410,莊忠雄,121.027496337891,24.9882698059082,新屋區
471,靈泉寺,釋迦牟尼佛,,,新北市,溪底里瑞泉路2之6號,佛教,02-24921631,鐘月蓉,121.639503479004,25.1603698730469,萬里區
472,靈霞寺,釋迦牟尼佛,,,新竹縣,七星村14鄰56號,佛教,03-5800371,黃菊妹,121.01619720459,24.6458206176758,峨眉鄉
473,新大眾廟,地藏王菩薩,,,新竹市,光鎮里明湖路281號,佛教,03-5227263,溫明順,120.96800994873,24.7891635894775,東區
474,東門保福德祠,福德正神,,,新竹市,東門里東前街27號,道教,03-5238710,廖建福,120.968101501465,24.804370880127,東區
475,南天南天宮,普庵祖師,,,新北市,民富里民樂街59巷1之1號,道教,02-29280667,吳志浩,121.527702331543,24.9983406066895,永和區
476,清華寺,釋迦牟尼佛,,,新北市,國光路97號,佛教,02-89239966,黃偷算,121.517997741699,25.0094890594482,永和區
477,五福宮,開漳聖王,,,桃園市,五權村6鄰五福路112號,道教,03-3814128,黃文富,121.227958679199,25.0179424285889,大園區
478,金法林,釋迦牟尼佛,,,新北市,重和里秀峰坪1之5號,佛教,02-24080546,江秋,121.599296569824,25.1988906860352,金山區
479,妙法寺,普庵祖師,,,臺北市,溪山里至善路3段307號,佛教,02-28412600,釋悟慈,121.58699798584,25.1234493255615,士林區
480,千佛禪寺,釋迦牟尼佛,,,基隆市,中山一路241巷110號,佛教,02-24258487,蕭淑真,121.738098144531,25.1361293792725,中山區
481,鎮安宮,福德正神,,,基隆市,通仁街18之2號,道教,02-24245843,翁海清,121.737915039063,25.1460227966309,中山區
482,普忠里福德祠,福德正神,,,桃園市,新中一街29號,道教,03-455-2813,陳光明,121.243560791016,24.9600067138672,中壢區
483,陽明山慈惠堂,瑤池金母,,,臺北市,溫泉里奇岩路17號,道教,02-28914336,陳天來,121.508003234863,25.1337890625,北投區
484,和德祠,福德正神,,,臺北市,永樂里甘谷街42號,道教,02-25550172,李林世津,121.510612487793,25.0528335571289,大同區
485,新坡尾福德廟,福德正神,,,臺北市,內湖路3段367號,道教,09-32012098,李明和,121.583503723145,25.0895404815674,內湖區
486,福德宮,福德正神,,,基隆市,瑪東里大同街59之1號旁,道教,02-24310893,李添財,121.686279296875,25.134256362915,七堵區
487,先天道院,明明上帝,,,臺北市,孝德里寶興街188巷2號,一貫道,02-23056278,劉定文,121.495101928711,25.0233306884766,萬華區
488,太初玄清宮,三清道祖,,,新竹市,瑞光街164巷99號,道教,03-5385116,葉金進,120.921195983887,24.7979965209961,香山區
489,育德講堂,普庵祖師,,,桃園市,國際路1段700巷13號,一貫道,03-3665300,陳富美,121.290916442871,24.9774341583252,桃園區
490,保民堂,神農大帝,,,新北市,瓜山里金光路117號,道教,02-24961249,郭先智,121.853897094727,25.1062297821045,瑞芳區
491,淡水行忠宮,關聖帝君,,,新北市,沙崙里新民街一段80號,道教,091-0759187,黃德利,121.427597045898,25.1891193389893,淡水區
492,佛教弘誓學院,釋迦牟尼佛,,,桃園市,新富路一段622巷28號,佛教,03-4987325,李素英,121.142555236816,25.0089721679688,觀音區
493,德玄宮,太上老君,,,新北市,豐田里3鄰磨石坑36號,道教,02-26631845,吳春生,121.69165802002,24.9659423828125,石碇區
494,福德祠,福德正神,,,新北市,長安里長興街一段79號之1,道教,02-86488699,蘇文進,121.670799255371,25.0797595977783,汐止區
495,神桌洲福德宮(已廢止),福德正神,,,新北市,大觀路2段174巷129弄70號邊,道教,02-29683323,施火星,121.442001342773,25.0004997253418,板橋區
496,正興宮,孚佑帝君,,,新北市,崁頂里崁頂15號,道教,02-26230910,呂嘉騏,121.439399719238,25.1858806610107,淡水區
497,鼻頭福靈宮,福德正神,,,新北市,鼻頭路1號後,道教,09-63757871,陳旺佳,121.915786743164,25.1248645782471,瑞芳區
498,豐安廟,四府將軍,,,新竹市,大庄里7鄰宮口街57巷23號,道教,03-5382639,張江河,120.921508789063,24.7918186187744,香山區
499,后厝福德宮,福德正神,,,桃園市,保障村15鄰草漯107-1號,道教,03-4830448,曾武龍,121.145904541016,25.0492897033691,觀音區
500,港口奉聖宮,天上聖母,,,臺北市,臥龍街11055 431巷52號,道教,02-27361249,羅李阿昭,121.563499450684,25.012020111084,信義區
501,福壽宮,福德正神,,,新北市,環河里2鄰吉林街24巷底,道教,02-26941552,林蔡金麗,121.619400024414,25.064769744873,汐止區
502,保長仙姑廟,陳仙姑,,,新北市,保長里長興街二段50巷50號之1,道教,02-86489949,林素美,121.675498962402,25.080680847168,汐止區
503,瑞濱深德宮,天上聖母,,,新北市,瑞濱里瑞濱路123之1號,道教,02-24966599,黃國展,121.820701599121,25.119499206543,瑞芳區
504,蓮池寺,釋迦牟尼佛,,,臺北市,柳鄉里桂林路246巷48號,佛教,02-23060053,劉清銓,121.492500305176,25.0368003845215,萬華區
505,天寶殿,瑤池金母,,,新北市,樹興里白石腳3號,道教,02-26219597,翁嘉宏,121.487503051758,25.1751708984375,淡水區
506,財團法人台灣省基隆市慈安宮,中壇元帥,,,基隆市,正義路2巷6之1號,道教,02-24231572,,121.74747467041,25.1327648162842,中正區
507,財團法人台灣省桃園縣大崙崇德宮,三官大帝,,,桃園市,內厝里9鄰中正路4段26巷36號,,03-4982592,劉利添,0.0,0.0,中壢區
508,九龍順天宮,玄天上帝,,,新北市,集賢里凌雲路2段35號之1,道教,02-22923479,李永芳,121.43879699707,25.1027507781982,五股區
509,玉泉山普照宮,關聖帝君,,,新竹縣,商華里環山路5號,道教,03-5962478,邱鴻發,121.082939147949,24.7328357696533,竹東鎮
510,甘泉寺,普庵祖師,,,桃園市,觀音里1鄰甘泉街1號,佛教,03-4732622,曾献奉,121.081703186035,25.0369853973389,觀音區
511,南屏山壺酒寺,濟公活佛,,,新北市,永定里8鄰蚯蚓坑19之3號,佛教,093-6340093,蔡水面,121.690299987793,25.0034503936768,石碇區
512,覺真宮,孚佑帝君,,,新北市,格頭里北宜路5段濕水子巷2號,道教,02-26651769,陳金財,121.634696960449,24.9509506225586,石碇區
513,八德寺,濟公活佛,,,新北市,保新街149號,佛教,02-26416971,蔡松輝,121.688613891602,25.0700492858887,汐止區
514,妙慧禪寺,釋迦牟尼佛,,,新北市,小坑路8號,佛教,02-26422874,釋大嚴,121.693199157715,25.0653800964355,汐止區
515,福興宮,福德正神,,,基隆市,大同街瑪東里15號前,道教,02-24565971,楊秀雄,121.69758605957,25.1169338226318,七堵區
516,南山放生寺,藥師佛,,,新北市,華南里忠孝街108號,佛教,02-29450777,釋慧峰,121.512199401855,24.9847297668457,中和區
517,東德宮,五府千歲,,,新北市,積穗里新生街112巷臨20號,道教,02-22229013,謝志明,121.482299804688,25.0030498504639,中和區
518,礁溪里福德宮,福德正神,,,新北市,礁溪里長泰街56巷6之1號,道教,02-26710289,陳俊明,121.37809753418,24.9328193664551,三峽區
519,妙覺寺,釋迦牟尼佛,,,桃園市,美山美華里10鄰美山路2段1巷98弄51號,佛教,03-3884150,李衍淇,121.302597045898,24.8692798614502,大溪區
520,無極宮,瑤池金母,,,新北市,米倉里牛寮埔11號之3,道教,02-26102254,陳文果,121.432197570801,25.1425495147705,八里區
521,一如慈惠堂,瑤池金母,,,新北市,荖阡里荖阡坑路24號,道教,02-26102691,苑廖春靜,121.399696350098,25.1376495361328,八里區
522,代天殿靈雲宮,三聖大帝,,,臺北市,信義路5段150巷22弄43號,道教,03-4505571,林永昌,121.571098327637,25.0275897979736,信義區
523,福光寺,普庵祖師,,,基隆市,培德路209號,佛教,02-24656157,劉振裕,121.773597717285,25.1290397644043,信義區
524,仁安廟,三山國王,,,新北市,真理里新港街26巷53之1號,道教,02-24902606,吳心能,121.92749786377,25.0535907745361,貢寮區
525,順天宮,福德正神,三太子,,新竹市,內湖里中華路六段226巷48號,道教,03-5372068,王炳南,120.90754699707,24.7416744232178,香山區
526,大陳義胞觀音寺,普庵祖師,,,新北市,新生路273巷1之1號,道教,02-29223026,顏達中,121.505249023438,25.012788772583,永和區
527,檀林寺,釋迦牟尼佛,,,桃園市,三民里丸山2鄰3之2號,佛教,03-3328323,李麗芬,121.345092773438,24.8226680755615,復興區
528,天后宮,天上聖母,,,新竹市,三民里10鄰中華路二段52號,道教,03-5322666,林振永,120.981201171875,24.8084506988525,東區
529,新竹市東勢福龍山宮,福德正神,,,新竹市,東勢里2鄰東勝路46號,道教,03-5752613,吳建銘,120.987503051758,24.8036003112793,東區
530,潮音禪寺,釋迦牟尼佛,,,新竹縣,東安里1鄰中豐路一段80巷10號,佛教,03-5872267,姜仁等,121.177803039551,24.7846202850342,關西鎮
531,龍星眾天殿,天上聖母,,,新北市,潭邊里湳窟路42號,道教,02-26631971,鍾君明,121.655174255371,24.9941940307617,石碇區
532,靈菩寺,普庵祖師,,,新北市,忠孝東路512號旁往上450公尺處,佛教,02-86482247,郭華明,121.666900634766,25.0754909515381,汐止區
533,板橋市正聖福德宮,福德正神,,,新北市,自由路26巷30號,道教,02-22569557,簡光宏,121.466796875,25.0224094390869,板橋區
534,三抱竹聚安宮,福德正神,,,新北市,福安里大觀路二段162號(暫厝),道教,02-29662417,吳濟田,121.442810058594,24.9988899230957,板橋區
535,板橋接雲寺,普庵祖師,,,新北市,西門街69號,佛教,02-29660766,江清秀,121.454399108887,25.0088806152344,板橋區
536,福海宮,天上聖母,,,基隆市,教孝街55巷11弄16號,佛教,02-24653455,陳進(暫代)往生,121.774337768555,25.1390933990479,信義區
537,靈台山靈玄宮,靈山老母,,,基隆市,華新二路105之3號,道教,02-24522049,林慶盛,121.659927368164,25.1232662200928,七堵區
538,白馬寺,釋迦牟尼佛,,,新北市,橫路里興南路三段40巷26號,佛教,02-29426228,林玉珍,121.494598388672,24.9785003662109,中和區
539,瑞福宮,福德正神,,,新北市,柑坪里明燈路1段84號前,道教,02-24969135,許朝明,121.819999694824,25.1078796386719,瑞芳區
540,碧雲宮,玉皇大帝,,,新北市,深澳里深澳路3號,道教,02-24975906,賴孟宏,121.816398620605,25.1290893554688,瑞芳區
541,石和宮,關聖帝君,,,新竹縣,埔和村19鄰212之1號,道教,03-5689498,洪華駿,120.997886657715,24.9343528747559,新豐鄉
542,永安寺,釋迦牟尼佛,,,桃園市,湧光里8鄰湧光路106號,佛教,03-4696358,古菊妹,121.209800720215,24.8969593048096,平鎮區
543,福德神宮,福德正神,,,新竹市,福德里6鄰福德街4號,道教,03-5265480,蔡永鴻,120.964996337891,24.7991600036621,東區
544,真福地土地公,福德正神,,,新竹市,高峰路202巷3號,道教,03-5230176,陳耿弘,120.976501464844,24.7857704162598,東區
545,恆光禪寺,釋迦牟尼佛,,,臺北市,碧山路44之6號,佛教,02-27933000,吳貞治,121.589202880859,25.1062202453613,內湖區
546,財團法人新北市淡水無極天元宮,關聖帝君,,,新北市,水源里北新路3段36號,道教,02-26212759,周志達,121.484703063965,25.1863899230957,淡水區
547,財團法人台灣省新竹市天王宮,李靖托塔天王,,,新竹市,民富里民富街178巷23弄2號,道教,03-5252989,李玉玲,120.958282470703,24.8072547912598,北區
548,財團法人奉天宮,天上聖母,,,新竹市,明湖路482巷101號,道教,03-5201781,江義德,120.962516784668,24.7838039398193,東區
549,財團法人新北市拱北殿,孚佑帝君,,,新北市,烘內里汐萬路3段88號,道教,02-26461888,林賴松,121.641899108887,25.0943698883057,汐止區
550,新約龍華佛教聖國山保安堂,普庵祖師,,,臺北市,富民里康定路188巷4弄6號,佛教,02-23114785,蘇三吉,121.501403808594,25.0388793945313,萬華區
551,武廟,關聖帝君,,,桃園市,民生路167號,道教,03-3398175,徐松年,121.312812805176,24.9943256378174,桃園區
552,太極宮,三清道祖,,,桃園市,大有里三元街566號,道教,03-3343168,王德基,121.318603515625,25.0027904510498,桃園區
553,保安宮,關聖帝君,,,新北市,侯硐里2鄰侯硐路302號,道教,02-24972506,黃奕源,121.831596374512,25.0898456573486,瑞芳區
554,松山靈隱寺,普庵祖師,,,臺北市,松隆里松山路臨677之15號,佛教,02-27281139,許蓮池,121.581398010254,25.0250301361084,信義區
555,極樂寺,釋迦牟尼佛,,,基隆市,信二路270號,佛教,02-24222570,釋星雲,121.747291564941,25.1308403015137,信義區
556,財團法人新北市東陽宮,李太白金星,,,新北市,尖山里尖山路86號,道教,02-26792550,張天養,121.348197937012,24.949670791626,鶯歌區
557,國聖仁和宮,周府將軍,,,新北市,野柳里坑內11號,道教,02-24983717,張淑慧,121.686485290527,25.20263671875,萬里區
558,心善寺,釋迦牟尼佛,,,桃園市,埔頂里埔頂路416號,佛教,03-4871028,呂萬銘,121.11067199707,24.9564437866211,新屋區
559,財團法人承天武聖廟,關聖帝君,,,臺北市,黎安里臥龍街477之12號,道教,02-27353788,黃裕欽,121.563499450684,25.012020111084,信義區
560,財團法人台北市華嚴蓮社,釋迦牟尼佛,,,臺北市,濟南路2段44號,佛教,02-23513868,許傳齡,121.530700683594,25.0404090881348,中正區
561,財團法人台北市圓通學苑,釋迦牟尼佛,,,臺北市,錦華里潮州街58之1號,佛教,02-23217983,游月台,121.523582458496,25.0292320251465,大安區
562,福明殿,福德正神,,,基隆市,華新一路9之5號,道教,02-24515607,高淮徑,121.666603088379,25.0889701843262,七堵區
563,五鳳慈蓮寺,準提菩薩,,,新北市,金圳里金敏54之2號,道教,02-26720653,陳芸汶,121.40470123291,24.8854103088379,三峽區
564,山口廟,舍人公,,,新北市,光陽里中華路2巷31弄10號,道教,02-29851038,蔡詩鴻,121.48210144043,25.0608005523682,三重區
565,三重同仁宮,福德正神,,,新北市,二重里大有街1之41號,道教,02-29813014,葉德根,121.476501464844,25.0653705596924,三重區
566,梘頭福德祠,福德正神,,,臺北市,內湖路2段450號,道教,02-27928299,黃家村,121.592498779297,25.083589553833,內湖區
567,金剛寺,釋迦牟尼佛,,,新竹縣,七星村14鄰57號,佛教,03-5809206,蕭麗芬,121.015701293945,24.6466007232666,峨眉鄉
568,龍泉寺,釋迦牟尼佛,,,新竹市,高峰里8鄰寶山路188巷2號,佛教,03-5229215,許苡汎,120.975898742676,24.7905807495117,東區
569,佛心禪寺,燃燈佛,釋迦牟尼佛,彌勒佛,新北市,上德里坪碇路333號,佛教,02-26656965,王翠霞,121.683799743652,24.9528045654297,坪林區
570,照善寺,釋迦牟尼佛,,,基隆市,復興街73巷95號,佛教,02-24260063,洪碧玉,121.754127502441,25.1249656677246,仁愛區
571,天澤宮,廣澤尊王,,,基隆市,南新街51巷73之5號,道教,02-24269106,陳勇呈,121.749183654785,25.1212062835693,仁愛區
572,天聖宮,五府千歲,,,基隆市,祥豐街449巷43號,道教,02-24622033,謝許月鶯,121.76789855957,25.1476593017578,中正區
573,台北市士林承德福德宮,福德正神,,,臺北市,後港街劍潭路40號,道教,02-25322521,陳福隆,121.522598266602,25.0830307006836,士林區
574,台北市文山區溝子口福德宮,福德正神,,,臺北市,木柵路1段59巷1號,道教,02-22360769,翁傳煌,121.551300048828,24.9879302978516,文山區
575,財團法人新北市新店區太平宮,開漳聖王,,,新北市,太平里太平路61號,道教,02-22110081,黃朝安,121.533096313477,24.9588508605957,新店區
576,財團法人台灣省基隆市益心堂,金仙姑菩薩,,,基隆市,干城里安一路266巷99號,佛教,02-24230819,陳淑姿,121.72859954834,25.1327991485596,安樂區
577,淡水大王廟,城隍爺,,,新北市,忠寮里大竹圍5號,道教,02-26201145,李啟鈗,121.466606140137,25.1953105926514,淡水區
578,淡水孫臏宮,孫臏祖師,,,新北市,中興里水源街一段47巷2號,道教,02-26233865,邱加斗,121.443901062012,25.1724891662598,淡水區
579,興音寺,普庵祖師,,,新北市,樹興里興福寮1之6號,佛教,02-86260140,余秋花,121.488296508789,25.1639995574951,淡水區
580,新北市三寶宮,天上聖母,,,新北市,水源里南勢埔20號,道教,02-26218587,黃東元,121.481796264648,25.1783103942871,淡水區
581,護國宮,中壇元帥,,,桃園市,中德里15鄰國際路一段401巷123號,道教,03-3677405,林銘域,121.28929901123,24.9665508270264,桃園區
582,崇福寺,釋迦牟尼佛,,,桃園市,長安里2鄰民光路168號,佛教,03-3341637,陳建安,121.304817199707,25.003812789917,桃園區
583,天龍宮,顯應祖師,,,新北市,阿柔里阿柔洋61號,道教,02-26621931,辜寶童,121.606796264648,24.9979705810547,深坑區
584,財團法人新竹市東山綠水福德會,福德正神,,,新竹市,綠水里博愛街79巷8號,道教,03-5712202,鄭勝焱,120.981872558594,24.7986602783203,東區
585,三塊厝靈安宮,四府將軍,,,新竹市,樹下里6鄰樹下街95號,道教,03-5388266,吳子龍,120.934364318848,24.799503326416,香山區
586,新店明聖宮,謝映登仙翁,,,新北市,北宜路二段63巷20號,道教,02-22172020,陳忠作,121.549201965332,24.9522094726563,新店區
587,珊瑚貝殼廟,濟公活佛,,,新北市,二坪頂69號,道教,02-26367002,謝榮壽,121.539703369141,25.2384395599365,三芝區
588,北海聖雲宮,天上聖母,,,新北市,福德里埔尾1之2號,道教,02-26362861,江宗柏,121.499603271484,25.2482299804688,三芝區
589,北城慈雲堂,正一天師,,,新北市,安坑63之2號,道教,02-26726989,林信,121.474403381348,24.927619934082,三峽區
590,台北市文昌宮,文昌帝君,,,臺北市,集英里民生西路45巷9號,道教,02-25210366,黃忠慶,121.520896911621,25.0572891235352,中山區
591,永昌宮,神農大帝,,,桃園市,南興里11鄰仁和路二段190巷27號,道教,03-3806459,徐福全,121.26490020752,24.9044094085693,大溪區
592,上乘靜修精舍,釋迦牟尼佛,,,新北市,長坑里楓林坑8號,佛教,02-26104545,簡寬義,121.381698608398,25.1328792572021,八里區
593,海龍宮,普庵祖師,,,新北市,德音里成泰路1段189巷臨41號,道教,02-22932276,陳淑娟,121.42790222168,25.0755405426025,五股區
594,彌勒佛殿,明明上帝,,,桃園市,廣福路669之17號,一貫道,03-3660485,林豐凡,121.283340454102,24.9596843719482,八德區
595,鳳蓮宮,普庵祖師,,,新竹縣,山崎村建興路一段51巷58號,佛教,03-5595689,何啟霖,120.994567871094,24.8719387054443,新豐鄉
596,福明宮,三官大帝,,,桃園市,雙連里雙福路2段2號,道教,03-4900569,劉興村,121.185066223145,24.9658660888672,平鎮區
597,慈法禪寺,釋迦牟尼佛,,,新北市,廣福里學府路一段23巷21號6樓(暫厝),佛教,02-22612276,徐明輝,121.458099365234,24.9871292114258,土城區
598,大仙廟,仙公,,,新竹縣,水磜村7鄰水磜子42號,道教,03-5803031,林永源,121.056251525879,24.710428237915,北埔鄉
599,台北文山興安宮,福德正神,,,臺北市,仙岩路16巷64號,道教,02-86632817,賴榮富,121.550201416016,24.9963798522949,文山區
600,竹月寺,普庵祖師,,,臺北市,環山路2段50巷14弄臨14之7號,佛教,02-27979284,陳雪慧,121.571601867676,25.0897903442383,內湖區
601,福德宮,福德正神,,,基隆市,瑪東里大同街31號之1,道教,02-24565997,李簡樹,121.695220947266,25.1263427734375,七堵區
602,和衷宮,朱府王爺,,,新北市,草東里公明街56巷1號,道教,02-26264155,黃逢晚,121.443496704102,25.1683597564697,淡水區
603,上天福安宮,福德正神,,,新北市,上天里滴水子路29號,道教,02-24578822,林其鋒,121.772399902344,25.0816593170166,瑞芳區
604,境福宮,福德正神,,,新竹市,南隘里8鄰南隘路二段151巷27號,道教,03-5371309,邱坤源,120.936752319336,24.7306213378906,香山區
605,隆聖宮,關聖帝君,,,新竹縣,富興村2鄰忠義街16號,道教,03-5806902,黎傳炳,120.988578796387,24.6886806488037,峨眉鄉
606,萬佛禪寺,釋迦牟尼佛,,,新竹市,東山里1鄰寶山路151號,佛教,03-5222474,徐月娥,120.976409912109,24.7911319732666,東區
607,永平寺,釋迦牟尼佛,,,新北市,興華里車埕79號,佛教,02-26372889,林妙貞,121.496299743652,25.200740814209,三芝區
608,陀靈寺,地藏王菩薩,,,新北市,集福里7鄰孝義路48號,佛教,02-22913816,葉雲丙,121.454597473145,25.1105995178223,五股區
609,財團法人台北市松山寺,釋迦牟尼佛,,,臺北市,雙和里吳興街284巷17之1號,佛教,02-27384304,吳懿貞,121.569000244141,25.023380279541,信義區
610,雲義山帝君廟,關聖帝君,,,基隆市,自強路45-2號,道教,02-24555522,蔡明德,121.705497741699,25.1105804443359,七堵區
611,埤仔頭福德宮,福德正神,,,新北市,外南里南山路236之1號,道教,02-89410077,游塗容,121.506401062012,24.9894008636475,中和區
612,中和九玄宮,玄天上帝,,,新北市,新南里景平路493巷12弄臨16號,道教,02-22454912,葉承祐,121.499397277832,24.9974594116211,中和區
613,千佛山華德禪寺,燃燈佛,釋迦牟尼佛,彌勒佛,新北市,溪南里介壽路二段138巷1弄166號,佛教,02-86768953,蘇敏月,121.403198242188,24.9274291992188,三峽區
614,東興宮,開漳聖王,,,桃園市,新峰里復興路2段758巷45號,道教,03-3825576,姚俊雄,121.318496704102,24.8295001983643,大溪區
615,八里慈惠堂,瑤池金母,,,新北市,龍形一街33巷17號(暫厝),道教,02-26182555,蔡萬得,121.449501037598,25.1293792724609,八里區
616,台北縣八里鄉竹龍廟,玉皇大帝,,,新北市,大崁里3鄰20號,道教,02-26103645,張金蓮,121.42310333252,25.1590919494629,八里區
617,青雲宮,神農大帝,,,臺北市,民權西路160巷30弄7號,道教,02-25571606,張袖傑,121.515800476074,25.0613193511963,大同區
618,台北市內湖區碧霞宮,玉皇三公主娘娘,,,臺北市,碧山路29號,道教,02-27904630,易輝聰,121.58869934082,25.0940895080566,內湖區
619,真聖堂,孚佑帝君,,,臺北市,延平北路2段61巷16號,佛教,02-25568206,張謝惠芳,121.512100219727,25.055477142334,大同區
620,漁澳順天宮,天上聖母,,,新北市,龜吼里漁澳路4號,道教,02-24922089,陳國龍,121.683601379395,25.1898403167725,萬里區
621,菩提講堂,釋迦牟尼佛,,,臺北市,建泰里南京西路18巷4弄2號,佛教,02-25585736,陳氷痕,121.52010345459,25.0522594451904,大同區
622,大普義福德宮,福德正神,,,桃園市,普義149號邊,道教,03-4615470,管正光,121.240303039551,24.9649868011475,中壢區
623,五股順天府,池府王爺,,,新北市,集賢里凌雲路二段62號之5,道教,02-22918751,陳勝源,121.442199707031,25.1051502227783,五股區
624,保民殿,神農大帝,,,新北市,魚行里魚杭1號,道教,02-24931749,曹拯民,121.880447387695,25.026611328125,雙溪區
625,慈明寺,濟公活佛,,,基隆市,過港路10巷353號,佛教,02-24576783,釋見羹,121.742652893066,25.1062316894531,暖暖區
626,南昌宮,王爺,,,新竹縣,南埔村2鄰17號,道教,03-5802076,蕭宗芳,121.041778564453,24.6970119476318,北埔鄉
627,通淮宮,關聖帝君,,,基隆市,西定路104巷68號,道教,02-24235722,陳黃富美,121.735496520996,25.1346092224121,中山區
628,興元宮,三官大帝,,,桃園市,龍岡龍興里龍岡路三段37巷92弄102之1號,道教,03-4583276 / 4583282,吳嘉和,121.232902526855,24.9393672943115,中壢區
629,上清宮,無極聖祖,,,臺北市,大屯里復興三路230巷29號,道教,02-28932307,黃大承,121.505096435547,25.1524600982666,北投區
630,五堵福興宮,福德正神,,,新北市,長安里長安路62號之1,道教,02-86476127,魏平欽,121.668899536133,25.0783100128174,汐止區
631,覺圓寺,釋迦牟尼佛,,,新北市,廣興里成功路43號,佛教,02-26668862,釋體相,121.540901184082,24.8993091583252,新店區
632,濟公慈航寺,濟公活佛,,,新北市,銀河路86號,佛教,02-22171069,洪和睦,121.580596923828,24.9596500396729,新店區
633,金海禪寺,釋迦牟尼佛,,,新北市,磺潭里公館崙35之1號,佛教,02-24983705,李志亮,121.635299682617,25.2112808227539,萬里區
634,福德宮,福德正神,,,桃園市,笨港里6鄰29-2號,道教,-0932281450,李煖,121.023933410645,24.9704132080078,新屋區
635,正覺寺,釋迦牟尼佛,,,新北市,雙興里達天13之1號,佛教,02-24929033,邱鴻光,121.63289642334,25.1836204528809,萬里區
636,金山財神廟,龍德星君,,,新北市,公館崙52之2號,道教,02-24081190,郭義彥,121.654899597168,25.2119102478027,萬里區
637,龍天宮,神農大帝,,,新竹縣,南平里南平路100巷27號,道教,03-0937539791,張泉霖,121.05729675293,24.8374805450439,新埔鎮
638,劍童廟,劍童公,,,臺北市,復勢里八德路3段199巷1號,道教,02-25791605,林水永,121.553733825684,25.0476627349854,松山區
639,大靈宮,開漳聖王,,,基隆市,基金二路3巷17之3號,道教,-0921934298,陳得麟,121.701538085938,25.1437702178955,安樂區
640,靈巖寺,普庵祖師,,,新北市,嶺腳里嶺腳寮104號,佛教,02-24951887,林瑞祺,121.744400024414,25.0433692932129,平溪區
641,慈光山人乘寺幸福講堂,釋迦牟尼佛,,,新竹市,水源里16鄰太原路368之1號,佛教,03-5726795,李文達,120.993988037109,24.8138866424561,東區
642,北海濟世宮,天上聖母,,,新北市,店子里店子37之3號,道教,02-26372307,周義雄,121.505798339844,25.2049293518066,三芝區
643,印心寺,釋迦牟尼佛,,,桃園市,信義路729號,佛教,03-3885519,江芷蓮,121.31111907959,24.8961277008057,大溪區
644,龍興宮,四府將軍,,,新北市,十分里十分街312號,道教,02-24958766,胡維華,121.775497436523,25.0436496734619,平溪區
645,台北市北投至妙寺,釋迦牟尼佛,,,臺北市,泉源里東昇路117之2號,佛教,02-28925642,吳夢儀,121.530403137207,25.1482200622559,北投區
646,台北市大安區福安宮,福德正神,,,臺北市,虎嘯里臥龍街61號,道教,02-27320830,陳黃綉貝,121.547477722168,25.0221042633057,大安區
647,十方禪林,釋迦牟尼佛,,,新竹縣,湖光村8鄰14寮6-3號,佛教,03-5806276,釋宏善,120.988296508789,24.67991065979,峨眉鄉
648,壹同寺,釋迦牟尼佛,,,新竹市,柴橋里1鄰明湖路365巷1號,佛教,03-5204367,姚玉雀,120.967498779297,24.7779369354248,東區
649,真福地福德宮,福德正神,,,新竹市,復興里三民路135號,道教,098-8968578,呂惟源,120.979301452637,24.8106594085693,東區
650,新竹關帝廟(三級古蹟),關聖帝君,,,新竹市,關帝里9鄰南門街109之1號,道教,03-5221339,江雲水,120.966758728027,24.8025169372559,東區
651,崑崙七星殿,玉皇大帝,,,新竹縣,東山里7鄰湖肚20號,道教,03-5872150,游崑崙,121.189399719238,24.7885704040527,關西鎮
652,德厚宮,福德正神,,,基隆市,龍安街198巷105號,道教,02-24242149,張春淋(暫代),121.740158081055,25.1229400634766,仁愛區
653,淨蓮寺,釋迦牟尼佛,,,桃園市,和平西路115號,佛教,03-3862341,劉炳妹,121.196800231934,25.0568675994873,大園區
654,乾元宮,三府王爺,,,桃園市,北港村3鄰17號,道教,03-4838279,劉英藏,121.15648651123,25.0661277770996,大園區
655,三教山清靈宮,太上老君,,,臺北市,內溝里康樂街236之6號,道教,02-26313431,賈中孚,121.622398376465,25.087869644165,內湖區
656,小基隆福成宮,天上聖母,,,新北市,中山路一段38號,道教,02-26362076,李德爐,121.501403808594,25.257080078125,三芝區
657,三芝玉仙宮,註生娘娘,,,新北市,後厝里番仔崙12號之5,道教,02-26368298,林金財,121.488800048828,25.2370491027832,三芝區
658,道行宮,天上聖母,,,新北市,清穗里華安街17巷2號之5,道教,02-29612495,王瑞定,121.466796875,24.9981594085693,中和區
659,安樂區樂一路福德廟,福德正神,,,基隆市,樂一路28巷2號,道教,02-24250657,曾兆銘,121.734596252441,25.1316604614258,安樂區
660,寶藏巖,普庵祖師,,,臺北市,水源里汀州路3段230巷23號,佛教,02-23675713,林忠輝,121.533142089844,25.010461807251,中正區
661,五股佑明宮,廣澤尊王,,,新北市,德泰里成泰路一段7巷26弄臨1號,道教,02-29097716,高秋梅,121.433097839355,25.0672607421875,五股區
662,竟南宮,孚佑帝君,,,新北市,內南里興南路二段399巷136號,道教,02-29413926,林銘傑,121.500602722168,24.9736099243164,中和區
663,靈隱寺,釋迦牟尼佛,,,新竹市,柴橋里6鄰明湖路1135號,佛教,03-5202880,卓來金,120.967628479004,24.7746143341064,東區
664,太元宮,三官大帝,,,新竹縣,玉山里2鄰赤柯山12號,道教,03-5476089,蕭慶帝,121.206825256348,24.7596988677979,關西鎮
665,龍台宮,玄天上帝,,,新竹市,光復里3鄰東明街133號,道教,03-5719341,侯宗憲,120.987915039063,24.8040065765381,東區
666,東平宮,三官大帝,,,新竹縣,東平里5鄰大旱坑34號,道教,03-5475229,李常棟,121.117797851563,24.8262004852295,關西鎮
667,福安宮,福德正神,,,新北市,上德里8鄰大粗坑8號旁,道教,02-26656946,翁萬,121.724975585938,24.9477348327637,坪林區
668,財團法人台北市東和禪寺,釋迦牟尼佛,,,臺北市,東門里仁愛路1段21-33號,佛教,02-23934598/23517887,釋修慧,121.522560119629,25.0394515991211,中正區
669,財團法人台北市北投區靈山大慈寺,釋迦牟尼佛,,,臺北市,泉源里登山路85號,佛教,02-28916795,邱慧君,121.515701293945,25.1500797271729,北投區
670,財團法人台北保安宮,保生大帝,,,臺北市,保安里哈密街61號,道教,02-25951676,廖武治,121.515296936035,25.0735301971436,大同區
671,夏教養聖堂,三一教主,,,臺北市,民輝里建國南路1段44巷7號,三一(夏)教,02-27413631,郭源錕,121.536796569824,25.0369091033936,大安區
672,裕昌宮,福德正神,,,新北市,德音里成泰路一段235號,道教,02-22925675,池金益,121.436302185059,25.0799102783203,五股區
673,凌奉宮,中壇元帥,,,新北市,集賢里凌雲路2段27號,道教,02-22913365,陳進興,121.44059753418,25.1021099090576,五股區
674,聖王宮,開漳聖王,,,桃園市,義勇街8號,道教,03-3776411,尤金源,121.301086425781,24.9639453887939,八德區
675,車埕三清殿,三清道祖,,,新北市,興華里車埕62號,道教,02-26371408,蘇麗娟,121.499000549316,25.1967296600342,三芝區
676,頂圳福德宮,福德正神,,,基隆市,工建西路32號,道教,02-24515836,蕭寶宴,121.703598022461,25.0925006866455,七堵區
677,百騏宮,普庵祖師,,,新北市,東勢里東勢格1之1號,道教,02-24951388,陳福成,121.749702453613,25.0051097869873,平溪區
678,凌雲寺,普庵祖師,,,新北市,觀音里凌雲路3段57號,佛教,02-22912942,楊國志,121.425300598145,25.125509262085,五股區
679,湧光禪寺,釋迦牟尼佛,,,桃園市,湧光里27鄰湧光路136巷159號,佛教,03-4194118,釋淨德,121.206146240234,24.8938617706299,平鎮區
680,崑崙道堂,無極聖祖,,,新北市,成泰路2段147巷9之1號,道教,02-29898622,林樹傳,121.439056396484,25.0861873626709,五股區
681,信義福德祠,福德正神,,,桃園市,北貴里1鄰正義路126號,道教,03-4594336,劉忠義,121.224090576172,24.9299564361572,平鎮區
682,三學蘭若,準提菩薩,,,新竹縣,湖光村12鄰12寮6-6號,佛教,037-602820,羅金田,120.997200012207,24.6690807342529,峨眉鄉
683,種福堂,普庵祖師,,,新竹縣,山湖村山湖路8號,佛教,03-5761172,朱漢光,121.049346923828,24.7544708251953,寶山鄉
684,寶斗仁福德宮,福德正神,,,新竹縣,寶斗村寶斗路17巷8號,道教,03-0000000,蘇立興,120.951377868652,24.7285270690918,寶山鄉
685,仁光寺,釋迦牟尼佛,,,新竹市,高峰里12鄰高峰路121號,佛教,03-5223301,紀長青,120.974212646484,24.7914428710938,東區
686,開天宮,磐古聖帝,,,新竹市,光鎮里12鄰高峰路110巷7號,道教,03-5617782,吳秋男,120.973701477051,24.7915496826172,東區
687,佛光山法寶寺,釋迦牟尼佛,,,新竹市,三民里13鄰民族路241巷1號,佛教,03-5427995,劉憶靜,120.981056213379,24.8107662200928,東區
688,金錦山義民廟,粵東褒忠義民神位,,,新竹縣,金山里12鄰127號,道教,03-5478256,徐聰明,121.22435760498,24.7677021026611,關西鎮
689,新北市五股區聚福宮,福德正神,,,新北市,成泰里御史路134號,道教,02-22933865,吳國全,121.435203552246,25.0984592437744,五股區
690,九龍蓮社,釋迦牟尼佛,,,臺北市,德安里四維路52巷1之1及3號,佛教,02-27085973、27018152,廖文招,121.547676086426,25.0310897827148,大安區
691,峰碧山圓覺寺,釋迦牟尼佛,,,臺北市,碧山路39號,佛教,02-27909868,劉金蟬,121.590797424316,25.0976505279541,內湖區
692,慈雲寺,普庵祖師,,,新北市,興華里7鄰楓子林47之1號,佛教,02-26371765,盧義鑑,121.501800537109,25.2066707611084,三芝區
693,金剛寺,釋迦牟尼佛,,,新竹縣,南埔村4鄰37號,佛教,03-5803319,廖秀娘,121.044021606445,24.6927642822266,北埔鄉
694,明天宮,關聖帝君,,,新北市,中山路41巷7號,道教,02-24931138,李臻芳,121.865913391113,25.0319232940674,雙溪區
695,福德宮,福德正神,,,新北市,上德里3鄰林梅嶺11號旁,道教,02-26656523,蕭清波,121.696952819824,24.9553813934326,坪林區
696,太陽宮,太陽星君,,,新北市,義山里下圭柔山106號,道教,02-26228889,張忠雄,121.443298339844,25.2095508575439,淡水區
697,台北天后宮,天上聖母,,,臺北市,西門里成都路51號,道教,02-23310421,黃秀福,121.506301879883,25.042760848999,萬華區
698,巖清寺,釋迦牟尼佛,,,臺北市,銘德里環河南路3段203號,佛教,02-23058490,林恆志,121.492202758789,25.0216407775879,萬華區
699,金剛禪寺,釋迦牟尼佛,觀世音菩薩,,桃園市,永安路1369巷31號,佛教,03-2150051,釋會宗,121.27522277832,25.0110740661621,桃園區
700,鴻撫宮,廣澤尊王,,,桃園市,鴻撫街6號,道教,03-3698361,劉文傑,121.264289855957,24.9737567901611,桃園區
701,龍鎮宮,福德正神,,,新北市,逢甲路38之1號,道教,09-20603026,林文義,121.811141967773,25.1084156036377,瑞芳區
702,金山寺,釋迦牟尼佛,,,新北市,頌德里汽車路142號,佛教,02-24972994,溫敏琴,121.838600158691,25.1110591888428,瑞芳區
703,新莊擎天府,五府千歲,,,新北市,丹鳳里壽山路55之1號,道教,02-29051129,羅育龍,121.412200927734,25.0314998626709,新莊區
704,新莊福德祠,福德正神,,,新北市,文德里新莊路207號,道教,02-29929884,陳圓光,121.455497741699,25.0356597900391,新莊區
705,東窯太子宮,三太子,,,新竹市,東香里柴橋路256巷1號,道教,03-5202616,王文魁,120.962959289551,24.7660732269287,香山區
706,蓮華寺,釋迦牟尼佛,,,新北市,圓山里大水堀32號,佛教,02-26371468,魏賜寬,121.511001586914,25.2153606414795,三芝區
707,圓光寺,釋迦牟尼佛,,,桃園市,聖德路1段888巷11號,佛教,03-4256168,邱榮翰,121.194602966309,25.0020904541016,中壢區
708, 保福西王母總廟(原文昌廟),文昌帝君,,,新竹縣,外坪村8鄰六股22號,道教,03-5802704,吳文發,121.086502075195,24.6473197937012,北埔鄉
709,仙台山五股北極殿,玄天上帝,,,新北市,五龍里民義路2段37之6號,道教,02-22910942,施勝雄,121.413101196289,25.1004390716553,五股區
710,台北靈巖山寺林口竹林別院,阿彌陀佛,,,新北市,菁湖里竹林路326巷22弄12號,佛教,02-27547178,林正道,121.391799926758,25.0820407867432,林口區
711,靈惠廟,靖惠侯敦仁公,,,基隆市,東新街6巷24之1號,道教,02-24566226,詹清南,121.716499328613,25.0904903411865,七堵區
712,財團法人台灣省新竹縣竹東惠昌宮,三山國王,,,新竹縣,東寧路三段67號,道教,03-5103322,彭錫源,121.087097167969,24.738109588623,竹東鎮
713,財團法人台北市放生念佛會,釋迦牟尼佛,,,臺北市,吉仁里延吉街33號,佛教,02-25776463,念禎祥,121.5537109375,25.0458793640137,松山區
714,財團法人陽明山五福宮,福德正神,,,臺北市,永和里行義路1號,道教,02-28725833,何正華,121.525802612305,25.1240501403809,北投區
715,財團法人新北市八里大眾廟,大眾爺,,,新北市,龍米路二段200巷5號,道教,02-26108500,柯慶長,121.433799743652,25.1589508056641,八里區
716,財團法人天帝教,玉皇大帝,,,新北市,北新路二段153號,天帝教,049-2898446,陳文華,121.542701721191,24.9760398864746,新店區
717,財團法人通化堂,太上老君,,,臺北市,群賢里復興南路2段179號4樓,一貫道,02-27012440,陳登材,121.543678283691,25.026948928833,大安區
718,法嚴寺,釋迦牟尼佛,,,基隆市,東新街65巷48號,佛教,02-24562057,吳強台,121.721603393555,25.0968608856201,七堵區
719,三峽廣靈廟,三山國王,,,新北市,安坑里安坑27之2號,道教,02-26682380,張金村,121.445999145508,24.9283294677734,三峽區
720,三峽鎮溪墘寮福隆宮,福德正神,,,新北市,大埔路34號,佛教,02-26712471,鍾仁生,121.365875244141,24.9088401794434,三峽區
721,鎮安宮,蕭府王爺,,,臺北市,金泰里基湖路151巷46弄6號,道教,02-25327096,謝明達,121.564796447754,25.077169418335,中山區
722,朝聖宮,軒轅黃帝,,,新北市,五股里民義路1段115號,道教,02-22921533,周揚品,121.435997009277,25.0847206115723,五股區
723,顯明宮,關聖帝君,,,新北市,仁興街33巷3號,道教,02-29733281,林福來,121.499298095703,25.0754508972168,三重區
724,普庵宮,普庵祖師,,,新北市,光明路32巷16號,佛教,02-29780373,梁進益,121.491798400879,25.0586605072021,三重區
725,永福岩,清水祖師,,,新北市,頂埔里中央路4段65號,佛教,02-22681013,廖德一,121.417503356934,24.9581508636475,土城區
726,長壽山元亨寺,普庵祖師,,,新北市,溪北里介壽路3段208號,佛教,02-26713515,廖年吉,121.405403137207,24.9452705383301,三峽區
727,禪光寺,阿彌陀佛,,,新北市,嘉添里白雞路177之1號,佛教,02-26731239,釋見禪,121.403701782227,24.9044990539551,三峽區
728,養德禪寺,釋迦牟尼佛,,,新竹市,南大里11鄰西大路11巷12號,佛教,03-5227412,釋如音,120.972312927246,24.7940254211426,東區
729,元和宮,三官大帝,,,新竹縣,上林里14鄰坪林49號,道教,03-5868892,范光建,121.135643005371,24.8035144805908,關西鎮
730,廣承岩,釋迦牟尼佛,,,新北市,埤塘里金城路一段78號,佛教,02-22603482,鄧法杰,121.444297790527,24.9727592468262,土城區
731,妙光寺,釋迦牟尼佛,,,新北市,添福里添福195之3號,佛教,-26732409,徐愛珠,121.387763977051,24.8933048248291,三峽區
732,康福宮,福德正神,,,基隆市,安和一街288巷103之4號,道教,02-24312083,陳福助,121.727012634277,25.1282901763916,安樂區
733,石牌玄帝宮,玄天上帝,,,臺北市,福興里自強街31巷40號,道教,02-28320118,蘇福賜,121.513298034668,25.110279083252,北投區
734,靈法寺,普庵祖師,,,臺北市,開明里長壽路20號,佛教,02-28932060,高玉英,121.504402160645,25.1428604125977,北投區
735,五東山慈聖宮,瑤池金母,,,新北市,東山里內曾路6號,道教,02-26471683,李清強,121.698402404785,25.0483703613281,汐止區
736,瑪西里仙洞湖福德宮,福德正神,,,基隆市,大華三路23號旁,道教,02-24553200,陳金諒,121.680862426758,25.121021270752,七堵區
737,鎮福宮,福德正神,,,新北市,立人街24之4號,道教,02-29443873,游証揚,121.518898010254,24.994270324707,中和區
738,中和行德宮,文昌帝君,,,新北市,內南里興南路二段399巷130之1號,道教,02-29449638,林水中,121.501098632813,24.9752407073975,中和區
739,大香山慈音巖,明明上帝,,,新北市,美潭里長春路252號,一貫道,02-22174255,林昇樂,121.560302734375,24.9622001647949,新店區
740,碧河宮,福德正神,,,新北市,碧河里連城路249號,道教,02-22490677,林義豐,121.49340057373,24.9969692230225,中和區
741,萬年宮,普庵祖師,,,新北市,添福里添福239之3號,道教,02-26717882,鄭財明,121.380195617676,24.8912467956543,三峽區
742,台北市圓明宮,瑤池金母,,,臺北市,集英里中山北路2段128巷3之2號,道教,02-25610023,鄭琨琪,121.523399353027,25.0637798309326,中山區
743,靜修寺,釋迦牟尼佛,,,桃園市,一心里29鄰中華路203巷17號,佛教,03-3885264,吳鶴燕,121.293975830078,24.87939453125,大溪區
744,國王宮,三山國王,,,新竹縣,中盛村3鄰196號,道教,03-5800805,楊國瑞,121.031196594238,24.6923198699951,峨眉鄉
745,法王寺,燃燈佛,釋迦牟尼佛,彌勒佛,新竹市,高峰里4鄰高峰路506巷86號,佛教,03-5229074,徐明輝,120.981300354004,24.7734699249268,東區
746,三興宮,三山國王,,,基隆市,獅球路169巷62號,道教,02-24323430,羅興旺,121.736801147461,25.1223106384277,仁愛區
747,慈修宮,關聖帝君,,,基隆市,仁三路3巷13號,道教,02-24229212,簡武助,121.744842529297,25.1276683807373,仁愛區
748,天顯宮,五顯大帝,,,基隆市,和平街118號,道教,02-24620905,張朝明,121.769599914551,25.1570796966553,中正區
749,貴文宮,九府王爺,,,桃園市,內海里2鄰學府路13號,道教,03-3865039,許崇孚,121.201499938965,25.069429397583,大園區
750,報恩寺,釋迦牟尼佛,,,臺北市,福林里中山北路5段102號,佛教,02-28812588,謝鈺華,121.52619934082,25.0851306915283,士林區
751,法明寺,普庵祖師,,,新北市,積穗里新民街12號,佛教,02-32348202,林源河,121.482498168945,25.0059700012207,中和區
752,忠義堂,關聖帝君,,,新北市,大埔里11鄰大埔路33巷6號與8號中間,道教,02-26711641,黃水連,121.366302490234,24.9092292785645,三峽區
753,景新宮,福德正神,,,臺北市,新庄里濱江街6之1號,道教,02-25954128,阮曜煌,121.529197692871,25.0709095001221,中山區
754,六也堂,普庵祖師,,,桃園市,一心里下田心子17號,佛教,093-3886150,謝瑞美,121.28931427002,24.8806781768799,大溪區
755,五福佛山承願寺,準提菩薩,,,新北市,五龍里民義路二段37號之66,佛教,02-22930393,吳明澄,121.413101196289,25.1004390716553,五股區
756,嘉天宮,天上聖母,,,新北市,龍濱里河邊北街176巷9-5號,道教,02-29736691,林淵滄,121.502250671387,25.073844909668,三重區
757,朝棟里南山福德宮,福德正神,,,基隆市,成功一路113巷84之3號,道教,02-24331308,李淑貞,121.73518371582,25.127405166626,仁愛區
758,佛心觀音巖,普庵祖師,,,基隆市,南榮路463巷22弄4號之1,一貫道,02-24256246,林貴美,121.750183105469,25.1162166595459,仁愛區
759,九龍山上帝公廟,玄天上帝,,,新北市,光明里碇南路2段松柏崎巷33號,道教,02-26632194,陳春長,121.677299499512,25.0219306945801,石碇區
760,碧華寺,釋迦牟尼佛,,,新北市,碧華里碧華街236號,佛教,02-28573300,林東瀛,121.487297058105,25.0825500488281,三重區
761,福山天惠堂,明明上帝,,,新北市,清化里青雲路486之1號,一貫道,02-22622162,羅銀祥,121.469398498535,24.9643096923828,土城區
762,三峽興隆宮媽祖廟,天上聖母,,,新北市,三峽里民權街50號,道教,02-26715643,陳福生,121.369598388672,24.9334907531738,三峽區
763,惠和宮,三山國王,,,新竹縣,秀湖村10鄰山猪湖95號,道教,03-5931491,曾敬丁,121.109901428223,24.7345695495605,芎林鄉
764,大願寺,地藏王菩薩,,,新竹縣,商華里環山路3號,佛教,03-5962670,王金蓮,121.082939147949,24.7328357696533,竹東鎮
765,溥濟宮,保生大帝,,,桃園市,保生村仁愛路2段417號,道教,03-4732378,廖治文,121.06974029541,25.008113861084,觀音區
766,集順廟,保儀尊王,,,新北市,石碇里石碇西街9號,道教,-0911299862,王萬紫,121.659103393555,24.9907207489014,石碇區
767,財團法人新北市白象山,釋迦牟尼佛,,,新北市,安忠路57巷5之1號,佛教,02-23370233,林永文,121.513603210449,24.9591693878174,新店區
768,財團法人金龍院,釋迦牟尼佛,,,臺北市,內湖路3段256巷2號,佛教,02-27902604,陳義忠,121.592498779297,25.0844993591309,內湖區
769,財團法人台灣省基隆市福安宮,福德正神,,,基隆市,復興路1號,道教,02-24244670,李正律,121.72705078125,25.1411113739014,中山區
770,財團法人台北葫蘆寺,普庵祖師,,,臺北市,葫蘆里延平北路5段285巷35號,佛教,02-28150595,郭江源,121.510902404785,25.0797996520996,士林區
771,財團法人台北市善光寺,阿彌陀佛,,,臺北市,林泉里溫泉路銀光巷20號,佛教,02-28912726,吳照明,121.518898010254,25.1357898712158,北投區
772,財團法人新北市承天禪寺,釋迦牟尼佛,,,新北市,大安里承天路96號,佛教,02-22671789,江朝騰,121.446296691895,24.9506702423096,土城區
773,財團法人新北市竹林山觀音寺,普庵祖師,,,新北市,菁湖里竹林路325號,佛教,02-26011412,黃火旺,121.389602661133,25.083740234375,林口區
774,頂社福德宮,福德正神,,,新北市,大鵬里頂社44號右側,道教,02-983017,陳福來,121.656097412109,25.2115802764893,萬里區
775,廣雲宮,玄天上帝,,,基隆市,華新二路68號,道教,02-24513355,黃鴻鵬,121.66463470459,25.1153621673584,七堵區
776,慈安宮,李府王爺,,,新北市,員山路611巷11弄4號,道教,02-22226965,佘福地,121.477699279785,25.0106430053711,中和區
777,寶德堂,明明上帝,,,桃園市,仁善里埔頂2段527號,一貫道,03-3801433,詹葉美雲,121.281097412109,24.9186000823975,大溪區
778,八德區廣興福德宮,福德正神,,,桃園市,廣興里新興路342巷120之1號,道教,093-2928232,呂理亮,121.280540466309,24.9498119354248,八德區
779,平鎮市鎮安宮,三官大帝,,,桃園市,平鎮里2鄰4號,道教,03-4390378,王年發,121.204193115234,24.9211826324463,平鎮區
780,財團法人台北市北投慈后宮,天上聖母,,,臺北市,清江里清江路169號,道教,02-28915323,林正雄,121.501998901367,25.1282691955566,北投區
781,財團法人台北市中和堂,釋迦牟尼佛,,,臺北市,奇岩里奇岩路151號,佛教,02-28962162,王祖欽,121.507102966309,25.1305904388428,北投區
782,財團法人臺灣省新竹市普天宮,福德正神,,,新竹市,高峰里高峰路306號,道教,03-5225287,鄭逸榛,120.979598999023,24.7821998596191,東區
783,財團法人新北市中和廣濟宮,開漳聖王,,,新北市,枋寮里中和路95號,道教,02-22499862,游炎川,121.50129699707,25.0006294250488,中和區
784,財團法人台灣省新竹縣溪南湖口顯聖宮,天上聖母,,,新竹縣,愛勢村7鄰民生街120號,道教,03-5992634,黃德億,121.047996520996,24.902889251709,湖口鄉
785,林口東湖福德宮,福德正神,,,新北市,仁愛路二段148號之1,道教,02-26017766,王阿喜,121.38200378418,25.0744304656982,林口區
786,新龍宮,九天四聖帝,,,新北市,廣明里6鄰中興路1段51號,道教,02-29113241,簡游玉珠,121.539596557617,24.9602603912354,新店區
787,淡水忠順廟,保儀尊王,,,新北市,蕃薯里南平19號之3旁,道教,02-26225808,楊淑媖,121.493598937988,25.2174396514893,淡水區
788,寶光紹興講堂,明明上帝,,,桃園市,中埔里永安北路13巷11號,一貫道,03-3023945,陳國泰,121.291381835938,25.0081367492676,桃園區
789,瑞芳青雲殿,神農大帝,,,新北市,海濱里濱二路30號,道教,02-24972694,黃佳玲,121.841598510742,25.1161308288574,瑞芳區
790,威遠廟,延平郡王,,,新北市,濂新里明里路7之1號,道教,02-24961936,黃瑞聰,121.868103027344,25.1203804016113,瑞芳區
791,淡水福佑宮,天上聖母,,,新北市,民安里中正路200號,道教,02-26211731,謝安棋,121.439903259277,25.1701698303223,淡水區
792,廣福宮,三山國王,,,新竹縣,芎林村1鄰文昌街廣福巷45號,道教,03-5923865,彭正章,121.079803466797,24.7752094268799,芎林鄉
793,龍安宮,福德正神,,,基隆市,華新二路68之1號,道教,02-24563333,黃明輝,121.665161132813,25.1191501617432,七堵區
794,無極宮,玉皇大帝,,,新北市,興南路三段40巷12號,道教,02-29410011,陳愛娥,121.496002197266,24.9781494140625,中和區
795,中和慈惠堂,瑤池金母,,,新北市,員山路11號,道教,02-22235503,蔡錫全,121.479301452637,24.9803905487061,中和區
796,顯應清水巖,清水祖師,,,新北市,嘉添里白雞路126之5號,道教,02-26721453,張炳泉,121.399421691895,24.9051322937012,三峽區
797,福山巖,孚佑帝君,,,新北市,中埔里中埔2號,道教,02-26712479,陳昭,121.35669708252,24.9297370910645,三峽區
798,圓山藥師寺,藥師佛,,,臺北市,中山北路4段1巷1弄6號旁,佛教,02-28858084,呂欽明,121.528198242188,25.0810203552246,中山區
799,三元宮,三官大帝,,,桃園市,員林里4鄰員林路二段282巷17號,道教,03-3907078,許有亮,121.268699645996,24.8857898712158,大溪區
800,淨覺寺,釋迦牟尼佛,,,新北市,荖阡里荖阡坑路15之40號,佛教,02-26101736,曾宏麟,121.402099609375,25.1401100158691,八里區
801,泰安宮,天上聖母,,,臺北市,潮州街錦華里98巷1、3、5號,道教,02-23949818,楊啟琴,121.529098510742,25.0285205841064,大安區
802,明陽慈惠堂,瑤池金母,,,新北市,永定里大湖格2之1號,道教,02-26638559,黃聰明,121.704299926758,25.012939453125,石碇區
803,大安晉安宮,福德正神,,,新北市,中央路3段40巷,道教,02-22674612,廖禎祥,121.435806274414,24.9688243865967,土城區
804,聖江廟,保儀尊王,,,新北市,中正路5巷27號,道教,02-26229653,翁松明,121.442398071289,25.1691207885742,淡水區
805,聖母宮,天上聖母,,,桃園市,新埔里南通路10號,道教,03-3569957,許淑女,121.307403564453,25.0205097198486,桃園區
806,鳳山巖觀音寺,普庵祖師,,,桃園市,大有路946巷205號,佛教,03-3252305,楊鑫坤,121.317596435547,25.0256004333496,桃園區
807,長興宮,福德正神,,,新北市,上天里粗坑口路1巷2之2號,道教,02-24576721,柯寶川,121.761596679688,25.0959091186523,瑞芳區
808,松山進安宮,五年千歲,,,臺北市,永吉里永吉路517巷8弄12-3號,道教,09-33922587,徐富盛,121.58039855957,25.0465793609619,信義區
809,財團法人新北市石碇深坑坪林天后宮,天上聖母,,,新北市,彭山里崩山33之3號,道教,02-26632894,顏進毅,121.676902770996,24.9652805328369,石碇區
810,淡水聖和堂,普庵祖師,,,新北市,忠寮里大埤頭1之3號,佛教,02-86316409,黃陳美枝,121.492202758789,25.1950607299805,淡水區
811,龍山寺,普庵祖師,,,新北市,中山路95巷22號,佛教,02-26214866,林志誠,121.442100524902,25.1700897216797,淡水區
812,榮興福德宮,福德正神,,,新北市,深澳里14鄰建基路2段45號,道教,02-24979798,簡富雄,121.806678771973,25.133337020874,瑞芳區
813,保女廟,釋迦牟尼佛,,,新北市,三爪子坑路279之1號,佛教,02-24973438,吳清龍,121.814399719238,25.1063709259033,瑞芳區
814,新蓮佛堂,明明上帝,,,新竹縣,德盛村21鄰108之16號,一貫道,03-5996087,林金生,121.028900146484,24.9113807678223,湖口鄉
815,白沙灣觀航寺,普庵祖師,,,新北市,德茂里下員坑33之1號,道教,02-86352836,孫文章,121.519599914551,25.2828407287598,石門區
816,板橋北門福德宮,福德正神,,,新北市,公館街8號,道教,02-29682939,吳聰榮,121.456703186035,25.0121307373047,板橋區
817,清海宮,蘇府王爺,,,新北市,民生里民生街38巷4弄5號,道教,02-29863869,朱清發,121.492401123047,25.0669097900391,三重區
818,先帝宮,神農大帝,,,新北市,光輝里文化南路65巷13號,道教,02-29739998,張慶村,121.499702453613,25.0608501434326,三重區
819,東明寺,釋迦牟尼佛,,,基隆市,中船路112巷22弄8號,佛教,02-24226190,潘枝妹,121.752197265625,25.1378707885742,中正區
820,港口大眾爺廟,大眾爺,,,桃園市,沙崙里1鄰漁港路492號,道教,03-3835601,駱文章,121.230400085449,25.1001205444336,大園區
821,威靈宮,三府王爺,,,新北市,豐漁里民生路146號,道教,02-24982892,許炳煌,121.647201538086,25.2235794067383,金山區
822,道教帝廟金鑾殿,三清道祖,,,新北市,龍源里龍形5街37巷3號之1,道教,02-26185596,邱定國,121.448661804199,25.1325454711914,八里區
823,桃園八德天后宮,天上聖母,,,桃園市,茄苳路865號‎,道教,093-2023098,洪月香,121.279899597168,24.9673004150391,八德區
824,大安車層景福宮,福德正神,,,臺北市,華聲里延吉街77號,道教,02-27528693,陳秋財,121.554000854492,25.0436992645264,大安區
825,七堵慶濟宮,天上聖母,,,基隆市,正明里開元路92號,道教,02-24562872,柯金標,121.71272277832,25.0959663391113,七堵區
826,聖靈山玉皇宮道元宗,三官大帝,,,新北市,灰瑤里員山路6號之3,道教,02-22219494,蕭哲昌,121.486801147461,24.9785194396973,中和區
827,無極瑤池聖殿,玉皇大帝,,,新北市,安坑里安坑71之1號,道教,02-26681035,廖三柱,121.456703186035,24.9423828125,三峽區
828,致和寺,釋迦牟尼佛,,,桃園市,復興路1段311巷13號,佛教,03-3884293,陳義春,121.295799255371,24.8601303100586,大溪區
829,新北市八里廖添丁廟,關聖帝君,,,新北市,中華路3段2號,道教,02-26102121,施阿貴,121.396598815918,25.1435508728027,八里區
830,智光禪寺,釋迦牟尼佛,,,新北市,五龍里民義路二段21號,佛教,02-22922069,呂鳳凰,121.419799804688,25.0967502593994,五股區
831,蓮雲寺,燃燈佛,釋迦牟尼佛,彌勒佛,新北市,凌雲路二段33號,佛教,02-22920565,吳張敏珠,121.438102722168,25.1014804840088,五股區
832,三重奉巡府,蘇府王爺,,,新北市,中正北路317巷16號,道教,02-29839753,蔡岳忠,121.474998474121,25.072940826416,三重區
833,慧法禪寺,釋迦牟尼佛,,,新北市,平林里6鄰外平林14號後面,佛教,02-24933048,蘇秋土,121.855850219727,25.0344715118408,雙溪區
834,湧泉寺,釋迦牟尼佛,,,臺北市,臨溪里劍南路211號,佛教,02-28411597,釋普緣,121.55549621582,25.0988998413086,士林區
835,無極天聖殿,玉皇大帝,,,臺北市,平等里平菁街95巷47-1號,道教,09-84225922,李秋蓁,121.58219909668,25.1353797912598,士林區
836,基隆金斗公廟,萬善爺,,,基隆市,西定路80巷48之1號,道教,02-24225142,游燦堂,121.736396789551,25.1332397460938,中山區
837,屈原宮,水仙尊王,,,臺北市,洲美里洲美街122號,道教,02-28360256,林天來,121.505699157715,25.0995597839355,北投區
838,慈航寺,普庵祖師,,,臺北市,秀山里中和街456號,佛教,02-28913881,釋常禪,121.496101379395,25.145170211792,北投區
839,香山福地,福德正神,,,新竹市,朝山里中華路五段420巷126號13號,道教,03-5383019,鄭成光,120.915412902832,24.7717895507813,香山區
840,西方精舍,阿彌陀佛,觀世音菩薩,大勢至菩薩,新北市,集福里成泰路4段44號,佛教,02-22911607,林祺福,121.456100463867,25.1105194091797,五股區
841,福興宮,天上聖母,,,桃園市,高城里高城八街46巷12-1號,道教,03-3691666,張添佐,121.27490234375,24.978609085083,八德區
842,紅淡山龍珠山福德宮,福德正神,,,基隆市,南榮路231巷35號上方,道教,02-24571596,柯賴秀玉,121.743919372559,25.1214237213135,仁愛區
843,妙光寺,釋迦牟尼佛,,,臺北市,福林里至善路1段138巷24弄8號,佛教,02-28812072,林月代,121.539596557617,25.0954399108887,士林區
844,玉泉宮,關聖帝君,,,新北市,鄉長里長江街287之1號,道教,02-26422138,楊常裕,121.66480255127,25.0816898345947,汐止區
845,明安寺(廟不在),普庵祖師,,,新北市,汐平路二段88號之1,佛教,02-26432577,許金發,121.703071594238,25.0538082122803,汐止區
846,板橋廣厚宮,福德正神,,,新北市,信義里信義路164之1號,道教,02-29559013,李江秀,121.459297180176,24.991340637207,板橋區
847,靈山宮,福德正神,,,基隆市,壽山路12之3號,道教,02-24280183,簡許泉(暫代),121.75611114502,25.133731842041,信義區
848,法王寺,釋迦牟尼佛,,,基隆市,龍安街198巷4弄17號,佛教,02-24226891,黃榮享,121.74104309082,25.1237564086914,仁愛區
849,廣熙宮,正一天師,,,新北市,厚德里後竹圍街60號,道教,02-29816472,林敏毓,121.490501403809,25.0732097625732,三重區
850,聖濟宮,齊天大聖,,,基隆市,中船路112巷30弄95號,道教,02-24625639,李昱儒,121.753997802734,25.1375293731689,中正區
851,福海宮,輔信王公,,,桃園市,竹圍里6鄰65號,道教,03-3835556,廖德發,121.242691040039,25.1053485870361,大園區
852,金山朝天宮,天上聖母,,,新北市,重和里六股林口38之3號,道教,02-24080664,曹正雄,121.602500915527,25.2180309295654,金山區
853,慧明禪寺,釋迦牟尼佛,,,新北市,西湖里西勢湖11號,佛教,02-24981786,楊寶秀,121.611801147461,25.2472190856934,金山區
854,東澳朝天宮,天上聖母,,,新北市,野柳里東澳26號之1,道教,02-24927805,陳益裕,121.691299438477,25.2032909393311,萬里區
855,松山聚福廟,福德正神,,,臺北市,慈祐里八德路4段490號,道教,02-26093239,許青田,121.570297241211,25.0496406555176,松山區
856,大覺禪寺,釋迦牟尼佛,,,新北市,同榮里吳厝窠1號,佛教,02-29098626,陳郁瑩,121.428001403809,25.0584907531738,泰山區
857,東安宮,天上聖母,,,基隆市,東勢街203號,道教,02-24591582,林嘉萬,121.75479888916,25.0775909423828,暖暖區
858,師善堂,普庵祖師,,,新竹縣,員崠里東峰路588巷42號,佛教,03-5966027,薩世安,121.097076416016,24.7148151397705,竹東鎮
859,佛濟寺,普庵祖師,,,新北市,二格路9號,佛教,02-26631729,陳委禎,121.625297546387,24.9630508422852,石碇區
860,法濟寺,釋迦牟尼佛,,,新北市,隆盛里吊橋2號,佛教,02-26631898,蔡並修,121.66089630127,25.005500793457,石碇區
861,聖興宮,保儀尊王,,,新北市,永定里大湖格23號,道教,02-26633675,陳國有,121.698692321777,25.0146656036377,石碇區
862,汐止巧聖仙師廟,魯班公,,,新北市,自強里環山路5號之1,道教,02-26439950,楊参傳,121.657699584961,25.0599708557129,汐止區
863,板橋江子翠潮和宮,三官大帝,,,新北市,江翠里吳鳳路50巷93號,道教,02-22522357,曹正吉,121.470497131348,25.0305404663086,板橋區
864,新北市板橋區逢元宮,天上聖母,,,新北市,中山路二段565巷29號(暫厝),道教,02-29510964,林保東,121.484901428223,25.0227699279785,板橋區
865,佛山寺,釋迦牟尼佛,,,新北市,有木里有木87號,佛教,02-26720087,曾國全,121.447601318359,24.873649597168,三峽區
866,三峽宰樞廟,玄天上帝,,,新北市,秀川街28號,道教,02-26711372,李楷瑞,121.371803283691,24.9344291687012,三峽區
867,普濟宮,廣澤尊王,,,新北市,八連里八連路一段198號巷6號,道教,02-26462966,唐玉霞,121.64469909668,25.0806503295898,汐止區
868,歡子園福德宮,福德正神,,,新北市,歡園里大觀路一段38巷156弄39號,道教,02-29676059,黃信義,121.442596435547,25.0059394836426,板橋區
869,無極明聖宮,東華帝君,,,臺北市,中南里忠孝東路7段478巷臨12號,道教,02-27832628,辜翁素雲,121.609703063965,25.050609588623,南港區
870,松山奉天宮,玉皇大帝,,,臺北市,中坡里福德街221巷12號,道教,02-27279765,林賢平,121.584899902344,25.0375099182129,信義區
871,寶光寺,釋迦牟尼佛,,,基隆市,深澳坑路125巷7號,佛教,02-24650496,陳美英,121.787643432617,25.1256771087646,信義區
872,李山神宮,瑤池金母,,,新北市,插角179號之6,道教,02-26720763,朱順忠,121.418853759766,24.8852920532227,三峽區
873,福仁宮,開漳聖王,,,桃園市,福仁里25鄰和平路100號,道教,03-3883261,江朝宗,121.286567687988,24.885856628418,大溪區
874,新北市八里區大營公廟,清朝末年戰亡官兵,,,新北市,埤頭里挖子尾街152號之1,道教,02-26103123,張光生,121.412300109863,25.1658000946045,八里區
875,助順將軍廟,助順將軍,,,新北市,福德里登林路108號,佛教,02-22925016,黃景昌,121.428298950195,25.0703601837158,五股區
876,昭安宮,李府王爺,,,新北市,光明里集美街207巷21號,道教,02-29789687,林榮宗,121.492202758789,25.0540409088135,三重區
877,台北護國延平宮,延平郡王,,,臺北市,金瑞里內湖路3段348巷6號,道教,02-27934700,王慶文,121.592399597168,25.0845909118652,內湖區
878,護天宮,女媧娘娘,,,基隆市,崇德路40巷3號,道教,02-24226146,賴朝蒼,121.731819152832,25.1306629180908,安樂區
879,新北市淡水區義山集應廟,保儀尊王,,,新北市,義山里下圭柔山35之3號,道教,02-26210771,張福氣,121.449798583984,25.2045402526855,淡水區
880,艋舺龍津宮,順正大王公,,,臺北市,菜園里長沙街2段184號,道教,02-23117849,林招皇,121.499702453613,25.0413093566895,萬華區
881,楊聖廟,楊府聖王,,,臺北市,保德里東園街154巷39號,道教,02-23038228,楊智誠,121.495796203613,25.0273990631104,萬華區
882,桃園慈護宮,天上聖母,,,桃園市,復興路275號,道教,03-3321498,吳正宗,121.306640625,24.988805770874,桃園區
883,天真總壇,明明上帝,,,新北市,柑園里學勤路333號,一貫道,02-89705116,劉漢卿,121.380302429199,24.9486103057861,樹林區
884,行德宮,普庵祖師,,,新北市,佳園路三段181巷17號,道教,02-26684077,陳芳卿,121.38680267334,24.9479598999023,樹林區
885,新莊集善堂,福德正神,,,新北市,泰豐里瓊林路32號,道教,02-22023473,胡高爾,121.449203491211,25.0315799713135,新莊區
886,新莊後港福德宮,福德正神,,,新北市,南港里後港二路18之1號,道教,02-22025921,林宜樑,121.422401428223,25.023609161377,新莊區
887,後港慈惠堂,瑤池金母,,,新北市,瓊林里新樹路113巷33號,道教,02-22026715,李蔡素美,121.439598083496,25.0265007019043,新莊區
888,新莊福成宮,福德正神,,,新北市,頭前里頭前路15巷1號,道教,02-89915390,葉健郎,121.467903137207,25.0521202087402,新莊區
889,甘露寺,釋迦牟尼佛,,,新竹縣,五豐里敦睦街47號,佛教,03-5955625,釋紹宗,121.080825805664,24.7445487976074,竹東鎮
890,崇聖廟,釋迦牟尼佛,,,新北市,中民里14鄰石碇子埔91號,佛教,02-26631721,王許瑞蓮,121.671180725098,25.0053081512451,石碇區
891,靈光寺,釋迦牟尼佛,,,新北市,溪崑二街73巷1之1號,佛教,02-26752288,郭佳玲,121.428100585938,24.9903106689453,板橋區
892,大眾廟,大眾爺,,,新北市,留侯里西門街69號之1,道教,02-29661198,江清秀,121.454399108887,25.0090599060059,板橋區
893,板橋玄武宮(已廢止),玄天上帝,,,新北市,中正路493巷10之2號,道教,02-29669179,劉陳秀花,121.454200744629,25.0263900756836,板橋區
894,東明瑤池宮,瑤池金母,,,基隆市,東明路55巷76、78號,道教,02-24653806,劉吳淑芬,121.763496398926,25.1245193481445,信義區
895,聖安宮,天上聖母,,,基隆市,中山三路111巷59號,佛教,02-24226237,霜進春,121.747276306152,25.1434803009033,中山區
896,中壢市石頭庄地區福德宮,福德正神,,,桃園市,東興里龍明街39號,道教,03-4576713,許詩源,121.223724365234,24.948127746582,中壢區
897,福安宮,福德正神,,,臺北市,溫泉里公館路85巷2弄2號,道教,02-28911456,江正義,121.505996704102,25.1319103240967,北投區
898,德明宮,福德正神,,,新北市,中興里福德一路231號,道教,02-26946231,林山永,121.634201049805,25.064920425415,汐止區
899,達香寺,釋迦牟尼佛,,,新北市,豐田里磨石坑33號,佛教,02-23910512,江秋,121.69270324707,24.9682693481445,石碇區
900,慈航大師開山彌勒內院,釋迦牟尼佛,,,新北市,秀峰里秀峰路245號,佛教,02-26413405,沈榮興,121.660202026367,25.063009262085,汐止區
901,鎮安宮,保生大帝,,,新竹市,仙水里10鄰光復路一段525巷27號,道教,03-5773669,陳振雄,121.013511657715,24.7836132049561,東區
902,淨士寺,釋迦牟尼佛,,,新竹市,頂竹里3鄰竹蓮街26巷7號,佛教,03-0000000,謝月寶,120.971939086914,24.797830581665,東區
903,慈航觀音禪寺,普庵祖師,,,新竹縣,東平里大東坑61之3號,佛教,03-5475152,林文珠,121.157447814941,24.8287696838379,關西鎮
904,廬山玖龍宮,玉皇大帝,,,新竹縣,新城村寶新路二段56巷80號,道教,03-5204264,盧光助,120.974487304688,24.7472972869873,寶山鄉
905,新莊地藏庵,地藏王菩薩,,,新北市,立人里中正路84號,佛教,02-29916678,張永寬,121.457000732422,25.0371704101563,新莊區
906,平安公廟,福德正神,,,新北市,思源路177巷32號,道教,02-29921281,連榮富,121.459396362305,25.0463409423828,新莊區
907,鎮南宮,天上聖母,,,新北市,阿柔里大崙腳8號,道教,02-26623237,鄭麗玉,121.612800598145,25.0000991821289,深坑區
908,靈靖宮,詹公聖侯,,,基隆市,通仁街84巷129之2號,道教,-0955625555,張致宗,121.7333984375,25.1472492218018,中山區
909,福慶宮,福德正神,,,基隆市,基金三路135之1號,道教,02-24310372,洪森永,121.697303771973,25.1541309356689,安樂區
910,鶯歌里福德宮,福德正神,,,基隆市,麥金路24號,道教,02-24311789,吳進財,121.72679901123,25.1161708831787,安樂區
911,農禪寺,阿彌陀佛,觀世音菩薩,大勢至菩薩,臺北市,大度路112號,佛教,02-28933161,洪鴻榮,121.495796203613,25.1226902008057,北投區
912,金龍山北峰寺,普庵祖師,,,新北市,湖光里湖前街110巷101號,佛教,02-26958828,陳綿,121.631301879883,25.0742206573486,汐止區
913,林口贊天宮,天上聖母,,,新北市,東林里自強三街28號,道教,02-26012208,蕭來發,121.398582458496,25.0768890380859,林口區
914,鄧公里福德宮,福德正神,,,新北市,幸福里仁愛街15之5號,道教,02-26213349,王金全,121.44652557373,25.170503616333,淡水區
915,保元宮,池府王爺,,,新北市,文明里中正路143號,道教,02-29970002,徐勝男,121.459602355957,25.0381298065186,新莊區
916,新莊代天府,五府千歲,,,新北市,化成路557號(暫厝),道教,09-31994135,葉金獅,121.464797973633,25.0650405883789,新莊區
917,石門妙法寺,普庵祖師,,,新北市,老梅里七股66號,佛教,02-26360722,沈秀蘭,121.548400878906,25.2500591278076,石門區
918,新竹市東區福源宮,福德正神,,,新竹市,光復里水源街55巷2之1號,道教,03-5715662,柯銀城,120.991188049316,24.8008613586426,東區
919,彌勒山天道清修院,明明上帝,,,新北市,白雲里勤進路723號,一貫道,02-26432912,江安平,121.676528930664,25.0363025665283,汐止區
920,日月大天宮,普庵祖師,,,新北市,石門里內石門67之5號,佛教,02-26380913,廖義春,121.576202392578,25.2553997039795,石門區
921,板橋天公廟,玉皇大帝,,,新北市,香雅里南雅西路二段301巷23號,道教,02-29692765,張慶昌,121.451698303223,25.0160903930664,板橋區
922,觀音山妙雲寺,普庵祖師,,,新北市,觀音里凌雲路3段73號,佛教,02-22937730,許世瑩,121.42440032959,25.1216602325439,五股區
923,福安宮,福德正神,,,新北市,長元里長元街臨82之1號,道教,02-29725712,莊林愛雲,121.501899719238,25.0664691925049,三重區
924,文化明正宮,天上聖母,,,新北市,清化里青雲路669之5號,道教,02-22707669,高銓春,121.46849822998,24.9641799926758,土城區
925,西蓮淨苑,釋迦牟尼佛,,,新北市,溪東路211巷31弄11號,佛教,02-86761982,郭敏芳,121.406196594238,24.9352607727051,三峽區
926,行德慈惠堂,瑤池金母,,,新北市,潭邊里外按18之3號,道教,02-26633445,林萬塗,121.64949798584,24.9985809326172,石碇區
927,興善宮,關聖帝君,,,新北市,長青里長青路1號,道教,02-26451237,王朝卿,121.609397888184,25.1066608428955,汐止區
928,汐止伍聖宮,五府千歲,,,新北市,鄉長里鄉長路二段26巷25號之1,道教,02-26415295,王振明,121.668701171875,25.085090637207,汐止區
929,宏法禪寺,釋迦牟尼佛,,,新北市,鄉雲里四川路一段232巷1號,佛教,02-29615214,陳紗,121.458999633789,25.001880645752,板橋區
930,金山寺,普庵祖師,,,臺北市,中南里中南街168巷1號,佛教,02-27830342,卓麗珠,121.615196228027,25.0518493652344,南港區
931,基深宮,天上聖母,,,基隆市,深澳坑路170之1號,道教,02-24651433,江金生,121.784797668457,25.126989364624,信義區
932,閩南檺林宮,三府王爺,,,基隆市,公園街311號,道教,02-24231349,駱振林,121.738212585449,25.129602432251,仁愛區
933,中正慈惠堂,瑤池金母,,,基隆市,中船路36巷12弄61之2號,道教,02-24279888,鄭世寅,121.751899719238,25.1340293884277,中正區
934,基隆市哨船頭福德宮,福德正神,,,基隆市,正義路100巷37號,道教,02-24691417,范永金,121.749099731445,25.1354904174805,中正區
935,菩提山大空精舍,釋迦牟尼佛,,,新北市,烏塗里9鄰中楒仔腳2之11號,佛教,02-26633781,陳復華,121.637817382813,24.9731330871582,石碇區
936,佛心山惠光寺,釋迦牟尼佛,,,新北市,新興坑32號,佛教,02-26631478,陳順隆,121.648597717285,25.0214691162109,石碇區
937,大行山聖泉寺,釋迦牟尼佛,,,新北市,碩仁里魚寮路206之1號,佛教,02-24974119,葉綺瑩,121.829475402832,25.060510635376,瑞芳區
938,太子廟,三太子,,,新北市,崁頂80之3號,道教,02-28050798,高連旺,121.429397583008,25.2057800292969,淡水區
939,天罡佛堂,明明上帝,,,桃園市,建安里23鄰東勢155之1號,一貫道,03-4602407,林明海,121.226013183594,24.9182205200195,平鎮區
940,海會庵,阿彌陀佛,,,新竹縣,七星村13鄰6寮54號,佛教,03-5800866,陳淑惠,121.013603210449,24.6434307098389,峨眉鄉
941,梵音寺,釋迦牟尼佛,,,基隆市,延平街79號,佛教,02-24222682,羅鳳菊,121.748611450195,25.124568939209,仁愛區
942,洞水宮,諸府千歲,,,新北市,長安里文化北路87巷8號,道教,02-29735856,李宗烈,121.498497009277,25.0674591064453,三重區
943,東陵武聖廟,關聖帝君,,,基隆市,豐稔街65巷10號,道教,02-24621501,謝進忠,121.761596679688,25.1398906707764,中正區
944,覺修宮,釋迦牟尼佛,,,基隆市,義二路224巷1號,佛教,02-24222011,林宗仁,121.748596191406,25.135290145874,中正區
945,基隆開基老大公廟,老大公,,,基隆市,嘉仁里樂一路76巷37號,道教,02-24273596,陳丁寶,121.733497619629,25.1317501068115,安樂區
946,普陀山通明寺,釋迦牟尼佛,,,基隆市,安和一街288巷103之6號,佛教,02-24315613,黃麗雪,121.725898742676,25.1289901733398,安樂區
947,龍岡鴻福宮,福德正神,,,桃園市,龍岡路3段582號,道教,03-4502709,江宗邦,121.24080657959,24.9291000366211,中壢區
948,三清宮,太上老君,,,新北市,廣興里廣興路27巷29號,道教,02-26666760,黃巽英,121.539398193359,24.9110794067383,新店區
949,六通寺,釋迦牟尼佛,,,桃園市,大坡里5鄰三角崛62-1號,佛教,03-4769197,釋性定,121.040313720703,24.9609222412109,新屋區
950,雙和宮,蘇府王爺,,,新北市,雙興里太和7之2號,道教,02-24929098,盧碧雲,121.658798217773,25.1740093231201,萬里區
951,興建宮,劉府王爺,,,新北市,永吉里4鄰清水街159號,道教,02-26212994,林松,121.440132141113,25.1719837188721,淡水區
952,法燈蘭若,釋迦牟尼佛,,,新北市,忠山里水汴頭51號,佛教,02-26234134,程丹,121.470596313477,25.2021503448486,淡水區
953,埔頂慈雲庵,清水祖師,,,新竹市,埔頂里3鄰埔頂路193號,道教,03-5678033,張淇淋彡,121.010101318359,24.7944107055664,東區
954,新竹忠義府,黃府王爺,,,新竹市,柴橋里柴橋路255巷32號,道教,03-5204626,林榮治,120.961891174316,24.7605819702148,東區
955,福德宮,福德正神,,,基隆市,東勢街101之3號,道教,02-24587587,白建富,121.750991821289,25.0818901062012,暖暖區
956,信義天后宮,天上聖母,,,臺北市,泰和里吳興街600巷臨68號,道教,02-27239809,鄭新旺,121.56600189209,25.0263500213623,信義區
957,福安宮,福德正神,,,新北市,福安街53之1號,道教,02-26412995,蘇樹木,121.663696289063,25.0641193389893,汐止區
958,慈光寺,釋迦牟尼佛,,,臺北市,萬芳里萬芳路26巷5號,佛教,02-22302306,黃聖峰,121.569145202637,24.9953327178955,文山區
959,板橋慈惠宮,天上聖母,,,新北市,府中路81號,道教,02-29650012,許三郎,121.457298278809,25.0094604492188,板橋區
960,統天宮,關聖帝君,,,桃園市,鎮撫街24巷9號,道教,03-3344875,邱垂成,121.31379699707,24.9974708557129,桃園區
961,天南宮,中壇元帥,,,新北市,阿柔里大崙尾1號,道教,02-26640119,鄒金福,121.614799499512,24.974910736084,深坑區
962,龍巖宮,清水祖師,,,新北市,明燈路三段152號,佛教,02-24872807,李葉玉英,121.803802490234,25.10910987854,瑞芳區
963,台灣天師宮,正一天師,,,新北市,沙崙里中正路二段305巷33號,道教,02-28051876,黃永水,121.425796508789,25.1899890899658,淡水區
964,北投龍雲寺,阿彌陀佛,,,臺北市,林泉里幽雅路杏林巷3-6號,佛教,02-28965024,郭永進,121.517997741699,25.1378402709961,北投區
965,慈聖佛堂,彌勒佛,,,新北市,長青里八連路三段196號之1,一貫道,02-26452203,陳少宏,121.616302490234,25.1193904876709,汐止區
966,寶德山大鴻慈惠堂,瑤池金母,,,新北市,烏塗里9鄰1中楒仔腳之1號,道教,02-26633133,王啟次,121.645347595215,24.9713611602783,石碇區
967,埔墘福德宮,福德正神,,,新北市,九如里中山路二段250巷1號,道教,02-29645591,廖榮清,121.478797912598,25.0177707672119,板橋區
968,福德祠,福德正神,,,新北市,恆安里11鄰中港路108號,道教,02-29924684,陳科名,121.45539855957,25.0397396087646,新莊區
969,三山國王廟,三山國王,,,新北市,文德里新莊路150號,道教,02-89915474,黃金泉,121.455200195313,25.0355396270752,新莊區
970,後山坡福德爺廟,福德正神,,,臺北市,成福里東新街170巷臨1號,道教,02-0921061908,林育蘭,121.592697143555,25.045919418335,南港區
971,東興宮,三府王爺,,,新北市,福隆里東興街3號,道教,02-24991123,吳憲彰,121.950401306152,25.0206298828125,貢寮區
972,上員山福德宮,福德正神,,,新竹縣,上員山53之5號,道教,03-5822495,萬鴻發,121.079200744629,24.7503700256348,竹東鎮
973,南山福德宮,福德正神,,,新北市,內南里興南路二段399巷160號之1,道教,02-29425277,呂芳煙,121.498901367188,24.978759765625,中和區
974,聖龍宮,東華帝君,,,新北市,竹崙里三層坪路49號,道教,02-26726179,謝清春,121.445999145508,24.903600692749,三峽區
975,慧悾慈惠堂,瑤池金母,,,新北市,中埔里鳶峰路150號,道教,02-26710289,陳俊明,121.362701416016,24.9323806762695,三峽區
976,台北市圓玄學社,釋迦牟尼佛,,,臺北市,中央里長春路163巷18號,佛教,02-25027096,王進宏,121.526298522949,25.0559101104736,中山區
977,圓通巖,普庵祖師,,,臺北市,劍潭里中山北路4段1巷1弄3號,佛教,02-28855726,劉玉,121.528800964355,25.0815296173096,中山區
978,玉玄宮,玄天上帝,,,桃園市,田心里民權東路31巷9弄16號,道教,03-3872348,陳寶印,121.290237426758,24.883617401123,大溪區
979,八里會堂宮,保生大帝,,,新北市,訊塘里4鄰訊塘埔25號旁,道教,02-,張立時,121.396522521973,25.1482715606689,八里區
980,萬里玄武宮,玄天上帝,,,新北市,雙興里大坪8號,道教,02-24929127,吳朝象,121.63680267334,25.1682395935059,萬里區
981,利洋宮,普庵祖師,,,新北市,福興街25號,佛教,02-24991226,吳阿朝,121.991302490234,25.011890411377,貢寮區
982,竹東鎮中山福德宮,福德正神,,,新竹縣,新生路212之1號,道教,03-5964166,賴運土,121.09593963623,24.7319583892822,竹東鎮
983,玄峯慈惠堂,瑤池金母,,,新北市,崇德里仁愛街77號,道教,02-29736394,黃傳,121.496101379395,25.0730304718018,三重區
984,土城保安宮,廣澤尊王,,,新北市,永寧里永寧路29號,道教,02-22672678,江清光,121.43049621582,24.9637794494629,土城區
985,南大宮,福德正神,,,新竹市,光鎮里19鄰南大路748巷13號,道教,03-5269469,林清良,120.964164733887,24.7890586853027,東區
986,智觀寺,釋迦牟尼佛,,,新竹市,明湖路309巷65號,佛教,03-5228523,蘇滿,120.969306945801,24.7857818603516,東區
987,亮天宮,天上聖母,,,新北市,九如里三民路二段70巷17之3號,道教,02-29628915,許杜花,121.47859954834,25.0172100067139,板橋區
988,浮洲福德宮,福德正神,,,新北市,大觀路2段163號之1號,道教,02-22756166,郭進源,121.44539642334,25.0005207061768,板橋區
989,基隆代天府,五府千歲,,,基隆市,崇德路212之91號,道教,02-24262854,莊清基,121.72989654541,25.1260795593262,安樂區
990,台北慈惠堂,瑤池金母,,,臺北市,立農里吉利街27號,道教,02-28218524,潘義雄,121.504997253418,25.118200302124,北投區
991,香山天后宮,天上聖母,,,新竹市,朝山里8鄰中華路五段420巷191號,道教,03-5374327,鄭成光,120.914482116699,24.7692451477051,香山區
992,南清宮,田都元帥,,,新北市,忠孝街34巷10號,道教,02-29292337,林文敦,121.514709472656,25.0163345336914,永和區
993,三重代天府,五府千歲,,,新北市,忠孝路一段21巷4號,道教,02-29883749,李國龍,121.491897583008,25.0720806121826,三重區
994,聖德宮,三官大帝,,,新北市,清化里2鄰青雲路424號,道教,02-22612465,楊幸雄,121.458824157715,24.9722785949707,土城區
995,福安宮,福德正神,,,新北市,溪頭路30巷23之1號,道教,02-22683289,李和順,121.412399291992,24.9558963775635,土城區
996,靈興宮,五府千歲,,,新竹市,朝山里6鄰中華路五段420巷227號,道教,03-5374552,林明光,120.913940429688,24.7682914733887,香山區
997,集善宮,孚佑帝君,,,新北市,光華里光華路46巷21弄1號,道教,02-22889489,林朝林,121.468299865723,25.0835990905762,蘆洲區
998,福隆巖,清水祖師,,,桃園市,新莊村大新路498號,道教,03-3233748,王金榮,121.247398376465,25.0240707397461,蘆竹區
999,慈悲寺,普庵祖師,,,新北市,丹鳳里壽山路162號,佛教,02-29034180,盧秋助,121.415603637695,25.0308494567871,新莊區
1000,楞嚴寺,準提菩薩,,,基隆市,信二路6巷55號,佛教,02-24234683,釋傳璽,121.758529663086,25.1298751831055,信義區
1001,基隆市佛教蓮社,釋迦牟尼佛,觀世音菩薩,地藏王菩薩,基隆市,東信路180巷63號,佛教,02-24656106,黃瓊萱,121.763496398926,25.1300945281982,信義區
1002,福隆宮,開漳聖王,,,桃園市,埔心村4鄰1號,道教,03-3812890,王榮華,121.226371765137,25.0531063079834,大園區
1003,萬聖宮,天上聖母,,,新北市,萬壽里海興路132號邊,道教,02-24982647,朱陳旺,121.632400512695,25.2393093109131,金山區
1004,震威宮,五雷元帥,,,新北市,南雅西路二段301巷50弄27號之1,道教,02-29661534,廖偉尊,121.452499389648,25.016939163208,板橋區
1005,新福宮,福德正神,,,臺北市,東新里南港路2段238巷2號,道教,02-27850722,闕壯財,121.606002807617,25.0543594360352,南港區
1006,南青宮,朱府王爺,,,新北市,青潭里1鄰北宜路1段286號,道教,02-22171341,黃銘凱,121.546600341797,24.9525299072266,新店區
1007,淡水鎮海天宮,孚佑帝君,,,新北市,興仁里下田寮3號,道教,02-26210592,張含少,121.446746826172,25.2164058685303,淡水區
1008,千光寺,釋迦牟尼佛,,,新北市,水源里楓樹湖15號,佛教,02-26217480,陳瑩容,121.499603271484,25.1865692138672,淡水區
1009,三坪祖師宮,三坪祖師,,,新北市,復興街3號旁,道教,-0,戴金輝,121.927597045898,25.0265598297119,貢寮區
1010,桃園北天宮,玄天上帝,,,桃園市,振興路765號,道教,03-3505729,楊東村,121.361999511719,25.0194492340088,龜山區
1011,南新宮,三府王爺,,,新北市,南雅里南雅路41號旁,道教,02-24911320,王國安,121.88809967041,25.120979309082,瑞芳區
1012,湖口三元宮,三官大帝,,,新竹縣,湖鏡村湖口老街278號,道教,03-5692667,羅美搖,121.058494567871,24.8770313262939,湖口鄉
1013,道弘聖堂,明明上帝,,,桃園市,豐富里富裕街675巷16號,一貫道,03-4721410,鄒典璋,121.075103759766,24.9386806488037,楊梅區
1014,三元宮(巨埔里),三官大帝,,,新竹縣,巨埔里10鄰新龍路360號,道教,03-0910292140,彭享煤,121.111099243164,24.8409481048584,新埔鎮
1015,拱南宮,孚佑帝君,,,新北市,福隆里桂安街1之1號,道教,02-24991959,楊文源,121.971397399902,25.0168800354004,貢寮區
1016,全真道院,明明上帝,,,桃園市,龍壽里6鄰萬壽路789號,一貫道,03-3293269,陳新興,121.391296386719,25.013879776001,龜山區
1017,中一堂,明明上帝,,,桃園市,兔坑村大棟山路101號,一貫道,03-3291479,廖永康,121.370765686035,24.9908103942871,龜山區
1018,獅球嶺平安宮,福德正神,,,基隆市,獅球路48巷175之3號,道教,-24317721,陳金麟,121.733642578125,25.1233367919922,仁愛區
1019,桃園市大園區田心里新興路福德宮,福德正神,,,桃園市,田心里9鄰新興路81號,道教,03-3861662,陳阿寶,121.194915771484,25.0628795623779,大園區
1020,福德宮,福德正神,,,新北市,傑魚里7鄰傑魚坑路262之1號,道教,02-24978595,王吳定,121.789291381836,25.1094722747803,瑞芳區
1021,普門會館,釋迦牟尼佛,,,新竹縣,湖口村4鄰學府街78號,佛教,03-5691101,釋敬聖,121.060607910156,24.8773651123047,湖口鄉
1022,新店區永吉宮,五府千歲,,,新北市,安平路22號,道教,02-22112139,周師村,121.524101257324,24.9671401977539,新店區
1023,青山宮,靈安尊王,,,新竹市,下竹里7鄰東南街49號,道教,03-5238157,沈全水,120.972732543945,24.7998104095459,東區
1024,元亨宮,池府王爺,,,新竹市,南門里14鄰中南街7號,道教,03-5260141,邱楊寶釵(己故),120.967681884766,24.8014335632324,東區
1025,新莊信安宮,盧王千歲,,,新北市,思賢里博愛路2巷1號,道教,02-29938011,李山明,121.456901550293,25.0428695678711,新莊區
1026,儀天宮,瑤池金母,,,新北市,瓊林南路81號之5,道教,09-68555060,王美鳳,121.435203552246,25.0121307373047,新莊區
1027,環安府,三府王爺,,,新北市,富山街82號(暫厝),道教,02-89653026,丁輝煌,121.476699829102,25.0219497680664,板橋區
1028,金鳳宮,天上聖母,,,基隆市,東光路275號之3,道教,02-24658195,江武夫(暫代),121.770088195801,25.135591506958,信義區
1029,尖山湖妙音禪寺,釋迦牟尼佛,,,新北市,石嘈里尖山湖6之1號,道教,02-26657364,陳玉華,121.763519287109,24.9020843505859,坪林區
1030,慶雲宮,玉皇大帝,,,新北市,牡丹里19鄰下坑35號,道教,02-24932843,連德彬,121.849998474121,25.0568103790283,雙溪區
1031,龍華堂,普庵祖師,,,基隆市,龍安街400巷50號,佛教,02-24228824,林正宏,121.740142822266,25.1182594299316,仁愛區
1032,壽玉宮,瑤池金母,,,基隆市,中正路230之6號,道教,02-2462379,許金振,121.758316040039,25.1397018432617,中正區
1033,正安宮,天上聖母,,,基隆市,北寧路154巷6之1號,道教,02-24622720,江清,121.77970123291,25.1493892669678,中正區
1034,普渡寺,阿彌陀佛,觀世音菩薩,大勢至菩薩,新北市,西湖村2鄰尖山子18之1,佛教,02-29280667,童文信,121.621002197266,25.2499599456787,金山區
1035,俊賢宮,福德正神,,,新北市,中港里中港路483巷8號,道教,02-29978007,陳俊秀,121.451698303223,25.0498294830322,新莊區
1036,三湖宮,三官大帝,,,新北市,東湖里三界公坑3號,道教,02-26705210,歐金獅,121.352897644043,24.970609664917,鶯歌區
1037,財團法人新北市樹林濟安宮,保生大帝,,,新北市,保安里保安街1段32號,道教,02-26812624,陳黃綠妹,121.427101135254,24.9935493469238,樹林區
1038,龍興廟,三府王爺,,,新北市,龍洞街50之1號,道教,02-24909156,李天生,121.912101745605,25.1133308410645,貢寮區
1039,清泉寺,釋迦牟尼佛,,,新竹市,高峰路250號,佛教,03-5223952,釋專慈,120.978996276855,24.783130645752,東區
1040,乾元宮,三官大帝,,,新竹縣,石光里6鄰308巷14號,道教,03-5868491,劉士賢,121.130897521973,24.8139495849609,關西鎮
1041,龍泉宮,孚佑帝君,,,基隆市,南榮路425巷53號,道教,02-24233426,簡萬枝,121.744697570801,25.116720199585,仁愛區
1042,福清宮,福德正神,,,基隆市,八斗街1號,道教,02-24691212,沈秋金,121.7958984375,25.1399993896484,中正區
1043,嚴淨寺,釋迦牟尼佛,,,新北市,三界里半嶺3之1號,佛教,02-24980484,吳月霞,121.61669921875,25.233039855957,金山區
1044,福仁宮,三府王爺,,,新北市,五湖里龜子山路50號,道教,02-24986476,李建才,121.627944946289,25.2204875946045,金山區
1045,鶴鳴精舍,普庵祖師,,,臺北市,平等里平菁街42巷9號,佛教,02-25588066,釋長妙（黃玉枝）,121.571998596191,25.131139755249,士林區
1046,代明宮,太陽星君,太陰皇君,,基隆市,忠三路34號2樓,佛教,02-24222925,張英德,121.739402770996,25.129280090332,仁愛區
1047,北海宮,保生大帝,,,新北市,德茂里下員坑36之1號後面,道教,02-26362990,花連興,121.519996643066,25.2835006713867,石門區
1048,板橋鎮安宮,中壇元帥,,,新北市,長壽里三民路二段109巷臨45號,道教,02-29547613,林水盛,121.481300354004,25.0160694122314,板橋區
1049,樹西福德宮,福德正神,,,新北市,樹德里17鄰啟智街34之1號,道教,02-26817015,邱垂章,121.420997619629,24.993200302124,樹林區
1050,財團法人桃園鎮撫宮,廣澤尊王,,,桃園市,青溪里鎮撫街43號,道教,03-3353719,許振澐,121.314643859863,24.9982719421387,桃園區
1051,財團法人臺北市真武殿,玄天上帝,,,臺北市,"菜園里西昌街38,40號",道教,02-23817290,李光魁,121.500495910645,25.0370082855225,萬華區
1052,海口福元宮,三府王爺,,,桃園市,海口里11鄰漁港路6號,道教,03-3837688,陳清萬,121.242256164551,25.108470916748,大園區
1053,福德堂,福德正神,,,新北市,五湖里南勢26號,道教,02-24981528,游阿墻,121.628700256348,25.2177600860596,金山區
1054,永明寺,釋迦牟尼佛,,,臺北市,永福里仰德大道2段100巷20號,佛教,02-28616651,黃謝鶴,121.541000366211,25.1047992706299,士林區
1055,協德廟,福德正神,,,基隆市,協和街151號左邊,道教,02-24260836,童再興,121.733901977539,25.157600402832,中山區
1056,基隆后天宮,天上聖母,,,基隆市,西定路104巷26號,道教,02-24237066,游廷基,121.736175537109,25.1339645385742,中山區
1057,醒天宮,普庵祖師,,,基隆市,嘉仁里崇德路168巷28號,道教,02-24262080,張修萌,121.730903625488,25.1308002471924,安樂區
1058,天和堂,明明上帝,,,桃園市,月眉五路120號,一貫道,03-4081959,張隆吉,121.182037353516,25.0183353424072,中壢區
1059,福龍宮,福德正神,,,新北市,復興里水源路一段71號,道教,02-26426964,周建明,121.657203674316,25.0647506713867,汐止區
1060,宋天宮,楊府聖王,,,桃園市,桃鶯路87巷52號,道教,03-3629133,楊春風,121.319549560547,24.9874172210693,桃園區
1061,台北朝天宮,天上聖母,,,臺北市,和平里雙園街27號,道教,02-23061510,陳綠旺,121.494697570801,25.0294990539551,萬華區
1062,福佑宮,福德正神,,,新北市,中正路192巷口,道教,02-22837158,陳光銘,121.468200683594,25.088399887085,蘆洲區
1063,新北市八里安福宮,李府王爺,,,新北市,埤頭里中山路1段123號,道教,02-26102084,陳宗棋,121.413597106934,25.1593704223633,八里區
1064,太璞宮,孚佑帝君,,,新北市,永發里中正北路317巷1號,佛教,02-29719675,曾永發,121.473999023438,25.0715293884277,三重區
1065,三重信安宮,姜太公,,,新北市,信安里重陽路4段126巷1-1號,道教,02-29866011,陳育明,121.492301940918,25.0711994171143,三重區
1066,北辰宮,天上聖母,,,新北市,延壽里延壽路109巷1號,道教,02-82611369,何文隆,121.468696594238,24.9933490753174,土城區
1067,觀音禪院,普庵祖師,,,臺北市,民炤里新生南路1段137巷 6號,佛教,02-27015918,陳志明,121.533767700195,25.034143447876,大安區
1068,協安宮,福德正神,,,基隆市,南新街51巷73之5號,道教,02-24283426,陳龍雄暫代,121.749183654785,25.1212062835693,仁愛區
1069,嚴放寺,普庵祖師,,,基隆市,龍安街198巷4弄17之1號,佛教,02-24262193,黃瓊萱,121.740737915039,25.12428855896,仁愛區
1070,鎮安宮,中壇元帥,,,新北市,信義西街1巷9號旁,道教,02-29857672,柯玟伶,121.498001098633,25.0650691986084,三重區
1071,夫子廟,關聖帝君,,,基隆市,中船路78巷13號,道教,02-24226814,阮國輝,121.751602172852,25.1369495391846,中正區
1072,金教岩,法主聖君,,,新竹市,大湖里1鄰五福路一段602巷51號,道教,03-5374720,曾靜雄,120.938331604004,24.7456340789795,香山區
1073,慈慧慈惠堂,瑤池金母,,,桃園市,大坑村6鄰12號,道教,03-3521614,廖裕祥,121.313934326172,25.04811668396,龜山區
1074,一炁天旨玉皇宮,玉皇大帝,,,新北市,昇高坑路42巷25號,道教,02-26623850,劉家胤,121.626800537109,24.9987907409668,深坑區
1075,太乙道堂,太乙真人,,,新北市,翠峰路60巷11號,道教,02-22171822,陳柏里,121.582733154297,24.9391975402832,新店區
1076,大佛寺,普庵祖師,,,新北市,太平里2鄰碧潭路33號,佛教,02-22121695,陳寶森,121.533996582031,24.9552803039551,新店區
1077,光華寺,普庵祖師,,,臺北市,螢雪里水源路157號,佛教,02-23032373,朱文印,121.515525817871,25.0239200592041,中正區
1078,天恩宮,彌勒佛,,,臺北市,指南里指南路3段38巷37之2號,一貫道,02-29382888,張傳良,121.59220123291,24.9703807830811,文山區
1079,曹洞宗台北別院,釋迦牟尼佛,文殊師利菩薩,普賢菩薩,新北市,山溪里老崩山33之1號,佛教,02-26380276,釋修慧,121.558097839355,25.277660369873,石門區
1080,丹桂宮,三官大帝,,,新竹縣,峨眉村8鄰峨眉街2號,道教,03-5800984,蔡雲錦,121.021537780762,24.6890144348145,峨眉鄉
1081,大眾廟,大眾爺,,,新竹市,頂竹里4鄰竹蓮街32號,道教,03-5230904,吳修道,120.971664428711,24.797534942627,東區
1082,皇德宮,濟公活佛,,,新竹縣,東平里18鄰新龍路1152號,道教,03-5890679,趙蒼伯,121.153099060059,24.842960357666,關西鎮
1083,蘆洲南天宮,五府千歲,,,新北市,光華路282號,道教,02-22816133,李重夫,121.464340209961,25.0819320678711,蘆洲區
1084,埔心區福德宮,福德正神,,,桃園市,埔心里福德街4號,道教,03-4821238,張仁森,121.185737609863,24.9191703796387,楊梅區
1085,福德山宮,福德正神,,,新北市,日興里7鄰安康路三段578之1號,道教,02-22141626,廖清瀨,121.478988647461,24.9503002166748,新店區
1086,興珍宮,福德正神,,,新北市,福興里五工三路50巷23之1號,道教,-0932245945,葉宗鑫,121.46070098877,25.0651206970215,新莊區
1087,福安宮,福德正神,,,新北市,二橋里中正三路450號前,道教,02-86772645,李金量,121.322998046875,24.9346294403076,鶯歌區
1088,財團法人台灣省桃園縣桃園鴻福寺,阿彌陀佛,觀世音菩薩,大勢至菩薩,桃園市,民生路231號,佛教,03-3321822,林國樑,121.312232971191,24.9959526062012,桃園區
1089,財團法人臺北市廣照宮,飛天大聖,,,臺北市,壽德里長泰街54號,道教,02-23076569,陳錦璋,121.500396728516,25.0235595703125,萬華區
1090,范姜觀音寺,普庵祖師,,,桃園市,新生里6鄰中正路110巷1號,佛教,03-4971396,范姜嵩生,121.104606628418,24.9739627838135,新屋區
1091,東隆宮,溫府千歲,,,臺北市,孝德里環河南路3段163號,道教,02-23079372,丁傳經,121.491767883301,25.0226898193359,萬華區
1092,福山祠,福德正神,,,桃園市,中山北路65號,道教,03-3334266,陳穫盛,121.303131103516,24.9938087463379,桃園區
1093,妙覺精舍,普庵祖師,,,臺北市,和平里雙園街21巷50號,佛教,02-23089005,林琪珠(釋守定)(代),121.495002746582,25.030740737915,萬華區
1094,松山順安宮,薛千歲,,,臺北市,敦厚里松隆路臨45號,道教,02-27618276,林忠信(代),121.568496704102,25.0445003509521,信義區
1095,中坡福壽宮,福德正神,,,臺北市,中坡里福德街221巷14號,道教,02-27271524,李治雄,121.586898803711,25.0398597717285,信義區
1096,福興宮,福德正神,,,新北市,湳興里南雅西路一段174巷1弄15號,道教,02-29699489,胡崇浩,121.453285217285,25.0079612731934,板橋區
1097,興雅福德宮,福德正神,,,臺北市,永吉路30巷30號,道教,02-27466032,林水勝,121.57991027832,25.0461273193359,信義區
1098,林口頂福巖,顯應祖師,,,新北市,頂福里頂福20之16號,道教,02-26033366,吳錦堂,121.357398986816,25.0920906066895,林口區
1099,妙法寺,普庵祖師,,,新北市,張南里環河路19巷17號,佛教,02-29111960,黃承玉,121.537696838379,24.9600696563721,新店區
1100,聖靈宮,玄天上帝,,,新北市,清水街224號,道教,-,林鴻圖,121.440277099609,25.1715145111084,淡水區
1101,慈雲寺,普庵祖師,,,臺北市,福星里漢口街2段119、121、123號,佛教,02-23515254,張雙雙,121.503898620605,25.046459197998,萬華區
1102,正德寺,普庵祖師,,,新竹市,新莊里新莊街336號,佛教,03-5772467,謝文烽,121.018844604492,24.789888381958,東區
1103,文華福德宮,福德正神,,,新竹市,文華里8鄰光華街42之8號,道教,03-5317281,魏炳煌,120.973052978516,24.8151683807373,東區
1104,財團法人劍潭古寺,普庵祖師,,,臺北市,北安里北安路805巷6號,佛教,02-25323834,張安平,121.548118591309,25.0821228027344,中山區
1105,財團法人桃園市大溪區仁和宮,開漳聖王,,,桃園市,仁愛里5鄰埔頂街19號,道教,03-3802836,藍勝民,121.275901794434,24.9019107818604,大溪區
1106,財團法人台北市南海普陀山慧濟寺,普庵祖師,,,臺北市,中山北路7段190巷34之1號,佛教,02-28715131,邱月華,121.536201477051,25.126350402832,士林區
1107,財團法人台灣省桃園縣中壢玉尊宮,玉皇大帝,,,桃園市,永福里7鄰西園路97號,道教,03-4528380,賴阿完,121.234901428223,24.9813194274902,中壢區
1108,大鄉萬善祠,有應公,,,新竹縣,中豐路三段56號,道教,03-5956592,馮正煒,121.085121154785,24.7270793914795,竹東鎮
1109,桃園明倫三聖宮,關聖帝君,,,桃園市,三聖路639號,道教,03-3345679,簡朝吉,121.331855773926,25.0009860992432,龜山區
1110,新竹市保安宮,保生大帝,,,新竹市,東大路三段439巷27-9號,道教,03-5363585,謝龍壽,120.970138549805,24.8102054595947,東區
1111,昊天宮,玉皇大帝,,,桃園市,光華里文化街295巷45號,道教,03-4820011,陳連松,121.184700012207,24.9155197143555,楊梅區
1112,樹福宮,福德正神,,,新北市,水源街75號,道教,02-26811485,張土生,121.425498962402,24.9823608398438,樹林區
1113,蘆洲真久宮,保生大帝,,,新北市,仁愛里三民路98巷21號,道教,02-22822718,白美玉,121.472801208496,25.0874900817871,蘆洲區
1114,新安宮,三官大帝,,,基隆市,安一路34巷51號,道教,02-24253798,劉林宗,121.736000061035,25.1320209503174,中山區
1115,台北市天竺寺,釋迦牟尼佛,,,臺北市,林泉里幽雅路杏林巷3-7號,佛教,02-28978716,鄒春桂,121.518096923828,25.1376800537109,北投區
1116,佛樺靜舍,普庵祖師,,,臺北市,湖山里湖底路20-7號,佛教,02-28613287,李海南(代),121.537902832031,25.1477909088135,北投區
1117,聖覺寺,釋迦牟尼佛,,,新北市,汐萬路三段285號,佛教,02-26467171,林啟雄,121.631698608398,25.1132392883301,汐止區
1118,玉勒紫明代天府建凌宮五大巡總廟,五府千歲,,,新北市,北山里16鄰明峰街288號,道教,02-26952731,朱紫明,121.625602722168,25.068489074707,汐止區
1119,福興宮,開漳聖王,,,桃園市,澤仁村中正路130號,道教,03-3822797,莊書維,121.351600646973,24.8176403045654,復興區
1120,萬佛庵,普庵祖師,,,新竹縣,七星村14鄰6寮59號,佛教,03-5800065,方素珠,121.022903442383,24.6519908905029,峨眉鄉
1121,峨眉書院,濟公活佛,,,新竹縣,湖光村13鄰12寮18號之4,道教,037-602888,蔡韶悅,120.978996276855,24.6810607910156,峨眉鄉
1122,西靈巖,普庵祖師,,,新北市,和美里和美街49號,佛教,02-24902329,陳黃連合,121.921203613281,25.1051006317139,貢寮區
1123,軟橋福德祠,福德正神,,,新竹縣,軟橋里2鄰50之1號,道教,03-5969289,彭伸賢,121.09741973877,24.695463180542,竹東鎮
1124,五穀宮,神農大帝,,,新竹縣,二重里中興路三段73巷30號,道教,03-5826243,呂森枝,121.056663513184,24.7656803131104,竹東鎮
1125,修心宮,普庵祖師,,,新竹縣,新鳳村10鄰燥坑21之2號,道教,03-5924891,黃國相,121.100700378418,24.7662773132324,芎林鄉
1126,黃帝大廟,軒轅黃帝,蓮花菩薩,,桃園市,黃帝街259巷9號,道教,03-3247258,溫春蓮,121.2958984375,25.0909805297852,蘆竹區
1127,指源宮,楊府真人,,,新竹市,水源里14鄰溪州路59巷22號,道教,03-5720196,溫漢柱,120.996070861816,24.8085269927979,東區
1128,新莊武聖廟,關聖帝君,,,新北市,文衡里新莊路340號,道教,02-29923785,林俊德,121.450202941895,25.0337009429932,新莊區
1129,蓮雲禪苑,釋迦牟尼佛,,,臺北市,三愛里連雲街74巷5號,佛教,02-23515258,陳水蓮,121.532241821289,25.037540435791,中正區
1130,乾華十八王公廟,十八王公,,,新北市,茂林里坪林52號,道教,02-26382453,練清陽,121.594497680664,25.2702598571777,石門區
1131,野柳福德宮,福德正神,,,新北市,野柳里港西98號後方,道教,02-24922536,李政順,121.685813903809,25.2057971954346,萬里區
1132,松山水福宮,水德星君,,,臺北市,慈祐里松河街3號,道教,02-27628030,黃順益,121.571899414063,25.0508098602295,松山區
1133,福東宮,福德正神,,,基隆市,八堵路1巷40之1號,道教,02-24572176,陳有用,121.736701965332,25.1102409362793,暖暖區
1134,艋舺青山宮,靈安尊王,,,臺北市,青山里貴陽街2段218號,道教,02-23822296,黃清源,121.49951171875,25.0399971008301,萬華區
1135,碧雲寺,釋迦牟尼佛,,,新竹市,寶山路408號,佛教,03-5243583,釋性明,120.989837646484,24.7849102020264,東區
1136,淨土寺,釋迦牟尼佛,,,新竹市,頂竹里3鄰竹蓮街26巷7號,佛教,03-5615531,謝月寶,120.971939086914,24.797830581665,東區
1137,九蓮寺,九天玄女,,,臺北市,臨溪里劍南路203巷6號,道教,02-28411089,謝章鈞,121.559700012207,25.1032199859619,士林區
1138,慈悟寺,釋迦牟尼佛,,,臺北市,天母里中山北路7段219巷167號,佛教,02-28732819,許梅春,121.532501220703,25.1336498260498,士林區
1139,王福宮,二府王爺,,,基隆市,湖海路二段192號,道教,02-24314514,張福長,121.706809997559,25.1670894622803,安樂區
1140,明山宮,五年千歲,,,臺北市,永和里行義路臨115號,道教,02-28728028,簡明崑,121.528999328613,25.1280193328857,北投區
1141,桃源福德宮,福德正神,,,臺北市,桃源里中央北路三段62號,道教,02-28918371,簡芳明,121.485198974609,25.1382999420166,北投區
1142,財團法人新北市北極宮,玄天上帝,,,新北市,溪崑二街73巷1號,道教,02-26815752,王清水,121.428100585938,24.9903106689453,板橋區
1143,財團法人台灣省台北縣中華道教普天宮,水德星君,,,新北市,溪北里1鄰介壽路3段172巷36號,道教,02-26711746,方建成,121.404602050781,24.9420890808105,三峽區
1144,財團法人台北市醒心宮,孚佑帝君,,,臺北市,迪化街１段南芳里307巷9號,道教,02-25593512,游淑禎,121.509201049805,25.0595703125,大同區
1145,龍鳳巖,顯應祖師,,,新北市,民義路1段107巷23號,道教,02-22913964,蔣根煌,121.431999206543,25.0844993591309,五股區
1146,三重興德祠,福德正神,,,新北市,中興里5鄰中興北街臨40之2號,道教,02-29953276,陳棟隆,121.469497680664,25.0490207672119,三重區
1147,福景宮,福德正神,,,臺北市,通化里光復南路698號,道教,02-27014369、23252301,陳秋南,121.557235717773,25.0296878814697,大安區
1148,福定宮,福德正神,,,基隆市,定國里定街11巷18號,道教,02-24238180,李振銘(暫代),121.733421325684,25.1335468292236,安樂區
1149,順天理護國宮,玉皇大帝,,,桃園市,五權里五興路259號,道教,03-4941851,袁余素娥,121.194618225098,24.9630947113037,中壢區
1150,北投區廣福宮,福德正神,,,臺北市,中庸里大同街臨329之3號,道教,02-28971028,高強,121.499298095703,25.1405696868896,北投區
1151,南天宮,孚佑帝君,,,新北市,瑞松街18巷9號,道教,02-26419886,陳清松,121.64510345459,25.104679107666,汐止區
1152,東華聖宮,東華帝君,,,新北市,華城路98之1號,道教,02-22121014,林純美,121.517601013184,24.9415798187256,新店區
1153,新店玫瑰社區福德宮,福德正神,,,新北市,玫瑰路35號,道教,02-22155900,張耿獻,121.495697021484,24.9503993988037,新店區
1154,後港昭德宮,天上聖母,,,新北市,南港里後港二路18號,道教,02-22022193,李華順,121.422401428223,25.023609161377,新莊區
1155,靈芝慈惠堂,瑤池金母,,,新北市,尖山里黃厝街9號,道教,02-26784479,王奕宗,121.343101501465,24.9460391998291,鶯歌區
1156,財團法人台北市木柵忠順廟,保儀尊王,,,臺北市,中崙路13號,道教,02-29394852,陳欽賜,121.564598083496,24.9836101531982,文山區
1157,慈穩寺,釋迦牟尼佛,,,桃園市,山腳村6鄰70號,佛教,03-3242671,蔡艷紅,121.284103393555,25.0827198028564,蘆竹區
1158,御聖宮,關聖帝君,,,基隆市,新豐街161巷142之5號,道教,02-24693166,蘇張春,121.791999816895,25.1391506195068,中正區
1159,天龍宮,玄天上帝,,,新北市,萬壽里海興路43之2號,道教,02-24982876,陳芳雄,121.627799987793,25.2390594482422,金山區
1160,坤天亭,中壇元帥,,,臺北市,富洲里延平北路8段96巷15號,道教,02-28106227,陳美瓚,121.485000610352,25.1046104431152,士林區
1161,玄龍宮,玄天上帝,,,基隆市,太白街111巷37號,道教,02-24231019,吳國強,121.743598937988,25.1483097076416,中山區
1162,太平宮,福德正神,,,基隆市,中山一路189巷34號,道教,02-24233353,羅珮鳳,121.73860168457,25.1335964202881,中山區
1163,北投集福宮,福德正神,,,臺北市,清江里磺港路68號,道教,02-28935859,吳萬強,121.503196716309,25.1320209503174,北投區
1164,財團法人桃園市壽山巖觀音寺,普庵祖師,,,桃園市,萬壽路2段6巷111號,佛教,03-3295616,林正峰,121.365501403809,25.0032291412354,龜山區
1165,財團法人台北市十普寺,釋迦牟尼佛,,,臺北市,頂東里南昌路2段140號,佛教,02-23679824,陳玉峰,121.522796630859,25.025239944458,中正區
1166,財團法人台北市萬和宮,福德正神,,,臺北市,鄰江里迪化街2段304號,道教,02-25965316,黃宏瑜,121.513603210449,25.0738906860352,大同區
1167,東窰太子宮,三太子,,,新竹市,東香里柴橋路256巷1號,道教,03-5202616,詹順發,120.962959289551,24.7660732269287,香山區
1168,浸水南靈宮,五府千歲,,,新竹市,浸水里6鄰浸水南街53號,道教,03-5388865,楊松棋,120.92440032959,24.7980804443359,北區
1169,金山寺,釋迦牟尼佛,,,新北市,明志路三段163巷8弄1號,佛教,02-27830342,卓麗珠,121.425300598145,25.0393695831299,泰山區
1170,林口永善寺,普庵祖師,,,新北市,中湖里佳林路74號,佛教,02-26011896,王國華,121.385803222656,25.0808601379395,林口區
1171,淡水十方禪林,釋迦牟尼佛,,,新北市,水源里山子頂25之1號,佛教,02-26206017,高銘桐,121.492202758789,25.1867694854736,淡水區
1172,鄞山寺,定光佛,,,新北市,鄧公路15號,佛教,02-26228965,練瑞銘,121.449096679688,25.1699504852295,淡水區
1173,玉旨無極慈母宮,驪山老母,,,新北市,昇高里王軍寮7之5號,道教,02-26647598,蔡貴德,121.614196777344,24.985559463501,深坑區
1174,太和堂,釋迦牟尼佛,,,新竹市,南門里12鄰林森路67巷5號,佛教,03-5234302,鄭埱精,120.967926025391,24.8009414672852,東區
1175,古峰寺,釋迦牟尼佛,,,新竹市,高峰里7鄰高峰路223號,佛教,03-5259243,薛春蘭,120.977745056152,24.7855262756348,東區
1176,清湶寺,地藏王菩薩,,,基隆市,自強路127號之1,佛教,02-24555271,阮進興,121.709686279297,25.1195449829102,七堵區
1177,自強里水頭福德廟,福德正神,,,基隆市,自強里自強路149號旁,道教,02-2451,林明儒,121.711112976074,25.1166343688965,七堵區
1178,天王宮,李靖托塔天王,,,新竹市,民富里民富街178巷23弄2號,道教,03-5225968,林秋同,120.958282470703,24.8072547912598,北區
1179,海會寺,釋迦牟尼佛,,,新北市,直潭里灣潭路72之1號,佛教,02-29141275,李月霞,121.537895202637,24.9420604705811,新店區
1180,地母庵,燃燈佛,釋迦牟尼佛,彌勒佛,新北市,東山里東和街71之1號,佛教,02-86852993,許金英,121.392097473145,24.9868698120117,樹林區
1181,財團法人台北市北安宮,天上聖母,,,臺北市,頂碩里西藏路256號,道教,02-23021881,羅碧霞,121.501586914063,25.0297622680664,萬華區
1182,法靈寺,釋迦牟尼佛,,,新北市,外平林14號,佛教,02-24933048,蘇建明,121.858734130859,25.0377750396729,雙溪區
1183,龍山慈惠堂,瑤池金母,,,新北市,黎明里5鄰橫窠雅42號,道教,02-29095420,李金英,121.414108276367,25.0680179595947,泰山區
1184,寶蓮寺,釋迦牟尼佛,,,桃園市,大同里中山路二段388巷36號,佛教,03-4982704,陳秀蓮,121.129096984863,25.0149803161621,觀音區
1185,玉京山大羅上仙府,玉皇大帝,,,新北市,永定里8鄰蚯蚓坑42號,道教,02-26631111,陳俊哲,121.68465423584,25.0065727233887,石碇區
1186,終南洞三聖宮,孚佑帝君,,,新北市,民權街1段1巷12弄1號,道教,02-26405279,呂見輝,121.622703552246,25.0534496307373,汐止區
1187,共和宮,劉府王爺,,,臺北市,社新里社子街117號,道教,02-28124828,林德勝,121.505302429199,25.0882396697998,士林區
1188,慈諴宮,天上聖母,,,臺北市,義信里大南路84號,道教,02-28802972,江運永,121.524696350098,25.0895195007324,士林區
1189,王爺廟,劉府王爺,,,基隆市,仁安街45號,道教,02-24264633,李銘德,121.747467041016,25.1452960968018,中山區
1190,祖師禪林,燃燈佛,釋迦牟尼佛,彌勒佛,臺北市,大屯里復興三路198號,佛教,02-28932241,羅火旺,121.50520324707,25.14967918396,北投區
1191,吉福宮,郭子儀,,,臺北市,松隆里松山路臨679-1號,道教,02-27285107,葉任平,121.581802368164,25.0353107452393,信義區
1192,法主宮,法主聖君,,,新北市,下圭柔山100之1號,道教,02-26228530,葉水金,121.437934875488,25.2105884552002,淡水區
1193,淡水新興福德宮,福德正神,,,新北市,新民街226巷2號旁,道教,02-26206455,田美裕,121.436302185059,25.1805801391602,淡水區
1194,宏善寺,釋迦牟尼佛,,,桃園市,三元街407巷50號,佛教,03-3328253,釋宗倫,121.322601318359,25.0106506347656,桃園區
1195,雲登山寺,釋迦牟尼佛,,,新北市,昇高村王軍寮7之2號,佛教,02-22620113,周勝雲,121.614402770996,24.9856491088867,深坑區
1196,保安宮,保儀尊王,,,新北市,大寮路49巷5之2號,佛教,093-2070868,顏東盛,121.782302856445,25.0975093841553,瑞芳區
1197,眾聖宮,大眾爺,,,桃園市,後厝村1鄰40號,道教,03-3853225,陳連壽,121.225051879883,25.0875701904297,大園區
1198,承德寺,釋迦牟尼佛,,,桃園市,山腳村山外路25號,佛教,03-3243359,陳財旺,121.286499023438,25.0831527709961,蘆竹區
1199,慈願寺,釋迦牟尼佛,,,新北市,美豐里雞母嶺街53之2號,佛教,02-24902669,王梅,121.888198852539,25.0688304901123,貢寮區
1200,竹東慈惠堂,瑤池金母,,,新竹縣,大鄉里中豐路三段476號,道教,03-5965860,謝國銀,121.074722290039,24.7213287353516,竹東鎮
1201,鳳山寺,釋迦牟尼佛,,,新竹縣,波羅村7鄰新興路838巷101號,佛教,03-5981369,陳全成,121.013900756836,24.8786602020264,湖口鄉
1202,安國寺,釋迦牟尼佛,,,臺北市,大屯里復興三路101巷10號,佛教,02-28964558,張優理,121.499801635742,25.1596794128418,北投區
1203,湄聖宮,天上聖母,,,新北市,永樂里安樂路463巷12號,道教,02-29230744,陳蔡春煌,121.513969421387,25.0050277709961,永和區
1204,佛光山石門北海道場,釋迦牟尼佛,,,新北市,石門里內石門78之1號,佛教,02-26382511,李月嬌,121.570701599121,25.2553100585938,石門區
1205,保安宮,保生大帝,,,新北市,溪頭里15鄰長江路三段5之1號旁,道教,02-82528537,葉德生,121.471801757813,25.0336303710938,板橋區
1206,福星宮,福德正神,,,新北市,成和里金門街127巷19號,道教,02-26842522,王旭昇,121.433898925781,24.9911308288574,板橋區
1207,潤德宮,福德正神,,,新北市,成和里大觀路3段36巷83之1號,道教,02-26759484,黃金火,121.434501647949,24.9976596832275,板橋區
1208,五谷金聖殿,神農大帝,,,新北市,勤進路418號旁,道教,02-26423828,李延坤,121.664001464844,25.0535907745361,汐止區
1209,三重鎮安亭,中壇元帥,,,新北市,開元里三和路一段19號,道教,02-29732314,李訓賢,121.503601074219,25.0647506713867,三重區
1210,昭明寺,釋迦牟尼佛,,,臺北市,福林里中山北路5段56號,佛教,02-28821581,柯麗雲,121.526397705078,25.0831699371338,士林區
1211,福德宮,福德正神,,,基隆市,西定路198之1號,道教,02-24287507,陳文宗,121.732696533203,25.1364402770996,中山區
1212,財團法人台北市蓮友念佛團,阿彌陀佛,,,臺北市,力行里朱崙街63號,佛教,02-2771-4544;2772-5174,金子源,121.541923522949,25.0500774383545,中山區
1213,財團法人台灣省基隆市大佛禪院,釋迦牟尼佛,,,基隆市,壽山路17號,佛教,02-24222296,,121.750900268555,25.1331253051758,信義區
1214,財團法人新北市泰山巖,顯應祖師,,,新北市,明志里應化街32號,佛教,02-29018371,林志峰,121.423500061035,25.0440998077393,泰山區
1215,財團法人新竹縣五指山玉皇宮,關聖帝君,孚佑帝君,九天司命,新竹縣,外坪村8鄰六股11之2號,道教,03-5802053,巫明火,121.089401245117,24.6419105529785,北埔鄉
1216,財團法人天恩彌勒佛院,彌勒佛,,,新竹縣,湖光村快樂路1號,彌勒大道,03-5806632,汪慈光,120.987449645996,24.6819324493408,峨眉鄉
1217,檳榔坑頭福德宮,福德正神,,,新北市,中興里檳榔路151號之1,道教,02-29114641,廖萬益,121.545799255371,24.9608001708984,新店區
1218,清慈宮,玄天上帝,,,新北市,雙興里太和11號之3,道教,02-24929006,賴忠義,121.659797668457,25.1764907836914,萬里區
1219,清涼寺,普庵祖師,,,新北市,復興里復興路323巷4號,佛教,02-22888032,江麗素,121.483901977539,25.0914402008057,蘆洲區
1220,桃園市福德宮,福德正神,,,桃園市,中山路2號,道教,03-3332697,蘇家永,121.313003540039,24.9954891204834,桃園區
1221,西廟,普庵祖師,,,桃園市,西湖里1鄰中山路220號,道教,03-3678977,游財登,121.307601928711,24.9931087493896,桃園區
1222,集順廟,保儀尊王,,,新北市,深坑街135號,道教,02-26642366,高銘金,121.613502502441,25.0012302398682,深坑區
1223,瑞慈宮,天上聖母,,,新北市,爪峰里三爪子坑路106巷190號,道教,02-24975539,廖吉男,121.80899810791,25.1032104492188,瑞芳區
1224,四腳亭吉安宮,天上聖母,,,新北市,吉慶里瑞竹路91號,道教,02-24577381,呂文德,121.763900756836,25.1029090881348,瑞芳區
1225,觀宗寺,釋迦牟尼佛,,,新北市,草東里中正路15號,佛教,02-26262311,吳博英,121.442901611328,25.1695709228516,淡水區
1226,財團法人台北行天宮,關聖帝君,,,臺北市,行政里民權東路2段109號,道教,02-25027924,吳岳羽,121.533500671387,25.0627498626709,中山區
1227,增昌宮,玉皇大帝,,,新竹縣,豐田村3鄰25號,道教,03-5931916,葉金傳,121.165283203125,24.7096405029297,橫山鄉
1228,樂善堂,普庵祖師,,,新竹縣,豐鄉村大山背3鄰31號,佛教,03-5960674,葉雲燭,121.139450073242,24.6993274688721,橫山鄉
1229,新竹縣竹北市伍福宮,福德正神,,,新竹縣,勝利二路169號,道教,03-5503600,彭吉台,121.029151916504,24.8219547271729,竹北市
1230,發一光耀佛堂,彌勒佛,,,新竹縣,新港里新港3街2段1號,一貫道,03-5566721,藍百合,120.94930267334,24.8491497039795,竹北市
1231,新竹市東寧宮,地藏王菩薩,,,新竹市,東門里11鄰東門街146號,佛教,03-5233257,吳榮聲,120.969100952148,24.8042602539063,東區
1232,三和宮,三山國王,,,新竹縣,新富里5鄰老社寮34號,道教,03-5872996,李國楻,121.178771972656,24.7657222747803,關西鎮
1233,保安宮,保儀尊王,,,新北市,石嘈里石嘈10號,道教,02-26656139,林文恭,121.728424072266,24.9584541320801,坪林區
1234,朱玄堂,朱府王爺,,,新北市,潭邊里10鄰小粗坑1之2號,道教,02-26632356,朱光男,121.673110961914,24.9826679229736,石碇區
1235,大願山拜佛寺,釋迦牟尼佛,,,新北市,格頭里北宜路5段火燒樟巷8號,佛教,02-26651118,鄭國增,121.625297546387,24.9561100006104,石碇區
1236,慈上堂,三清道祖,,,新北市,橫科里橫科路407巷25弄17號,道教,02-26401935,周律,121.626403808594,25.0490398406982,汐止區
1237,王母救世宮,瑤池金母,,,新北市,保長里長興街二段50巷50號,道教,02-86475180,黃英敏,121.675498962402,25.080680847168,汐止區
1238,明倫講堂,明明上帝,,,新北市,北宜路2段615巷30號,一貫道,02-22173500,王富貴,121.57080078125,24.9577503204346,新店區
1239,法界禪寺,釋迦牟尼佛,,,新北市,樹興里文化街112巷17弄2號,佛教,02-26861430,黃秀芍,121.416801452637,24.9901905059814,樹林區
1240,福興廟,福德正神,,,新北市,柑園里柑園街2段22號,道教,02-26801680,鄧萬興,121.387603759766,24.9557495117188,樹林區
1241,南海聖靈宮,天上聖母,,,新北市,尖山里4鄰尖山路240巷21弄23號旁,道教,02-26706487,任得南,121.342529296875,24.9476623535156,鶯歌區
1242,財團法人台灣省桃園縣楊梅妙法道場,燃燈佛,釋迦牟尼佛,彌勒佛,桃園市,楊江里武營街2巷30號,佛教,03-4750501,吳國良,121.142601013184,24.9075508117676,楊梅區
1243,新竹市內湖龍正宮,天上聖母,,,新竹市,內湖里內湖路90巷1號,道教,03-5375396,莊清旗,120.905204772949,24.7428722381592,香山區
1244,港南里順天宮,石明仙祖,,,新竹市,港南里4鄰海埔路74巷15號,道教,03-5387383,鄭成光,120.927619934082,24.8186988830566,香山區
1245,福靈宮,神農大帝,,,新竹市,朝山里2鄰中華路五段457號,道教,03-5373567,劉文棋,120.91332244873,24.7624015808105,香山區
1246,南港慈雲寺,濟公活佛,,,臺北市,中研里福山街44巷15弄1號,道教,02-27830743,李漢章 ,121.617301940918,25.0452404022217,南港區
1247,大願禪寺,釋迦牟尼佛,,,桃園市,兔子坑里17鄰大湖頂61-6號,佛教,03-3292767,李枝億,121.382789611816,24.9937133789063,龜山區
1248,三元宮(三湖),三官大帝,,,桃園市,三湖里9鄰楊湖路三段600號,道教,03-4722857,王朝庚,121.099403381348,24.9127902984619,楊梅區
1249,永豐宮,福德正神,,,新竹市,前溪里3鄰經國路一段156巷228之1號,道教,03-5323297,溫文泰,120.987548828125,24.8185405731201,東區
1250,慈鳳宮,玉皇三公主娘娘,,,基隆市,六堵里工建西路32之1號,道教,02-24511419,藍寶麵,121.70369720459,25.092170715332,七堵區
1251,金山禪寺,釋迦牟尼佛,,,新北市,景南里景新街467巷50弄18號(暫厝),佛教,02-29421358,許富喻,121.518402099609,24.9889392852783,中和區
1252,佛教靈宗仁慈寺,釋迦牟尼佛,,,新北市,圓通路367巷68號,佛教,02-22430222,詹舜堯,121.493469238281,24.9833717346191,中和區
1253,普賢寺,釋迦牟尼佛,,,新北市,頭寮坑路13號,佛教,02-26726170,許光彥,121.441162109375,24.9145545959473,三峽區
1254,北天玉福宮,福德正神,,,新北市,安坑里建安140號之12,道教,02-26726572,張武明,121.464202880859,24.9141807556152,三峽區
1255,下塔悠福德爺宮,福德正神,,,臺北市,金泰里敬業三路196號,道教,02-25322416,許萬通,121.556602478027,25.077880859375,中山區
1256,台北保霞宮,保生大帝,,,臺北市,中庄里松江路226巷21號,道教,02-25711706,陳建和,121.535499572754,25.0697498321533,中山區
1257,慶安宮,福德正神,,,桃園市,埔仁路352號,道教,0932-927497,盧茂榮,121.280181884766,24.9039916992188,大溪區
1258,普濟堂,關聖帝君,,,桃園市,福仁里普濟路124號,道教,03-3882054,謝昌明,121.286102294922,24.8865699768066,大溪區
1259,西龍巖廟,普庵祖師,,,新北市,大崁里大堀湖22號,佛教,02-26103422,李文雄,121.423034667969,25.1501312255859,八里區
1260,八里五福宮,財神爺,,,新北市,米倉里渡船頭2之1號,道教,02-26101895,鄭戴麗香,121.434097290039,25.1511898040771,八里區
1261,順安宮,法主聖君,,,新北市,三和路三段19號,道教,02-29736682,陳萬生,121.496200561523,25.0709590911865,三重區
1262,南榮宮,福德正神,,,基隆市,南榮路93巷1號,道教,02-24231665,洪棟全,121.74299621582,25.1257400512695,仁愛區
1263,永福慈惠堂,瑤池金母,,,新北市,永順里永安北路一段27巷55號,道教,02-22878704,余惠璧,121.47730255127,25.0754795074463,三重區
1264,興道山聖南寺,釋迦牟尼佛,,,新北市,牡丹里聖南30號之1,佛教,02-24931615,陳秀玉,121.85710144043,25.0521793365479,雙溪區
1265,永石萬善祠,有應公,,,新竹縣,石潭村11鄰福昌街2巷2號,道教,03-5931800,劉家宏,121.104499816895,24.7451000213623,芎林鄉
1266,天寶聖道宮,玉皇大帝,,,臺北市,松隆里松山路664之10號,道教,02-27277045,周明,121.579193115234,25.0281143188477,信義區
1267,玉桂嶺東隆宮,溫府千歲,,,新北市,豐田村6鄰玉桂嶺5之6號,道教,02-26633915,余哲雄,121.72004699707,24.9975929260254,石碇區
1268,福瑞宮,福德正神,,,新北市,長江街1號對面(暫厝),道教,02-26413239,黃永壽,121.654403686523,25.0712795257568,汐止區
1269,板橋珠龍宮,孚佑帝君,,,新北市,中正里12鄰中正路489巷臨17號,道教,02-22593038,林煌益,121.453681945801,25.0270175933838,板橋區
1270,蓮善寺,普庵祖師,,,桃園市,中正路三林段226巷126弄1衖2之1號,佛教,03-4702746,古香妹,121.226577758789,24.848123550415,龍潭區
1271,金山寺,燃燈佛,釋迦牟尼佛,彌勒佛,桃園市,三坑里16鄰中正路三坑段312號,佛教,03-4712296,廖明宏,121.244400024414,24.8405799865723,龍潭區
1272,暖暖過港福德宮,福德正神,,,基隆市,過港路181之1號,道教,02-24572860,林繼業(暫代),121.736640930176,25.105525970459,暖暖區
1273,普陀山慈航寺,釋迦牟尼佛,,,臺北市,松隆里松山路臨677-7號,佛教,02-27285188,姜仁等,121.583198547363,25.0256595611572,信義區
1274,瑞龍宮,西秦王爺,,,新北市,龍山里逢甲路250號,道教,09-35550989,賴金通,121.805397033691,25.1105403900146,瑞芳區
1275,金福宮,池府王爺,,,新北市,三民街23號,道教,02-26212519,莊武男,121.439193725586,25.1720027923584,淡水區
1276,楊柳堂,普庵祖師,,,新竹縣,尚義里2鄰山腳2號,佛教,03-5562464,張松烈,120.960014343262,24.8657703399658,竹北市
1277,湧蓮寺,普庵祖師,,,新北市,得勝街96號,佛教,02-22818642,陳宏昌,121.471298217773,25.0832901000977,蘆洲區
1278,福安宮,福德正神,,,新北市,八德街63之1號,道教,02-86841419,洪建一,121.419296264648,24.9825992584229,樹林區
1279,樹林彭厝鎮安宮,邢府王爺,,,新北市,彭興里太平路247巷26號,道教,02-86844058,邱垂章,121.420600891113,24.9746704101563,樹林區
1280,重興宮,福德正神,,,新北市,彭興里太平路247巷26之1號,道教,02-86844058,陳義昌,121.420600891113,24.9747905731201,樹林區
1281,鎮湖宮,福德正神,,,新北市,鶯桃路413巷78弄8號之1,道教,02-26707076,鄭原燦,121.329696655273,24.9633007049561,鶯歌區
1282,青龍山濟善寺,濟公活佛,,,新北市,粗坑里5鄰湖興路臨128號之3,道教,02-26665755,邱森明,121.565612792969,24.9312267303467,新店區
1283,北后雲天宮,十二延天溪女娘娘,,,新北市,東勢里東勢街76巷26號,道教,02-26603516,黃根旺,121.633697509766,25.0397605895996,汐止區
1284,板橋足天宮,天上聖母,,,新北市,振義里萬安街20巷34號,道教,02-29533719,蔡旻育,121.484397888184,25.023380279541,板橋區
1285,北佑宮,福德正神,,,新北市,南陽街91巷38弄5號,道教,02-29641552,黃福長,121.624603271484,25.0604496002197,汐止區
1286,天聖代天府,五府千歲,,,新北市,長青里八連路三段238號之2,道教,02-26451862,廖勝國,121.61009979248,25.1223297119141,汐止區
1287,板橋福天宮,天上聖母,,,新北市,田單街49巷28之4號,道教,02-22517436,鍾清銘,121.483360290527,25.0280628204346,板橋區
1288,福安宮(重複),福德正神,,,新北市,福安里福安街53之1號,道教,02-26412995,蘇祖標,121.663665771484,25.064115524292,汐止區
1289,林口區慶安宮,三山國王,,,新北市,頂福97號,道教,02-26060431,余泰億,121.328102111816,25.093469619751,林口區
1290,代天府北行宮,五府千歲,,,臺北市,華江里和平西路3段302巷3弄19號,道教,02-23066654,莊樹明(代),121.492301940918,25.0349807739258,萬華區
1291,福興宮,福德正神,,,新北市,中正路214號,道教,02-26413338.0912201728,李福榮,121.658203125,25.0690593719482,汐止區
1292,板橋後埔福德宮,福德正神,,,新北市,後埔里重慶路67巷3號之1,道教,02-29534706,許正敏,121.462097167969,25.0072898864746,板橋區
1293,板橋聚靈宮,福德正神,,,新北市,雙玉里中山路二段臨303號,道教,02-29574189,徐阿印,121.478713989258,25.0184803009033,板橋區
1294,南港聖德宮,玉皇大帝,,,臺北市,九如里研究院路4段162巷6號,道教,02-27824883,劉霞,121.597900390625,25.0293292999268,南港區
1295,番仔寮福安宮,福德正神,,,新北市,山光里樟樹二路339巷6弄3號之1,道教,02-26487739,陳添益,121.641296386719,25.0708808898926,汐止區
1296,九玄聖宮,齊天大聖,,,新北市,忠治里金堰9號,道教,02-26616499,陳貴良,121.550300598145,24.8836307525635,烏來區
1297,石泉巖,清水祖師,,,臺北市,臥龍街431巷50號,佛教,02-27351546,黃種釧,121.563499450684,25.012020111084,信義區
1298,玉皇宮,玉皇大帝,,,新北市,錦和里圓通路367巷臨66之1號,道教,02-22470607,李辛癸,121.488998413086,24.9802799224854,中和區
1299,桃園縣大溪鎮妙雲精舍,釋迦牟尼佛,,,桃園市,福安里復興路一段626巷188號,佛教,03-3887260,施淑惠,121.287857055664,24.8570785522461,大溪區
1300,北極安聖宮,玄天上帝,,,桃園市,大強里東勇街490巷72號,道教,03-3618235,侯在來,121.311698913574,24.9653205871582,八德區
1301,福安宮,福德正神,,,基隆市,復興街60巷9號,道教,02-24287638,張芳麗,121.752197265625,25.1253299713135,仁愛區
1302,凌虛宮,三官大帝,,,新北市,老梅里公地44號,道教,02-26381513,許潘碧霞,121.545600891113,25.2897491455078,石門區
1303,社靈廟,三府王爺,,,基隆市,和一路144號,道教,02-24622439,蔡榮貴,121.765197753906,25.155029296875,中正區
1304,飛龍寺,釋迦牟尼佛,,,臺北市,東山里東山路25巷81弄62號,佛教,02-28614139,蔡芙蓉,121.536697387695,25.1327495574951,士林區
1305,伍天宮,玄天上帝,,,新北市,永興里濆水34號,道教,02-24986222,許瑞林,121.622840881348,25.2665004730225,金山區
1306,啟明佛寺,釋迦牟尼佛,,,臺北市,仁勇里大西路54號,佛教,02-28816709,柯來春,121.524597167969,25.090950012207,士林區
1307,大德山楊府廟,楊府聖王,,,基隆市,中山二路1巷111號,道教,02-24229481,陳連豐,121.739402770996,25.1370105743408,中山區
1308,台北市關渡玉女宮,玉女娘娘,,,臺北市,關渡里大度路3段301巷222號,道教,02-28581800,林國基,121.463798522949,25.1174507141113,北投區
1309,惠安宮,三山國王,,,新竹縣,上館里惠安街189巷27號,道教,03-5943847,彭金賢,121.094223022461,24.7240905761719,竹東鎮
1310,福德宮,福德正神,,,基隆市,基金一路210巷2之1號,道教,02-24315937,陳敏彥(暫代),121.709938049316,25.1426239013672,安樂區
1311,福星宮,福德正神,,,臺北市,福興里自強街5巷22號,道教,02-28235574,施火木,121.512802124023,25.1100597381592,北投區
1312,彌陀寺,阿彌陀佛,觀世音菩薩,大勢至菩薩,臺北市,泉源里東昇路3號,佛教,02-28912393,黃素蓮,121.521102905273,25.1445598602295,北投區
1313,大光寺,釋迦牟尼佛,,,新北市,廣興路111巷2號,佛教,02-26667826,莊鴻昌,121.53678894043,24.9117565155029,新店區
1314,桃園市新屋區蚵殼港昭靈宮,七府王爺,,,桃園市,蚵間里4鄰28-7號,道教,03-4768430,許男,121.000175476074,24.9458541870117,新屋區
1315,野柳仁和宮,周府將軍,,,新北市,野柳里港東167-10號,道教,02-24921659,林元莊,121.689399719238,25.2063293457031,萬里區
1316,財團法人台灣省桃園縣中壢慈惠堂,瑤池金母,,,桃園市,興南里12鄰慈惠2街9號,道教,03-4258457,陳燦宏,121.223297119141,24.9606609344482,中壢區
1317,財團法人台北市臺灣省城隍廟,城隍爺,,,臺北市,光復里武昌街一段14號,道教,02-23615080,蘇宏仁,121.512763977051,25.0439682006836,中正區
1318,財團法人道教王禪老祖鬼谷仙師廟,王禪老祖,,,新竹縣,埔尾村12鄰王禪老祖路1號,道教,03-5805319,劉逢清,121.044174194336,24.7139759063721,北埔鄉
1319,協德宮,關聖帝君,,,新北市,(魚逮)魚堀44-1號,道教,02-26657887,花雲雄,121.701499938965,24.9329605102539,坪林區
1320,華藏寺,釋迦牟尼佛,,,桃園市,三林村民族路379號,佛教,03-4795093,王淑美,121.234283447266,24.8361225128174,龍潭區
1321,龍福宮,福德正神,,,新北市,青山里國際路71號之1,道教,02-22602022,馬明義,121.467002868652,24.9762992858887,土城區
1322,花園福地,福德正神,,,新竹市,公園里1鄰花園街75號,道教,03-5237021,林清風,120.976669311523,24.8035984039307,東區
1323,新莊海山里福德宮,福德正神,,,新北市,海山里新莊路637號,道教,02-22011603,張家精,121.445297241211,25.0329303741455,新莊區
1324,德心宮,天上聖母,,,新北市,雙玉里德心街10號,道教,091-0927915,林中志,121.918899536133,25.015209197998,貢寮區
1325,福安廟,延平郡王,,,新北市,美豐里雞母嶺街7號,道教,02-24901660,張金發,121.900497436523,25.0681991577148,貢寮區
1326,救民宮,普庵祖師,,,新竹縣,石潭村9鄰39之1號,佛教,03-5923894,溫武義,121.103225708008,24.748779296875,芎林鄉
1327,南天宮,關聖帝君,,,新北市,新基里新基北街64號,道教,02-24931050,林讚枝,121.868698120117,25.039529800415,雙溪區
1328,無量光寺,釋迦牟尼佛,,,新北市,外柑里土地公後5之3號,佛教,02-24934396,釋道倫,121.815299987793,25.0187606811523,雙溪區
1329,福德宮(泰和里),福德正神,,,新竹縣,泰和里博愛街713號,道教,03-5554038,林保棟,121.015640258789,24.843677520752,竹北市
1330,聖雲寺,釋迦牟尼佛,,,新竹縣,橫山村17鄰蔗蔀185號,佛教,03-5933301,釋天嶽,121.124038696289,24.6999607086182,橫山鄉
1331,玉成公園福德宮,福德正神,,,臺北市,鴻福里中坡南路51號,道教,02-27862892,林周阿月,121.584098815918,25.0425796508789,南港區
1332,真光禪寺,釋迦牟尼佛,,,臺北市,中行里福德街221巷200號,佛教,02-27268688,郭龍宗,121.587356567383,25.0319423675537,信義區
1333,慈淨寺,普庵祖師,,,基隆市,月眉路65巷2之1號3樓,佛教,02-24652761,黃重瑞,121.757858276367,25.1238975524902,信義區
1334,保安廟,清水祖師,,,新北市,沙崙里淡海路189巷10號,道教,02-28055947,王麗珠,121.419799804688,25.1845703125,淡水區
1335,龍山福德宮,福德正神,,,新北市,龍山里逢甲路350之1號,道教,09-78782596,蔡樹,121.801300048828,25.112190246582,瑞芳區
1336,佛所護念廟,釋迦牟尼佛,,,新北市,寶福里寶興路70巷5號,佛教,02-29131871,許英光,121.550399780273,24.9705104827881,新店區
1337,萬里下寮聖安宮,中壇元帥,,,新北市,大鵬里下社33號之5,道教,02-24988047,吳春雄,121.649398803711,25.2170906066895,萬里區
1338,寶善寺,釋迦牟尼佛,,,新竹縣,旱坑里3鄰上樟路1段386號,佛教,03-0978079685,詹茹鈁,121.084281921387,24.8353099822998,新埔鎮
1339,福德宮,福德正神,,,臺北市,吉祥里八德路4段181巷16弄11號,道教,02-27671417,林志強,121.562950134277,25.0492458343506,松山區
1340,度天宮,天上聖母,,,基隆市,八斗街96巷32之1號,道教,02-24691642,詹春陽,121.797096252441,25.1437892913818,中正區
1341,安樂寺,釋迦牟尼佛,,,新北市,西湖里西勢湖20號,佛教,09-32150439,溫慈惠,121.60880279541,25.2490692138672,金山區
1342,昭應侯廟,許天正公,,,新北市,金美里忠孝一路107號,道教,02-24984046,許森盛,121.636199951172,25.2214298248291,金山區
1343,圓明寺,釋迦牟尼佛,,,臺北市,臨溪里劍南路203巷1號,佛教,02-28411596,陳秀鶯,121.557899475098,25.1029605865479,士林區
1344,代天宮,孚佑帝君,,,基隆市,中和路138號,道教,02-24377914,林本源,121.718299865723,25.1493797302246,中山區
1345,福民宮,福德正神,,,基隆市,健民街34巷5號旁,道教,02-24249749,劉健鑑,121.736503601074,25.1417598724365,中山區
1346,五十人公祠,五十人公,,,基隆市,鶯歌里八德路31巷9之1號,道教,02-24313772,林朝勇,121.728897094727,25.1150493621826,安樂區
1347,觀音禪院,普庵祖師,,,臺北市,奇岩里崇仰一路11號,佛教,02-28915345,馬素珠,121.513298034668,25.126989364624,北投區
1348,金龍湖福德宮,福德正神,,,新北市,湖東街5巷46號之1,道教,02-26922583,蔡培棠,121.635398864746,25.074369430542,汐止區
1349,明修宮,關聖帝君,,,新北市,安康路3段607之1號,道教,02-22152632,李黃明慧,121.473503112793,24.9411697387695,新店區
1350,福神宮,福德正神,,,新北市,員潭里1鄰北宜路2段124之1號,道教,02-22172828,陳一郎,121.556999206543,24.9537391662598,新店區
1351,善德寺,釋迦牟尼佛,,,新北市,大鵬里萬里加投293號,佛教,02-24982046,張嬌,121.64510345459,25.2189598083496,萬里區
1352,保民宮,開漳聖王,,,新北市,龜吼里鼓亭14號,道教,02-24921679,許萬福,121.683898925781,25.1903400421143,萬里區
1353,加投福德宮,福德正神,,,新北市,大鵬里萬里加投45號前方50公尺路旁,道教,02-24980899,李明崑,-1.87671539606526e-05,-5.36442075826926e-06,萬里區
1354,海藏寺,燃燈佛,釋迦牟尼佛,彌勒佛,新北市,太平里碧潭路55號,佛教,02-22121750,詹玉珠,121.533996582031,24.9566192626953,新店區
1355,福德祠,福德正神,,,新北市,萬里里獅頭路3號之1,道教,02-24922281,陳勵修,121.689498901367,25.1785106658936,萬里區
1356,香員林福德宮,福德正神,,,新北市,溪底里香員林17號後方,道教,02-24925847,翁等賓,121.636001586914,25.1611995697021,萬里區
1357,寶石慈玄慈惠宮,瑤池金母,,,新竹縣,寶石里文德路1段389號,道教,03-5892226,林芳玉,121.084381103516,24.8028678894043,新埔鎮
1358,三張犁福佑宮,福德正神,,,臺北市,信義路5段11058 150巷18之1號,道教,02-27221899#920,周賢清,121.571998596191,25.0237693786621,信義區
1359,興隆寺,釋迦牟尼佛,,,基隆市,壽山路8號,佛教,02-24222962,馬素珠,121.749801635742,25.1321907043457,信義區
1360,坤元宮,福德正神,,,臺北市,三重里三重路79巷8弄2之1號,道教,02-27890898,闕山柳,121.61319732666,25.060359954834,南港區
1361,淡水坪頂集應廟,保儀尊王,,,新北市,小坪頂18之3號,道教,02-26219044,張明德,121.485000610352,25.1589698791504,淡水區
1362,新北市樹林區山佳觀音廟,普庵祖師,,,新北市,中山路3段136之2號,道教,02-26805212,朱鑫美,121.391899108887,24.9722309112549,樹林區
1363,西山福德宮,福德正神,,,新北市,山佳里佳園路一段95之6號,道教,02-26806137,徐俊傑,121.394096374512,24.9697704315186,樹林區
1364,鶯歌王公廟,輔信王公,,,新北市,同慶里尖山埔路185巷6號,道教,02-26796369,莊曾梅,121.345596313477,24.9505596160889,鶯歌區
1365,鶯歌北聖院代天府,范府千歲,,,新北市,永吉里德昌2街70巷38弄42號,道教,02-26702176,朱明義,121.331100463867,24.9576892852783,鶯歌區
1366,財團法人臺灣省臺北縣三介廟,濟公活佛,,,新北市,景新街467巷50弄20號,佛教,02-29419797,李呂金蘭,121.516403198242,24.9879493713379,中和區
1367,無極宮,瑤池金母,,,新北市,東安里漢生東路193巷69弄13號,道教,02-29576833,陳麗真,121.472503662109,25.0125904083252,板橋區
1368,文山寺,釋迦牟尼佛,,,新北市,隆盛里8鄰新興坑22號之3,佛教,02-26631195,黃玉山,121.649253845215,25.0228157043457,石碇區
1369,廣修禪寺,釋迦牟尼佛,,,新北市,汐萬路三段300巷2號,佛教,02-26461913,李明隆,121.635902404785,25.1138496398926,汐止區
1370,汐止福恩廟,福德正神,,,新北市,梓樹里大同路一段111巷20號,道教,02-26417288,謝福來,121.629600524902,25.0552005767822,汐止區
1371,慈善總堂,九皇大帝,,,臺北市,中研里研究院路2段83號,道教,02-0920730737,陳榮,121.616897583008,25.0433692932129,南港區
1372,狀元廟,狀元公,,,臺北市,惠安里吳興街336巷52號,道教,02-27223572,林石園,121.56559753418,25.0264453887939,信義區
1373,明德宮,孚佑帝君,,,基隆市,東信路132巷11號,道教,02-24657765,許茂松,121.765785217285,25.1294460296631,信義區
1374,保安宮,保生大帝,,,新竹市,美山里7鄰中華路五段323巷45弄83號,道教,03-5382557,陳福壽,120.920875549316,24.7814826965332,香山區
1375,太清殿,無極聖祖,,,新北市,格頭里北宜路四段1號,道教,02-26651589,游聰欽,121.609901428223,24.9592895507813,石碇區
1376,五路財神廟,財神爺,,,新北市,永定里大湖格20之1號,道教,02-26633313,田朝益,121.697196960449,25.0167903900146,石碇區
1377,溪南中崙三元宮,三官大帝,,,新竹縣,中崙村2鄰38號,道教,03-5993317,溫張石金,120.99787902832,24.8998565673828,新豐鄉
1378,文山天寶聖道宮,玉皇大帝,,,新北市,潭邊里碇坪路1段13號,道教,02-26632297,劉天和,121.653297424316,24.9983005523682,石碇區
1379,保長坑橋頭福德宮,福德正神,,,新北市,大同路三段424號,道教,02-86483353,李添丁,121.682800292969,25.0723304748535,汐止區
1380,指玄宮,李鐵拐,,,基隆市,信二路36巷35號,道教,02-24622355,林坤銘,121.758003234863,25.1299896240234,信義區
1381,慈善寺,釋迦牟尼佛,,,基隆市,槓子寮路3巷1之1號,佛教,02-24658166,釋傳璽,121.777938842773,25.143497467041,信義區
1382,財團法人臺灣省基隆市十方大覺禪寺,釋迦牟尼佛,,,基隆市,崇德路10巷67號,佛教,02-24223630,釋見性,121.727699279785,25.1309108734131,安樂區
1383,財團法人台北市普濟寺,普庵祖師,,,臺北市,建明里華陰街100號,佛教,02-25587046,陳良通,121.514198303223,25.050479888916,大同區
1384,新莊聖武堂,關聖帝君,,,新北市,丹鳳里壽山路79號,道教,02-29080357,林同順,121.408798217773,25.0331192016602,新莊區
1385,福寧宮,福德正神,,,新竹市,美山里1鄰中華路五段320巷48號,道教,03-5382413,蘇湧生,120.916427612305,24.7832126617432,香山區
1386,如意龍田福德宮,福德正神,,,桃園市,三元街526號,道教,03-3383247,葉永忠,121.326095581055,25.0093612670898,桃園區
1387,開成殿,玉皇大帝,,,新北市,永慶里烏勢巷152號旁,道教,02-24968395,曹祐彰,121.846702575684,25.1079998016357,瑞芳區
1388,北天宮,關聖帝君,,,臺北市,柳鄉里桂林路246巷30號,道教,02-23061947,陳春成,121.504997253418,25.0376892089844,萬華區
1389,慈修禪寺,釋迦牟尼佛,,,新北市,北投里北投子92號,佛教,02-26215270,歐永建,121.472702026367,25.1769008636475,淡水區
1390,西新福壽宮,福德正神,,,臺北市,西新里成功路1段臨79號,道教,02-27887999,林堃才,121.592697143555,25.0576992034912,南港區
1391,樂善寺,普庵祖師,,,桃園市,樂善里樂善街206巷72號,佛教,03-3281461,褚建安,121.381500244141,25.0470314025879,龜山區
1392,真武殿,玄天上帝,,,桃園市,楓樹村4鄰21號,道教,03-3297884,呂學鐘,121.34107208252,25.0065269470215,龜山區
1393,昭明宮,關聖帝君,,,新北市,深澳里建基路二段106之1號,道教,02-24969040,劉新標,121.811996459961,25.132869720459,瑞芳區
1394,玉旨玄聖宮,玄天上帝,,,新北市,忠孝里中正路663巷7弄15號,道教,02-22181104,郭秋薇,121.53279876709,24.9902400970459,新店區
1395,慈雲禪寺,釋迦牟尼佛,,,新北市,屈尺里新烏路二段40號,佛教,02-26667459,沈秀俐,121.54460144043,24.9281692504883,新店區
1396,萬里德光佛堂,明明上帝,,,新北市,溪底里烏塗炭11號,一貫道,02-24921811,周文陣,121.63289642334,25.1498203277588,萬里區
1397,廣和宮,三山國王,,,新竹縣,中正路608號,道教,03-5885857,潘鵬仁,121.074630737305,24.8281135559082,新埔鎮
1398,集義亭,義民,,,新竹縣,新埔里1鄰上樟路一段12巷1號,道教,03-0919925904,葉國峯,121.078903198242,24.8287696838379,新埔鎮
1399,浸水里靈隱寺,普庵祖師,,,新竹市,浸水里8鄰浸水北街161號,佛教,03-5387412,許明順,120.920570373535,24.8039302825928,香山區
1400,大湳福成宮,福德正神,,,桃園市,建國路1087巷30號,道教,03-3676586,傅中,121.295875549316,24.9575824737549,八德區
1401,德天宮,天上聖母,,,新北市,清化里石門路31號,道教,02-22614300,王志文,121.459503173828,24.9658794403076,土城區
1402,福興宮,廣澤尊王,,,新北市,中埔里5鄰大同路241巷4號,道教,02-26715927,黃燈,121.36686706543,24.9260349273682,三峽區
1403,福興宮,福德正神,,,新北市,南興路83巷15號,道教,02-26415470,陳清榮,121.653800964355,25.059289932251,汐止區
1404,天秀宮,關聖帝君,,,新北市,白雲里勤進路601號,道教,02-26423516,高富吉,121.662902832031,25.0529708862305,汐止區
1405,護山宮,保儀尊王,,,新北市,光田里三陽路11號,道教,02-29811595,邵德,121.486198425293,25.0588893890381,三重區
1406,福德宮,福德正神,,,基隆市,和一路27號,道教,02-24622215,蘇來成,121.76830291748,25.1544094085693,中正區
1407,萬安堂,大眾爺,,,基隆市,調和街3之1號,道教,02-24693230,簡昭榮,121.796501159668,25.138500213623,中正區
1408,八斗公萬善祠,大眾爺,,,基隆市,八斗街122之1號,道教,02-24692614,許焜山,121.796401977539,25.1434707641602,中正區
1409,聖德宮,三官大帝,,,新北市,三界里三界壇路72號,道教,02-24984702,嚴璧山,121.619903564453,25.2311096191406,金山區
1410,財團法人新北市金山慈音寺,文殊師利菩薩,,,新北市,五湖里南勢湖63號,佛教,02-24986248,許嬌雲,121.614700317383,25.2158603668213,金山區
1411,吉祥寺,釋迦牟尼佛,,,臺北市,東山里東山路25巷81弄40號,佛教,02-28715692,彭陳金葉,121.541496276855,25.1233596801758,士林區
1412,財團法人興毅總壇,明明上帝,,,桃園市,高原里休閒街105號,一貫道,03-4116999,陳崇旗,121.207931518555,24.8450050354004,龍潭區
1413,弘明寺,釋迦牟尼佛,,,新北市,龍鎮里岳王路136號,佛教,02-24972690,簡玉裡,121.809898376465,25.1125202178955,瑞芳區
1414,助順大將軍爺廟,黃府王爺,,,新北市,長庚里中正路64號,道教,02-26233797,張忠義,121.443000793457,25.1697406768799,淡水區
1415,法龍寺,普庵祖師,,,新北市,龍鎮里逢甲路150之1號,佛教,02-24978357,葉舜仁,121.808555603027,25.1095771789551,瑞芳區
1416,三元宮,三官大帝,,,桃園市,三民北路22號,道教,03-4825811,莊盛火,121.170387268066,24.9091053009033,楊梅區
1417,法明禪寺,燃燈佛,釋迦牟尼佛,彌勒佛,新北市,雙城里雙城路133號,佛教,02-29337242,陳文銓,121.497901916504,24.938850402832,新店區
1418,樹林玉明宮,楊府聖王,,,新北市,坡內里備內街10號之1,道教,02-26821500,李慶勳,121.413398742676,24.986930847168,樹林區
1419,鶯歌竹圍宮,瑤池金母,,,新北市,中湖里中湖街315巷1號之1,道教,02-26783889,李輝山,121.346298217773,24.9780101776123,鶯歌區
1420,創建宮,荷葉仙師,,,新北市,尖山里尖山路258巷39號,道教,02-26775786,卓元助,121.341102600098,24.9468593597412,鶯歌區
1421,代天府,五府千歲,,,桃園市,社子里6鄰37-4號,道教,03-4772879,賴清潭,121.06600189209,24.9680404663086,新屋區
1422,頂社保民宮,天上聖母,,,新北市,大鵬里頂社路18之3號旁,道教,03-2982579,廖永華,121.655799865723,25.2100601196289,萬里區
1423,景福宮,開漳聖王,,,桃園市,中正路208號,道教,03-3337552,簡征潭,121.310897827148,24.9953308105469,桃園區
1424,慈誠寺,釋迦牟尼佛,,,新北市,萬福里萬福路75巷60號,佛教,02-86626908,謝志源,121.598999023438,25.0107307434082,深坑區
1425,龍安宮,福德正神,,,新北市,龍鎮里岳王路68之1號旁,道教,032-974012,林文義,121.80931854248,25.1112823486328,瑞芳區
1426,慈德廟,蘇、許仙童公,,,新北市,水源里楓樹湖18之1號旁,道教,02-26236133,林慶雄,121.50129699707,25.189079284668,淡水區
1427,三福宮八方財神土地總廟,中壇元帥,,,桃園市,下田里9鄰三福一路52號,道教,03-4862938,彭桂英,121.065582275391,24.9995994567871,新屋區
1428,溪底里新興宮,天上聖母,,,新北市,溪底里溪底路6-2號,道教,02-24921715,吳蒼明,121.625602722168,25.1578998565674,萬里區
1429,中幅嶺頭福德宮,福德正神,,,新北市,中幅里中幅路20號之1,道教,02-24925931,謝嘉陽,121.68440246582,25.1645698547363,萬里區
1430,大順宮,三清道祖,,,新竹縣,富興村9鄰23號,道教,03-5806846,羅逢淼,120.98030090332,24.6877498626709,峨眉鄉
1431,竹蓮寺,普庵祖師,,,新竹市,竹蓮里2鄰竹蓮街100號,佛教,03-5628188,許修睿,120.970001220703,24.7988891601563,東區
1432,關西鎮學前街福德祠,福德正神,,,新竹縣,北斗里學前街1之1號,道教,03-5872587,劉邦土,121.174171447754,24.7949466705322,關西鎮
1433,天達堂,明明上帝,,,臺北市,九如里研究院路3段25巷8號,一貫道,02-27886293,李進益,121.616302490234,25.0362796783447,南港區
1434,萬善祠(頭重里),有應公,,,新竹縣,頭重里竹中路34之1號,道教,03-5826400,林振維,121.028472900391,24.7805824279785,竹東鎮
1435,寶雅宮,福德正神,,,新竹市,西雅里15鄰中和路109號,道教,03-5245181,溫萬吉,120.955497741699,24.8017292022705,北區
1436,慈雲寺,釋迦牟尼佛,,,新北市,海濱里濱二路56號,佛教,02-24979738,劉文祥,121.829902648926,25.117639541626,瑞芳區
1437,顯應祖師廟,顯應祖師,,,新北市,寶慶路32巷5弄5號,道教,02-29140246,劉新發,121.542999267578,24.9874496459961,新店區
1438,銀河洞,釋迦牟尼佛,,,新北市,銀河路30號,佛教,02-22171909,劉賢俊,121.573638916016,24.957218170166,新店區
1439,凌霄寶殿,無極聖祖,,,新北市,金圳里金敏40之3號,道教,02-26749321,林春合,121.402900695801,24.885799407959,三峽區
1440,港清宮,清府王爺,,,新竹市,港北里7鄰延平路3段145號,道教,-0988505303,彭文成,120.928398132324,24.8300800323486,北區
1441,新莊福營協天宮,關聖帝君,,,新北市,福營里4鄰福營路134號,道教,02-29016093,卓哲美,121.432678222656,25.0318336486816,新莊區
1442,永興宮,福德正神,,,新北市,永吉里18鄰鶯桃路206巷24弄27號旁,道教,02-26705638,林茂哲,121.338401794434,24.9593696594238,鶯歌區
1443,桃園樂天宮,中壇元帥,天上聖母,,桃園市,海湖里21鄰海湖東路312之1號,道教,03-3541646,徐東榮,121.271598815918,25.1045703887939,蘆竹區
1444,福正宮,福德正神,,,新北市,天泉2街36巷1號,道教,02-29016802,陳專森,121.415466308594,25.0249443054199,新莊區
1445,新北市石門雪山玄武廟,玄天上帝,,,新北市,富基里楓林40之2號,道教,02-26383377,阮信雄,121.540100097656,25.2862796783447,石門區
1446,和平宮,福德正神,,,新北市,仁德里和平街6巷8號之1,道教,02-26423916,黃清隆,121.663497924805,25.0715198516846,汐止區
1447,祥光寺,普庵祖師,,,臺北市,萬壽路63號,佛教,02-29390543,高榮華,121.588897705078,24.9883594512939,文山區
1448,新海福德宮,福德正神,,,新北市,德翠里龍泉街54巷7弄10號,道教,02-22561414,廖石松,121.456497192383,25.0266990661621,板橋區
1449,臺北蘆洲奉安宮,五年千歲,,,新北市,民和里永安北路一段66巷2號,道教,02-22819665,周國揚,121.476600646973,25.0767402648926,蘆洲區
1450,保安廟,延平郡王,,,新北市,和美街20之1號,道教,02-24902101,賴燕飛,121.911697387695,25.0823993682861,貢寮區
1451,三元宮,三官大帝,,,新竹縣,華龍村3鄰209號,道教,03-5931578,鄧陳振琳,121.141899108887,24.754280090332,芎林鄉
1452,四腳亭九玄宮,蘇府王爺,,,新北市,吉安里國宅新村大埔路17之1號,道教,02-24575704,吳和,121.765197753906,25.10080909729,瑞芳區
1453,太白宮,太白神君,,,新竹縣,大義里2鄰後面6號,道教,03-5562104,陳文和,120.96866607666,24.8633079528809,竹北市
1454,永昌宮,關聖帝君,,,新竹縣,大肚村永昌街80號,道教,03-5932575,羅政義,121.133567810059,24.7232074737549,橫山鄉
1455,天德宮,九天玄女,,,新竹縣,尚義里尚義街828號,道教,03-5561795,丁乙增,120.956848144531,24.8736553192139,竹北市
1456,法光寺,釋迦牟尼佛,,,臺北市,復勢里光復北路60巷20號,佛教,02-25791940,郭麗菊,121.556480407715,25.0578556060791,松山區
1457,乾坤宮,開漳聖王,,,新竹市,中隘里1鄰中華路六段647巷61號,道教,03-5371500,徐文禮,120.917602539063,24.7318706512451,東區
1458,徐媽廟,徐媽,,,新竹市,虎山里5鄰延平路二段517號,道教,03-5385637,楊田,120.92951965332,24.8061618804932,香山區
1459,罟寮福德宮,福德正神,,,新竹市,華江街19巷50號,道教,03-5308561,林月蓮,120.918701171875,24.8074207305908,香山區
1460,金山岩,普庵祖師,,,新北市,基山街199號,佛教,02-24976523,蘇進益,121.842964172363,25.1075668334961,瑞芳區
1461,慈玄宮,玄天上帝,,,新北市,六塊厝2之1號,道教,02-28011247,施鍊岸,121.450302124023,25.2406997680664,淡水區
1462,明烈宮,七夫人媽,,,新竹市,大庄里3鄰宮口街10號,道教,03-5307209,陳國明,120.922203063965,24.7932300567627,香山區
1463,潭底福德宮,福德正神,,,新北市,豐林街40之1號,道教,02-26831538,嚴添明,121.420799255371,24.9974994659424,樹林區
1464,慈玄寺,釋迦牟尼佛,,,新北市,中興路一段102號,佛教,02-29111087,郭明發,121.540802001953,24.9609107971191,新店區
1465,營盤福德宮,福德正神,,,新北市,福營路103號,道教,02-29069866,林炳庚,121.434173583984,25.0322608947754,新莊區
1466,福南宮,福德正神,,,新北市,南靖里文化路226巷16號之1,道教,02-86772819,鍾有煌,121.351997375488,24.9487705230713,鶯歌區
1467,天慶堂,明明上帝,,,新北市,龍岡里嵩陽街38號,一貫道,02-24941663,黃錫堃,121.906799316406,25.0171298980713,貢寮區
1468,大聖爺廟,齊天大聖,,,新北市,桂安街3之1號,道教,02-24991536,劉金定,121.962997436523,25.0206203460693,貢寮區
1469,勝安宮,瑤池金母,,,新竹市,埔前里16鄰牛埔北路37巷70號,道教,03-5386912,劉進田,120.940299987793,24.798900604248,香山區
1470,永和秀朗福德宮,福德正神,,,新北市,民富里民樂街74之1號,道教,02-29413917,林碧燕,121.527297973633,24.9981307983398,永和區
1471,威惠廟,開漳聖王,,,新北市,長源里柑腳21號,道教,02-24932082,林讚枝,121.804901123047,25.0145893096924,雙溪區
1472,溪南福龍宮,神農大帝,,,新竹縣,福興村6鄰圓山子100號,道教,03-5994647,甘士政,121.036514282227,24.9304885864258,新豐鄉
1473,福盛宮,福德正神,,,新竹縣,東海里東興路一段941號,道教,03-5503330,林振河,121.050926208496,24.8032169342041,竹北市
1474,松山福德宮,福德正神,,,臺北市,慈祐里饒河街92號,道教,02-27607306、27672381,郭良塗,121.574119567871,25.0503540039063,松山區
1475,上田寮福德祠,福德正神,,,桃園市,高榮里17鄰,道教,03-4643681,黃哲桶,121.16975402832,24.9386692047119,楊梅區
1476,永興宮,福德正神,,,新北市,備內街123號,道教,02-26817263,簡源昌,121.40535736084,24.9894638061523,樹林區
1477,玉敕后谷宮,天上聖母,,,新北市,廣興里小坑三路52之1號,道教,02-26669612,朱永立,121.517097473145,24.908130645752,新店區
1478,中華北極殿,玄天上帝,,,新北市,樂山里民和街113巷2號,道教,02-26806068,孫正豐,121.37850189209,24.9725494384766,樹林區
1479,鶯歌鎮惠隆宮,水德星君,,,新北市,建國里16鄰育英街98之2號,道教,02-26794182,郭明宗,121.344596862793,24.9537296295166,鶯歌區
1480,財團法人台灣省新竹縣新豐鄉永寧宮,玉皇大帝,,,新竹縣,永寧街22號,道教,03-5595680,徐統良,120.985191345215,24.9028625488281,新豐鄉
1481,財團法人台灣省台北縣觀音山凌雲禪寺,普庵祖師,,,新北市,凌雲路三段116號,佛教,02-22913771,林利倫,121.425399780273,25.127420425415,五股區
1482,德天宮,玄天上帝,,,基隆市,崇德路178巷21之26號,道教,02-24271812,許勝賢(暫代),121.73023223877,25.1285629272461,安樂區
1483,三民里福德宮,福德正神,,,基隆市,麥金路401之5號,道教,02-24312506,陳國金,121.720703125,25.1238708496094,安樂區
1484,安和福德宮,福德正神,,,基隆市,七賢里安和1街8號,道教,02-24323041,黃日郎,121.723258972168,25.1226596832275,安樂區
1485,中壢玄天宮,玄天上帝,,,桃園市,天祥3街6-1號,道教,03-4585710,王裕璋,121.222709655762,24.9459705352783,中壢區
1486,中壢天德宮,田都元帥,,,桃園市,中正路四段15之5號,道教,03-4988855,張普德,121.181701660156,24.9867191314697,中壢區
1487,陽明黃帝神宮,軒轅黃帝,,,臺北市,大同里豐年路1段20巷1號,軒轅教,02-28919050,林國基,121.498199462891,25.1343803405762,北投區
1488,永和聖明宮,玄天上帝,,,新北市,秀朗路二段24巷14號,道教,02-29293959,廖灑櫻,121.520401000977,25.002290725708,永和區
1489,卍聖寺,普庵祖師,,,桃園市,成功路43巷28號,佛教,03-4991429,陳冠宇,121.225189208984,24.8736381530762,龍潭區
1490,三元宮,三官大帝,,,桃園市,高原里高原路190巷110號,道教,03-4710812,游鍾華,121.200874328613,24.8356513977051,龍潭區
1491,指澤宮,廣澤尊王,,,新竹市,虎山里8鄰延平路二段681號,道教,03-5301969,鄭成光,120.922401428223,24.8049297332764,香山區
1492,延壽宮,倪府大人,,,新竹市,大湖里5鄰五福路一段200巷61號,道教,03-5182751,鄭國延,120.921798706055,24.7440605163574,香山區
1493,桃園縣蘆竹鄉田心土地正神廟,福德正神,,,桃園市,忠孝西路28號,道教,03-3226989,錢秋楓,121.292327880859,25.0442047119141,蘆竹區
1494,慧法寺,釋迦牟尼佛,,,新北市,平林里外平林14號,佛教,02-00000000,蘇秋土,121.858734130859,25.0377750396729,雙溪區
1495,東泰宮,福德正神,,,新北市,東林里粉寮路二段167號之1,道教,02-26012208,陳洪賓,121.404403686523,25.0885391235352,林口區
1496,白王爺廟,白王爺,,,新竹市,成功里8鄰勝利路92號,道教,03-5218441,楊富雄,120.968978881836,24.8010787963867,東區
1497,撫度山立善寺(原立善寺),釋迦牟尼佛,,,新竹縣,東山里9鄰湖肚2之1號,佛教,03-5873838,王千祥,121.198799133301,24.7892894744873,關西鎮
1498,平安齋廟,孚佑帝君,,,新北市,寶橋路140巷1之1號,道教,02-29116249,林琪瑞,121.548301696777,24.9760398864746,新店區
1499,淡水區玄玄廟,玄天上帝,,,新北市,蕃薯里安子內12之1號,道教,02-28011577,王壽喜,121.480499267578,25.2192192077637,淡水區
1500,宏龍宮,華陀真人,,,新北市,忠山里奎柔山路417號,道教,02-26224020,黃銣銡,121.464698791504,25.2042598724365,淡水區
1501,明聖道院,關聖帝君,,,桃園市,永佳路126號,道教,03-3413555,黃建發,121.281600952148,25.0055694580078,桃園區
1502,德馨宮,福德正神,,,新竹縣,竹義里福德街19號,道教,03-5517738,何林秋香,121.009056091309,24.835823059082,竹北市
1503,聯福宮,福德正神,,,新竹縣,中正西路861巷22之1號,道教,03-0000000,洪錦鋒,120.98021697998,24.8403759002686,竹北市
1504,財團法人台北市關渡宮,天上聖母,,,臺北市,關渡里知行路360號,道教,02-28581281,陳玉坤,121.463996887207,25.117639541626,北投區
1505,財團法人新北市三峽長福巖清水祖師公,清水祖師,,,新北市,長福街1號,道教,02-26711031,林東西,121.370399475098,24.9337997436523,三峽區
1506,財團法人台北市白雲禪寺,關聖帝君,,,臺北市,義安里安和路2段20巷2號,佛教,02-27043214,王永昌,121.552062988281,25.0320205688477,大安區
1507,財團法人新北市中和福和宮,神農大帝,,,新北市,廣福路112號,道教,02-22495338,游炎川,121.50170135498,25.001579284668,中和區
1508,新北市義天宮,天上聖母,,,新北市,永福里車路頭街150號,道教,02-22868146,劉文川,121.483703613281,25.0761699676514,三重區
1509,天后宮,天上聖母,,,新北市,福利里福德南路152號,道教,02-29758453,葉世賢,121.500701904297,25.0581302642822,三重區
1510,慈生堂,九皇大帝,,,新北市,萬壽里安和路58巷19號,道教,02-29722335,張新森,121.500297546387,25.0699005126953,三重區
1511,普安堂,普庵祖師,,,新北市,祖田里9鄰龍泉路47號,佛教,02-22670219,李鶯嬌,121.416297912598,24.9442691802979,土城區
1512,上玄道院,三清道祖,,,新北市,清化里石門路63號,道教,02-22616159,林蔡雪花,121.456901550293,24.9623508453369,土城區
1513,軒轅教基隆神宮,軒轅黃帝,,,基隆市,復興路84巷22之4號,軒轅教,02-24373995,柳素連、簡民團,121.726501464844,25.1440601348877,中山區
1514,基隆仙洞福德宮,福德正神,,,基隆市,仁安街5號,道教,02-24264633,李銘德,121.748107910156,25.1451683044434,中山區
1515,慈雲寺,普庵祖師,,,基隆市,安一路177巷45號,佛教,02-24221127,李林寶玉,121.731498718262,25.1322002410889,安樂區
1516,一德福德宮,福德正神,,,臺北市,中央北路4段515巷3弄臨16-1號,道教,02-28913991,陳榮華,121.469299316406,25.1281509399414,北投區
1517,雲來寺,釋迦牟尼佛,,,臺北市,奇岩里公館路186號,佛教,02-28939966,洪鴻榮,121.50700378418,25.1285095214844,北投區
1518,清水巖福正宮,福德正神,,,新北市,江北里汐萬路一段312號,道教,02-86921653,李世昌,121.650199890137,25.0752506256104,汐止區
1519,新屋善永寺,釋迦牟尼佛,,,桃園市,中華南路1段121巷326號,佛教,03-4971388,游法明,121.115997314453,24.9648399353027,新屋區
1520,重威宮,三府王爺,,,新北市,萬里里瑪鍊下街51號,道教,02-24924686,陳來生,121.688621520996,25.179443359375,萬里區
1521,道光山永德寶宮,孚佑帝君,,,新北市,溪底里烏塗炭9號,道教,032-921603,陳梅,121.637985229492,25.1508884429932,萬里區
1522,福安宮,福德正神,,,新竹市,頂埔里4鄰牛埔路170巷48號,道教,03-5387765,曾信雄,120.951103210449,24.8006992340088,香山區
1523,財團法人基隆極樂寺,釋迦牟尼佛,,,基隆市,信二路270號,佛教,-0988301762,蕭淑真,121.747299194336,25.1308403015137,信義區
1524,財團法人台灣省基隆市濟安宮,關聖帝君,,,基隆市,義七路42號,道教,02-24242473,,121.753746032715,25.1317119598389,信義區
1525,財團法人臺灣省臺北縣白雲寺,釋迦牟尼佛,,,新北市,白雲里白雲路283號,佛教,02-26474890,朱紫明,121.652000427246,25.0412406921387,汐止區
1526,財團法人台北市金萬成團,玄天上帝,,,臺北市,民權里民權西路184巷1號,道教,02-25576116,謝進財,121.518898010254,25.0623207092285,大同區
1527,台北佛教蓮社,阿彌陀佛,,,臺北市,東光里南京東路5段59巷29弄4號,佛教,02-27681522,陳玉峰,121.559555053711,25.0529499053955,松山區
1528,財團法人台北市淨土宗善導寺,釋迦牟尼佛,,,臺北市,梅花里忠孝東路1段23號,佛教,02-23415758,了中,121.524841308594,25.0449657440186,中正區
1529,財團法人台北市天德堂總堂,一氣宗主,,,臺北市,黎和里和平東路3段596號,天德聖教,02-23771332,何少華,121.562149047852,25.0139827728271,大安區
1530,財團法人新北市三重區慈惠宮,蘇府王爺,,,新北市,文化北路17號之1,道教,02-29722797,林煒財,121.5,25.0636501312256,三重區
1531,財團法人新北市中和區樂天宮,釋迦牟尼佛,孚佑帝君,,新北市,中興街263巷38號,佛教,02-22475535,游充仁,121.499397277832,24.9868507385254,中和區
1532,財團法人台灣省桃園縣桃園蓮華寺,普庵祖師,,,桃園市,慈文里慈文路410號,佛教,03-3550595,康全發,121.298500061035,25.0039901733398,桃園區
1533,保安宮,廣澤尊王,,,新北市,安坑里建安91之1號,道教,02-26727386,范孝賢,121.455902099609,24.920560836792,三峽區
1534,天南寺,釋迦牟尼佛,,,新北市,介壽路二段138巷169號,佛教,02-86762556,洪鴻榮,121.395401000977,24.9332294464111,三峽區
1535,龍雲宮,天上聖母,,,新北市,五龍里民義路二段22巷19弄21號之2,道教,02-22935676,張年德,121.419898986816,25.1002006530762,五股區
1536,沛陂金安宮,金府王爺,,,新北市,福安街15號,道教,02-22683075,謝石金,121.420097351074,24.9650192260742,土城區
1537,蓮香寺,燃燈佛,釋迦牟尼佛,彌勒佛,新北市,五寮里詩朗16之2號,佛教,02-26729109,郭素貞,121.372299194336,24.8523197174072,三峽區
1538,聖弘寺,釋迦牟尼佛,,,新北市,國校里國校路41號,佛教,02-29111732,許春玉,121.537902832031,24.9553604125977,新店區
1539,妙祥禪寺,普庵祖師,,,新北市,新潭路三段231巷15號,佛教,02-29149419,黃曙紅,121.504898071289,24.9028797149658,新店區
1540,漁澳福德宮,福德正神,,,新北市,龜吼里漁澳16之2號,道教,02-24922797,郭美鈴,121.686874389648,25.1949806213379,萬里區
1541,海清宮,閻羅天子包青天,,,新北市,忠孝里大同南路78巷23號,道教,02-89761766,黃麟富,121.497299194336,25.0594902038574,三重區
1542,清溪福德宮,福德正神,,,新北市,清溪里青雲路183巷,道教,02-22600638,彭成熒,121.459457397461,24.9828758239746,土城區
1543,元聖宮,三官大帝,,,新竹縣,清水里7鄰汶水坑136號,道教,03-0919260115,羅字森,121.142715454102,24.8670425415039,新埔鎮
1544,松山霞海城隍廟,城隍爺,,,臺北市,慈祐里八德路4段439號,道教,02-27652046,沈宗陳,121.57022857666,25.0498714447021,松山區
1545,蘆洲文武大眾爺廟,大眾爺,,,新北市,成功路156之1號,道教,02-22859290,楊蓮福,121.471702575684,25.0833206176758,蘆洲區
1546,財團法人台北市妙德蘭若,釋迦牟尼佛,,,臺北市,永福里仰德大道2段41巷24號,佛教,02-28316390,陳桂蓉,121.541900634766,25.1020908355713,士林區
1547,財團法人桃園市大溪區龍山寺,普庵祖師,,,桃園市,信義路1125號,佛教,03-3875881,陳榮光,121.324203491211,24.8943996429443,大溪區
1548,財團法人台灣省台北縣玄吉寺,釋迦牟尼佛,,,新北市,安和里28鄰安興路131巷1號,佛教,02-22112590,馮天祿,121.51530456543,24.9801387786865,新店區
1549,財團法人台灣省桃園縣中壢仁海宮,天上聖母,,,桃園市,新街里延平路198號,道教,03-4523356,李合鑑,121.227897644043,24.962329864502,中壢區
1550,財團法人台灣省基隆市海印寺,釋迦牟尼佛,,,基隆市,崇德路10巷68號,佛教,02-24234227,駱賢齊,121.727600097656,25.1300296783447,安樂區
1551,財團法人台北市至善堂,普庵祖師,,,臺北市,延平里保安街49巷16號,佛教,02-25570903,施建仁,121.51203918457,25.0583972930908,大同區
1552,財團法人台北市聖觀寺,準提菩薩,,,臺北市,光能里赤峰街33巷1號,佛教,02-25588066,林麗貞,121.519401550293,25.053840637207,大同區
1553,廣明寺,釋迦牟尼佛,,,新北市,廣明里中興路一段68號,佛教,02-29188450,林瑞蘭,121.53980255127,24.9597492218018,新店區
1554,淡水黃帝神宮,軒轅黃帝,,,新北市,水碓子34之1號,,02-26212315,洪志昇,121.486297607422,25.2266693115234,淡水區
1555,天宏宮,玉皇大帝,,,新竹市,軍功里8鄰建功一路31號,道教,03-5710095,胡漢龑,120.997901916504,24.7974395751953,東區
1556,代勸堂,關聖帝君,,,新竹縣,新鳳村10鄰燥坑19號,道教,03-5921729,劉阿鍊,121.100700378418,24.7662792205811,芎林鄉
1557,玄義宮,玄天上帝,,,新北市,潭邊里9鄰小粗坑15號旁,道教,02-26632096,陳宗正,121.681900024414,24.9818000793457,石碇區
1558,北山福德宮,福德正神,,,新北市,康寧街89號,道教,02-26417256,王三福,121.620101928711,25.06662940979,汐止區
1559,觀玉堂,普庵祖師,,,新北市,長安路77巷19號,道教,02-29410153,邱長吉,121.668983459473,25.0786952972412,汐止區
1560,財團法人台北市妙道院,釋迦牟尼佛,,,臺北市,新庄里農安街87號,佛教,02-25945420,林康月,121.528846740723,25.0649814605713,中山區
1561,財團法人新北市烏來妙心寺,釋迦牟尼佛,,,新北市,烏來里烏來街71號,佛教,02-26616397,陳東鍠,121.552597045898,24.8647308349609,烏來區
1562,財團法人台北市松山慈祐宮,天上聖母,,,臺北市,慈祐里八德路4段761號,道教,02-27669212,陳玉峰,121.577697753906,25.0510597229004,松山區
1563,財團法人台北市雙境廟,福德正神,,,臺北市,松江里松江路235巷22號,道教,02-25026491,康車,0.0,0.0,中山區
1564,財團法人台北市智仁宮,關聖帝君,,,臺北市,國慶里昌吉街95巷23號,道教,02-25919870,蔡逸槐,121.509696960449,25.0663108825684,大同區
1565,新竹市振湖福德宮,福德正神,,,新竹市,樹下里9鄰牛埔南路428-1號,道教,03-5387197,葉國昇,120.931900024414,24.7921390533447,香山區
1566,無極靈山台,瑤池金母,,,新北市,粗坑里湖興路111號,道教,02-26666919,詹高秀蘭,121.559303283691,24.9356803894043,新店區
1567,深圳玄天宮,玄天上帝,,,桃園市,深圳里4鄰20號,道教,-0928565633,林煥琛,121.011932373047,24.9563694000244,新屋區
1568,無極靈天宮,瑤池金母,,,新北市,格頭里12鄰荖寮20號,道教,02-26651996,廖明坤,121.619590759277,24.9594421386719,石碇區
1569,華蓮寺,普庵祖師,,,新竹縣,嘉樂村11鄰102號,佛教,03-5841375,鍾德亨,121.204498291016,24.7079372406006,尖石鄉
1570,紫霞堂,普庵祖師,,,新竹市,寶山路380巷15號,佛教,03-5257040,鄭埱精,120.986297607422,24.7852897644043,東區
1571,瓊林慶臨宮,福德正神,,,新北市,瓊林路48號,道教,02-22056696,許正雄,121.447303771973,25.0296802520752,新莊區
1572,三元宮,三官大帝,,,新北市,埤林里裕民路147號,道教,02-22662827,黃永昌,121.45189666748,24.986270904541,土城區
1573,南天行政世界道場,關聖帝君,,,新北市,安坑里建安140之2號,道教,02-26681093,邱金和,121.465698242188,24.9143905639648,三峽區
1574,新莊潮江寺,普庵祖師,,,新北市,興漢里14鄰碧江街47號,佛教,02-29973916,林正德,121.451499938965,25.0330905914307,新莊區
1575,忠順廟,保儀尊王,,,新北市,義民里公園路10號,道教,02-26416900,鄭梓建,121.658996582031,25.0685195922852,汐止區
1576,財團法人台北市靈源寺,濟公活佛,,,臺北市,四育里虎林街26巷5號,佛教,02-27676091,林園,121.576622009277,25.0468215942383,信義區
1577,財團法人天德堂,一氣宗主,,,新竹縣,德昌街松柏村236號,天德聖教,03-5592862,范增榮,120.983001708984,24.8682403564453,新豐鄉
1578,財團法人台北市中崙福成宮,福德正神,,,臺北市,福成里市民大道4段71號,道教,02-27516796,何春長,121.547004699707,25.0453071594238,松山區
1579,財團法人台北市中華佛教文化館,釋迦牟尼佛,,,臺北市,溫泉里光明路276號,佛教,02-28912550,洪鴻榮,121.510299682617,25.1364898681641,北投區
1580,財團法人台北市福佑宮,福德正神,,,臺北市,誠安里安東街32號,道教,02-27715335,林榮三,121.542503356934,25.0442199707031,大安區
1581,德林寺,釋迦牟尼佛,,,新北市,尚德里三和路三段85號,佛教,02-29725706,劉菊美,121.494499206543,25.0721893310547,三重區
1582,長祥宮,五顯大帝,,,桃園市,長祥路1096號,道教,03-4773866,范姜群會,121.118896484375,24.9586200714111,新屋區
1583,大鵬天護宮,三官大帝,,,新北市,大鵬里萬里加投149之3號,道教,02-24985246,李聰明,121.645698547363,25.2140998840332,萬里區
1584,龍安宮,玉皇大帝,,,新北市,龍洞街38之1號,道教,02-24909450,張阿井,121.915702819824,25.1114292144775,貢寮區
1585,顯安巖祖師廟,顯應祖師,,,桃園市,樂善里樂安街1號,佛教,03-3281858,黃世宗,121.381736755371,25.0524272918701,龜山區
1586,建華高峰福德祠,福德正神,,,新竹市,高峰里寶山路142之1號,道教,03-5220246,蔡德坤,120.97526550293,24.7922897338867,東區
1587,覺明寺,普庵祖師,,,新北市,豐年街51巷17弄1號,佛教,02-22016055,呂仁和,121.44750213623,25.03244972229,新莊區
1588,姜寮福地,福德正神,,,新竹市,復興里17鄰經國路一段398之1號,道教,039-6830710,戴文燦,120.981300354004,24.8150806427002,東區
1589,樟山寺,普庵祖師,,,臺北市,老泉街45巷29號,佛教,02-29361116,陳金圳,121.560897827148,24.9774894714355,文山區
1590,板橋區大井頭福德祠,福德正神,,,新北市,重慶路269巷13號,道教,02-29594378,簡連恭,121.463798522949,24.9995193481445,板橋區
1591,石頭厝福德宮,福德正神,,,新北市,安利街26號旁,道教,02-29155967,陳誠忠,121.519401550293,24.974609375,新店區
1592,屈尺福德宮,福德正神,,,新北市,屈尺里屈尺路161之3號,道教,02-26668019,林義清,121.54239654541,24.9220600128174,新店區
1593,鶯歌福德宮,福德正神,,,新北市,東鶯里文化路325巷3號,道教,02-86781978,陳正茂,121.352600097656,24.9519596099854,鶯歌區
1594,財團法人萬慶巖清水祖師廟,清水祖師,,,臺北市,萬慶街124號,道教,02-29328612,高昌倫,121.536697387695,24.9950408935547,文山區
1595,迪毅堂,徐元帥,,,新北市,流芳里館前西路92號,道教,02-29677397,林公世,121.457397460938,25.0073108673096,板橋區
1596,混元宮,玄天上帝,,,基隆市,西定路322巷2號,道教,02-24229272,謝木村,121.729972839355,25.1388072967529,中山區
1597,明德宮,楊府聖王,,,臺北市,老泉街45巷27之1號,道教,02-29394451,黃輝雄,121.578796386719,24.9700107574463,文山區
1598,金剛宮,四面金剛佛,,,新北市,富基里崁子腳41之3號,道教,02-26382076,許裕仁,121.533699035645,25.2866096496582,石門區
1599,台北石靈宮,石靈大帝,,,新北市,漁光村13鄰中心崙16之1號,道教,02-26657053,林信章,121.777099609375,24.9413108825684,坪林區
1600,玉明宮,楊府聖王,,,新北市,明志里明志路2段320巷12號,道教,02-29031355,陳明輝,121.425300598145,25.0463695526123,泰山區
1601,福興宮,福德正神,,,基隆市,暖暖街133之1號,道教,02-24571596,陳建興,121.736999511719,25.0993595123291,暖暖區
1602,財團法人台灣省台北縣新店市廣照禪寺,釋迦牟尼佛,,,新北市,廣明里6鄰中興路1段98號,佛教,02-29111046,蔡侯鳳鳴,121.54069519043,24.9602241516113,新店區
1603,財團法人新北市頂埔妙覺禪寺,燃燈佛,釋迦牟尼佛,彌勒佛,新北市,大暖坑14號,道教,02-22681149,楊錦英,121.418998718262,24.9524097442627,土城區
1604,財團法人台灣省新竹縣橫山鄉九讚頭國王宮,三山國王,,,新竹縣,新興村新興街62巷6號,道教,03-5934637,曾鑑杰,121.141716003418,24.7166652679443,橫山鄉
1605,聖山寺,釋迦牟尼佛,,,新北市,福隆里東興街30之1號,佛教,02-24991901,釋星道,121.950401306152,25.0173797607422,貢寮區
1606,芎林福德社,福德正神,,,新竹縣,芎林村15鄰99-1號,道教,03-5921926,江范木火,121.0771484375,24.7754058837891,芎林鄉
1607,基礎忠恕道院,明明上帝,,,桃園市,兔坑村大棟山路111號,一貫道,03-3591111,黃錫堃,121.372703552246,24.992000579834,龜山區
1608,財團法人新竹內天后宮,天上聖母,,,新竹市,興南里西門街184號,道教,03-5244909,林振森,120.96216583252,24.8007564544678,北區
1609,開天宮,盤古爺,,,新北市,新店里新店路65號,道教,02-29138934,高銘桂,121.538597106934,24.9519996643066,新店區
1610,真武壇,玄天上帝,,,新北市,北園里西圳街二段41巷1號,道教,02-26803849,林水清,121.388298034668,24.9610595703125,樹林區
1611,聖天宮,瑤池金母,,,新北市,坡內里保安街2段45巷101之1號,道教,02-26813559,賴子聖,121.406646728516,24.9940395355225,樹林區
1612,東林靜修宮,清水祖師,,,新北市,桂安街7-4號,道教,02-24941556,游明倫,121.968803405762,25.0181407928467,貢寮區
1613,永修精舍,釋迦牟尼佛,,,新竹市,境福街141巷10號,佛教,03-5319052,楊漢珩,120.959701538086,24.8187808990479,北區
1614,光耀佛堂,彌勒佛,,,桃園市,後湖里3鄰25之7號,一貫道,03-4773739,范姜群源,121.084999084473,24.9863090515137,新屋區
1615,財團法人中華民國佛教金剛乘蓮花精舍,釋迦牟尼佛,,,新北市,中央新村中央路6街38號 ,佛教,02-29172329,陳黛虹,121.533073425293,24.9782810211182,新店區
1616,財團法人台北市朱厝崙福聚宮,福德正神,,,臺北市,力行里龍江路55巷21號,道教,02-27215792,邱陳龍,121.541580200195,25.0508251190186,中山區
1617,財團法人台北市士林神農宮,神農大帝,,,臺北市,前街舊佳里74號,道教,02-28324955,何逸松,0.0,0.0,士林區
1618,財團法人台灣省基隆市樂仙宮,孚佑帝君,,,基隆市,南榮路134巷3號,道教,-0963582035,張蔡襄,121.74340057373,25.1180992126465,仁愛區
1619,財團法人台北市雙福宮,福德正神,,,臺北市,雙連里雙連街37號,佛教,-0933909573,蘇國華,121.519096374512,25.0587997436523,大同區
1620,財團法人新北市噶瑪三乘法輪中心,普庵祖師,,,新北市,中安里中和路378巷16號,佛教,02-29213129,吳敏弘,121.51139831543,25.0015201568604,中和區
1621,五華宮,包府千歲,,,新竹縣,五豐里五豐街17巷1號,道教,03-5950455,古邱傳,121.081085205078,24.7445316314697,竹東鎮
1622,金福宮,福德正神,,,新北市,石山里五號路253之1號,道教,02-24961841,呂條枝,121.856399536133,25.1127700805664,瑞芳區
1623,蕃仔澳天福宮,天上聖母,,,新北市,深澳里深澳路197之3號,道教,02-24974575,游俊宏,121.819801330566,25.1339206695557,瑞芳區
1624,法王寺,釋迦牟尼佛,,,桃園市,上湖里14鄰高鐵南路十段320號,佛教,03-4728139,董素菁,121.142997741699,24.9048500061035,楊梅區
1625,樹林南寮福德宮,福德正神,,,新北市,坡內里保安街二段45巷53號,道教,02-26834486,黃秀玉,121.412803649902,24.9972896575928,樹林區
1626,廣欣福德宮,福德正神,,,新北市,平廣路284號,道教,02-29672122,簡寬德,121.504455566406,24.8862972259521,新店區
1627,長福岩,清水祖師,,,新北市,廣興路66巷7弄1號,道教,02-26667246,林銘年,121.538597106934,24.9139003753662,新店區
1628,廣濟寺,釋迦牟尼佛,,,新北市,丹鳳里壽山路89號,佛教,02-29019008,廖菊枝,121.408798217773,25.0331192016602,新莊區
1629,獅岩宮,有應公,,,新竹市,東香里2鄰獅頭5-1號,道教,03-5382461,孫進壽,120.959083557129,24.7740211486816,香山區
1630,昭靈廟,城隍爺,,,新北市,基山里汽車路11號,道教,02-24971557,林添麟,121.845397949219,25.1097393035889,瑞芳區
1631,北極玄聖宮,玄天上帝,,,新北市,賢孝里淡金路四段590號,道教,02-28011928,王木榮,121.45189666748,25.228479385376,淡水區
1632,中崙福順宮,福德正神,,,臺北市,南京東路3段303巷8弄臨10號,道教,02-27211768,卓富全,121.547500610352,25.0528392791748,松山區
1633,福德祠,福德正神,,,桃園市,上華里中正路上華段90巷25號,道教,03-4802793,戴順龍,121.22339630127,24.8521404266357,龍潭區
1634,龍安祠,福德正神,,,新北市,龍安里瑞芳街4號,道教,04-24977704,許萬富,121.806701660156,25.1099891662598,瑞芳區
1635,爪峰里福德宮,福德正神,,,新北市,爪峰里三爪子坑路194號旁,道教,02-24061551,吳國忠,121.806297302246,25.1052093505859,瑞芳區
1636,皇意宮,瑤池金母,,,新北市,直潭里灣潭路28之1號,道教,02-29142364,高天文,121.54109954834,24.9455699920654,新店區
1637,真武山受玄宮,玄天上帝,,,新北市,廣興里廣興路156號,道教,02-26667896,胡樹名,121.536399841309,24.9092903137207,新店區
1638,至善大道院,彌勒佛,,,新北市,薏仁坑路59之1號,一貫道,02-22150181,呂富雄,121.490798950195,24.9655704498291,新店區
1639,忠福宮,開漳聖王,,,新北市,中幅里中福56號,道教,02-24921582,翁朝根,121.680603027344,25.1715202331543,萬里區
1640,昭靈宮,靈官大帝,,,新北市,萬里里瑪鋉路197號,道教,02-24924686,張金農,121.690399169922,25.1790199279785,萬里區
1641,台北府城隍廟,城隍爺,,,臺北市,慈祐里虎林街3號,道教,02-27692220、27672195,周永興,121.576194763184,25.0495128631592,松山區
1642,慶安宮,延平郡王,,,新北市,真理里延平街13號,道教,02-24902616,許吳却,121.923797607422,25.0549201965332,貢寮區
1643,覺海寺,釋迦牟尼佛,,,桃園市,自強東路147號,佛教,03-3292990,陳泳玲,121.343399047852,24.9950103759766,龜山區
1644,桃園縣龜山鄉德修宮,三清道祖,,,桃園市,明興街221巷19弄28號,道教,03-3192352,黃正園,121.334098815918,24.9835205078125,龜山區
1645,香山寺,阿彌陀佛,觀世音菩薩,大勢至菩薩,新竹市,朝山里13鄰大湖路52巷29號,道教,03-5374873,林文德,120.915496826172,24.7628002166748,東區
1646,蘆洲福安宮,福德正神,,,新北市,福安里民權路臨70號,道教,02-22880001,李隆豐,121.475196838379,25.0872592926025,蘆洲區
1647,福德祠,福德正神,,,桃園市,蘆興里7鄰蘆興街487巷36號,道教,03-3227055,邱進賢,121.277679443359,25.0409202575684,蘆竹區
1648,龍潭龍元宮,神農大帝,,,桃園市,龍潭里東龍路246號,道教,03-4897071,林錦浪,121.214027404785,24.8651466369629,龍潭區
1649,三官宮,三官大帝,,,桃園市,三水里11鄰龍新路三水段244巷16號,道教,03-4717417,宋建墅,121.152458190918,24.8444423675537,龍潭區
1650,五和宮,天上聖母,,,新竹縣,五龍村7鄰富林路一段138巷23弄19號,道教,03-5931730,馮堯浪,121.1201171875,24.7363529205322,芎林鄉
1651,玉山寺,普庵祖師,,,新北市,中興路一段98號,佛教,02-29116156,翁春美,121.53929901123,24.9603996276855,新店區
1652,三湖福德宮,福德正神,,,新北市,安康路三段517號旁,道教,02-22156266,廖景春,121.482299804688,24.9484004974365,新店區
1653,養源堂,釋迦牟尼佛,,,新北市,屈尺里康雅崙路1號之1,佛教,02-26667682,連善良,121.540802001953,24.9253597259521,新店區
1654,樹林市德仁廟,三官大帝,,,新北市,北園里9鄰佳園路二段87號,道教,02-26803354,詹茂雄,121.390899658203,24.959379196167,樹林區
1655,財團法人桃園市大園區大園仁壽宮,感天上帝,,,桃園市,大園里大觀路18號,道教,03-3862164,陳根德,121.196449279785,25.0654621124268,大園區
1656,八德三元宮,三官大帝,,,桃園市,興仁里3鄰中山路2號,道教,03-3683690,呂林小鳳,121.28450012207,24.9302501678467,八德區
1657,震安宮,五年千歲,,,新北市,埤塘里忠義路24之1號,道教,02-22697179,何明儒,121.440101623535,24.9700794219971,土城區
1658,埤林廣福宮,福德正神,,,新北市,埤林里學享街6巷1號之1,道教,02-22646337,黃永吉,121.451103210449,24.9872703552246,土城區
1659,土城瑞坤宮,天上聖母,,,新北市,瑞興里四川路29巷34之1號,道教,02-89675676,李旺榮,121.454696655273,24.9949893951416,土城區
1660,集慶宮,保儀尊王,,,新北市,中民里石碇子埔43號,道教,02-26631070,周明瑞,121.673202514648,25.0083408355713,石碇區
1661,正覺寺,普庵祖師,,,新北市,昇高里烏月路89號,佛教,02-26621277,蔡淑美,121.632598876953,25.0053806304932,深坑區
1662,樹林慈聖宮,天上聖母,,,新北市,育英里文化街18號,道教,02-26819853,廖振輝,121.419700622559,24.9875297546387,樹林區
1663,元寶山仙石府,劉海蟾祖師,,,新北市,靜安路一段352號,道教,02-26638033,曾啟峰,121.698799133301,25.0170097351074,石碇區
1664,板橋慈后宮,天上聖母,,,新北市,長江路一段106巷7號,道教,02-22568757,黃良誥,121.459899902344,25.0293197631836,板橋區
1665,妙雲宮,王禪老祖,,,新北市,重慶路37號,道教,02-29579995,施萬浤,121.461402893066,25.0077495574951,板橋區
1666,麗旭宮,福德正神,,,基隆市,東信路73號,道教,02-24661431,李宏仁,121.764999389648,25.1275596618652,信義區
1667,富南宮,天上聖母,,,臺北市,新富里研究院路1段112、114號,道教,02-27837134,張朝買,121.615600585938,25.0492095947266,南港區
1668,慈仁宮,天上聖母,,,新北市,田寮洋街13號,道教,02-24941358,吳清同,121.922302246094,25.0255298614502,貢寮區
1669,北和宮,地藏王菩薩,,,新竹縣,中山路竹北里296之2號,道教,03-5516017,彭吉台,121.016090393066,24.8380260467529,竹北市
1670,國王宮(橫山村),三山國王,,,新竹縣,橫山村3鄰56號,道教,03-5933535,陳(方方土)億,121.121299743652,24.7158107757568,橫山鄉
1671,天靈宮,關聖帝君,,,新北市,石門路57號,道教,02-22612709,吳幸福,121.459579467773,24.9626502990723,土城區
1672,光明王寺,釋迦牟尼佛,,,新北市,添福里177與215號中間,佛教,02-22519317,陳宗禮,121.379486083984,24.8941802978516,三峽區
1673,新竹市前溪福德宮,福德正神,,,新竹市,中華路一段2巷57之1號,道教,03-5323828,吳榮瑞,120.993881225586,24.819953918457,東區
1674,新朝宮,天上聖母,,,基隆市,中山二路105巷78之1號,道教,02-24288610,陳宜均,121.737815856934,25.1401996612549,中山區
1675,指南宮,孚佑帝君,,,臺北市,萬壽路115號,道教,02-29399922,高超文,121.586601257324,24.9798603057861,文山區
1676,板橋天秀宮(已廢止),女媧娘娘,,,新北市,信義里6鄰信義路臨52之2號,道教,02-29527218,王金鎮,121.457000732422,24.9941806793213,板橋區
1677,財團法人台北市景福宮,福德正神,,,臺北市,圓山里德惠街11號,道教,02-25969325,翁清標,121.525497436523,25.0667552947998,中山區
1678,財團法人台北市北投區慈生宮,神農大帝,,,臺北市,立農里立農街一段321號,道教,02-28227410,潘同發,121.50700378418,25.1196899414063,北投區
1679,蘆洲護天宮,地母至尊,,,新北市,復興里復興路227巷26號,道教,02-22829437,李益義,121.479499816895,25.0911197662354,蘆洲區
1680,中隘村福德爺,福德正神,,,新竹市,中隘里中華路六段703巷23弄7號,道教,03-5371541,劉丁來,120.918930053711,24.729606628418,香山區
1681,保福宮,保生大帝,,,新北市,仁愛路202巷11號,道教,02-29227524,陳水生,121.508796691895,25.0129299163818,永和區
1682,修聖宮,瑤池金母,,,新北市,塗潭里新潭路一段120巷16之1號,道教,02-29402568,簡進益,121.527603149414,24.9362907409668,新店區
1683,昭惠廟,開漳聖王,,,新北市,龍門街74之1號,道教,02-24941556,蔡阿樹,121.931297302246,25.02659034729,貢寮區
1684,仙伯公福德宮,福德正神,,,新竹縣,大林路26巷21號,道教,03-5963518,黃政枝,121.088638305664,24.7315883636475,竹東鎮
1685,龜山北天宮,池府王爺,,,桃園市,龍壽里16鄰寶福路關公嶺9-1號,道教,03-3204477,梁炎和,121.389923095703,25.0036125183105,龜山區
1686,南天宮,關聖帝君,,,桃園市,上林里溝東100之1號,道教,03-4792375,邱雲煥,121.208488464355,24.8634700775146,龍潭區
1687,妙善寺,釋迦牟尼佛,觀世音菩薩,,桃園市,高上里幼獅路2段55巷79號,佛教,03-4644397,張逸誠,121.169502258301,24.931209564209,楊梅區
1688,碧潭寺,釋迦牟尼佛,,,新北市,廣明里中興路一段98之1號,佛教,02-29116705,涂清依,121.540702819824,24.9603595733643,新店區
1689,玄武殿,玄天上帝,,,新北市,北園里西圳街二段97巷19之1號,道教,02-26801105,楊秀彬,121.386703491211,24.9572601318359,樹林區
1690,鶯歌南興宮,福德正神,,,新北市,建國路257號,道教,02-26792882,王明義,121.347801208496,24.953369140625,鶯歌區
1691,財團法人新北市樹林鎮南宮,五年千歲,,,新北市,千歲街2號,道教,02-26812360,許正秋,121.424896240234,24.9952697753906,樹林區
1692,財團法人台北市臺疆樂善壇,關聖帝君,,,臺北市,永樂里長安西路263號,道教,02-25566523,黃榮海,121.510871887207,25.0521259307861,大同區
1693,廣行宮,清水祖師,,,桃園市,大仁里4鄰仁和街211巷1弄18號,道教,03-3625157,李秀明,121.320503234863,24.9697608947754,八德區
1694,德興宮,福德正神,,,新北市,貨饒里中央路1段45巷3號,道教,02-22611547,黃文龍,121.448600769043,24.9902801513672,土城區
1695,慈德寺,釋迦牟尼佛,,,新北市,中埔里中園街86巷1號,佛教,02-26711213,簡圓,121.367301940918,24.9249305725098,三峽區
1696,長壽山慈悲宮,無極聖祖,,,新北市,溪北里介壽路三段210號,道教,02-86766972,陳偉琪,121.405097961426,24.9454002380371,三峽區
1697,姑娘廟,魏姑娘,,,新北市,永定里大湖格22之1號,道教,02-26631678,曾國棟,121.698196411133,25.0166206359863,石碇區
1698,玉旨堂,軒轅黃帝,,,新北市,潭邊里小粗坑2之1號,道教,02-26631590,蔡麗珠,121.671501159668,24.9824295043945,石碇區
1699,佛光山寶塔寺,釋迦牟尼佛,,,桃園市,中山村五福街57號,佛教,03-4800333,黃泰裕,121.219177246094,24.8654117584229,龍潭區
1700,無極勝安宮,明明上帝,,,新竹市,東香里玄奘路61巷12號,道教,03-5384477,黃珀基,120.945640563965,24.7736778259277,香山區
1701,崇華堂天恩道院,明明上帝,彌勒佛,,新竹市,五福路一段185巷50號,一貫道,03-5337412,盧凱諒,120.920570373535,24.7468338012695,香山區
1702,牛埔庄福德宮,福德正神,,,新竹市,埔前里4鄰長福街24號,道教,03-5376055,鄭佳仁,120.940994262695,24.797004699707,香山區
1703,玄天宮(大義里),玄天上帝,,,新竹縣,大義里鳳岡路二段150巷186號,道教,03-5593231,蕭金來,120.984977722168,24.8632583618164,竹北市
1704,廣欽山成佛禪寺,釋迦牟尼佛,,,新竹縣,沙坑村19鄰大平地76之6號,佛教,03-5811426,陳永鑫,121.170516967773,24.7429599761963,橫山鄉
1705,廣德堂,地藏王菩薩,,,桃園市,山腳里1鄰黃帝街321巷11號,道教,03-3692095,古阿腰,121.295852661133,25.0909843444824,蘆竹區
1706,五賢宮(崇義里),三府王爺,,,新竹縣,鳳岡路五段57巷72號,道教,03-5561035,曾華鐘,120.947898864746,24.8606357574463,竹北市
1707,福村宮,福德正神,,,新竹市,虎山里1鄰延平路二段219巷50號,道教,03-5389355,蔡金湖,120.936096191406,24.8048496246338,香山區
1708,長興宮,王爺,,,新竹市,鹽水里8鄰長興街498號,道教,03-5372146,莊清旗,120.904602050781,24.7455997467041,香山區
1709,鎮北宮,天上聖母,,,新北市,龜吼里玉田4之3號,道教,02-24923232,陳品騰,121.679397583008,25.1854591369629,萬里區
1710,承天農林禪寺,釋迦牟尼佛,,,新北市,建德里中正一路466號,佛教,02-26792442,謝國燿,121.364799499512,24.9564094543457,鶯歌區
1711,財團法人新北市智成忠義宮,關聖帝君,,,新北市,埔坪里智成街18號,道教,02-26362218,江慶能,121.503402709961,25.2568607330322,三芝區
1712,財團法人新北市金包里慈護宮,天上聖母,,,新北市,大同里金包里街16號,道教,02-24982510,游忠義,121.640296936035,25.2208003997803,金山區
1713,財團法人桃園新屋天后宮,天上聖母,,,桃園市,笨港里2鄰聖賢路45號,道教,03-4769415,李煥昌,121.026496887207,24.9756450653076,新屋區
1714,財團法人永修精舍,釋迦牟尼佛,,,新竹市,境褔街141巷10號,佛教,03-5319052,楊漢珩,120.959899902344,24.8199005126953,北區
1715,行修宮(財團法人台北市行天宮三峽分宮),關聖帝君,,,新北市,嘉添里白雞155號,道教,02-26711476,吳岳羽,121.401802062988,24.9050407409668,三峽區
1716,財團法人台北市中庄仔福德宮,福德正神,,,臺北市,中庄里吉林路236巷35號,道教,02-25413031,林春裕,121.531402587891,25.0600700378418,中山區
1717,清發堂,瑤池金母,,,新北市,清化里石門路39之1號,道教,02-22618106,羅文貴,121.457649230957,24.9647274017334,土城區
1718,善息寺,孚佑帝君,,,新北市,祖田里龍泉路91號,道教,02-22684546,蘇素珍,121.440299987793,24.9407196044922,土城區
1719,法雲寺,釋迦牟尼佛,,,臺北市,新生南路1段165巷5-1號,佛教,02-27086600,黃承玉,121.533515930176,25.0342864990234,大安區
1720,港北福德祠,福德正神,,,新竹市,港北里1鄰港北2街2號,道教,0912-533999,韋陳麗芬,120.928604125977,24.8317184448242,北區
1721,浩然道院,明明上帝,,,新竹縣,橫山村橫山街2段69巷2號,一貫道,03-5933692,徐炎(方方土),121.121803283691,24.7180805206299,橫山鄉
1722,石碇三濟宮,中壇元帥,,,新北市,鳥塗里半路店1之1號,道教,02-26633532,王致榮,121.667602539063,25.0077209472656,石碇區
1723,財團法人新北市大觀書社,文昌帝君,,,新北市,黃石里西門街5號,道教,02-29685028,林瀚東,121.45580291748,25.0114707946777,板橋區
1724,高峰里福德宮,福德正神,,,新竹市,高峰里4鄰高峰路556號,道教,03-5256605,戴權源,120.98380279541,24.7765102386475,東區
1725,種福宮,福德正神,,,新竹市,中華路2段170巷2-1號,道教,03-5328232,蔡錦地,120.977798461914,24.8068904876709,東區
1726,靈安宮,三王爺,,,新竹市,原興路200號,道教,03-5712477,郭珍輝,121.001907348633,24.8117923736572,東區
1727,慈祐宮(媽祖宮),天上聖母,,,新北市,新莊路218號,道教,02-29923293,陳圓光,121.452903747559,25.0344104766846,新莊區
1728,板橋北極壇,玄天上帝,,,新北市,社後里中正路80巷1弄7號,道教,02-29680470,黃宗正,121.456901550293,25.0150108337402,板橋區
1729,財團法人台北市法雨寺,釋迦牟尼佛,,,臺北市,泉源里登山路108號,佛教,02-28916762,陳志明,121.517700195313,25.1475791931152,北投區
1730,財團法人台灣省基隆市海會寺,釋迦牟尼佛,,,基隆市,八堵路1巷83號,佛教,02-24572529,李柏蒼,121.738296508789,25.1101398468018,暖暖區
1731,財團法人台北市聖靈寺,釋迦牟尼佛,,,臺北市,汀州路3段10號,佛教,02-23655959,陳月蟬,121.527900695801,25.0180397033691,中正區
1732,財團法人新北市三重區先嗇宮,神農大帝,,,新北市,五谷王北街77號,道教,02-29952345,李乾龍,121.475898742676,25.0501194000244,三重區
1733,財團法人台北市覺修宮,孚佑帝君,,,臺北市,老師里重慶北路3段340號,道教,02-25928042,陳忠源,121.513648986816,25.0761775970459,大同區
1734,三重區天武宮,玄天上帝,,,新北市,永福街211巷7號(暫厝),道教,02-22875651,蕭景堂,121.479598999023,25.0742206573486,三重區
1735,重慶慈惠堂,瑤池金母,,,新北市,永寧里永和街103號,道教,02-22676566,陳漢宇,121.434577941895,24.9651756286621,土城區
1736,大勝寺,普庵祖師,,,新北市,有木里有木6之8號,佛教,02-26720022,謝淑櫻,121.42310333252,24.8693008422852,三峽區
1737,龍文禪寺,釋迦牟尼佛,,,新北市,員林里員林街76號,佛教,02-22603003,洪春悅,121.44450378418,24.9768104553223,土城區
1738,五穀先帝廟,神農大帝,,,新北市,土城里和平路11號,道教,02-22606768,李木火,121.443298339844,24.9739608764648,土城區
1739,萬善祠(三重里),有應公,,,新竹縣,三重里三重路5巷16號,道教,03-5824349,林維生,121.058250427246,24.7657375335693,竹東鎮
1740,尊聖宮,玉皇大帝,,,桃園市,樂善里2鄰嶺頭6之1號,道教,03-3284350,吳進桂,121.381301879883,25.0518894195557,龜山區
1741,開台金山寺(三級古績),普庵祖師,,,新竹市,科園里26鄰金山寺路201號,佛教,03-5780566,饒圳榮,121.015129089355,24.7773418426514,東區
1742,新竹市東區白沙屯福德宮,福德正神,,,新竹市,中華路一段78巷47弄14號旁,道教,03-5321465,戴淇松,120.992301940918,24.8177604675293,東區
1743,磺潭里公館崙福德宮,福德正神,,,新北市,磺潭里公館崙25號左前方100公尺,道教,02-24986476,謝金藏,121.63330078125,25.2127208709717,萬里區
1744,台北石靈宮,石靈大帝,,,新北市,漁光里13鄰中心崙16之1號,道教,02-26657053,林信章,121.777099609375,24.9413108825684,坪林區
1745,紫雲巖慈德宮,普庵祖師,,,新北市,泰林路三段303號,道教,02-22962794,郭國傳,121.409400939941,25.0666599273682,泰山區
1746,福安宮,福德正神,,,基隆市,尚仁街75號,道教,02-24313272,陳有文(暫代),121.733200073242,25.1109600067139,暖暖區
1747,福壽宮,福德正神,,,新北市,深澳里深澳路67之1號前,道教,09-32074014,蕭天賜,121.818099975586,25.130069732666,瑞芳區
1748,德厚宮,福德正神,,,新竹縣,愛勢村中山路二段195號,道教,-0919346921,范成吉 聯絡人:劉廷珍,121.045341491699,24.9048805236816,湖口鄉
1749,慈鳳宮,瑤池金母,,,新北市,保安街二段337巷15號,道教,02-26883513,李福財,121.410003662109,25.0076103210449,樹林區
1750,光明寺,普庵祖師,,,新北市,坡內里光明街62號,佛教,02-26823980,郭敏芳,121.412498474121,24.9914207458496,樹林區
1751,新莊安國宮,劉府王爺,,,新北市,頭前里5鄰頭前路2巷5號,道教,02-29936656,葉坤城,121.468399047852,25.0530395507813,新莊區
1752,財團法人理教總公所台灣清心堂公所,聖宗古佛,,,臺北市,新起里中華路1段174號,理教,02-23319174,陳俊宏,121.507141113281,25.0403575897217,萬華區
1753,慈福宮,福德正神,,,新北市,忠孝里仁愛街16號之5,道教,02-29961966,林長川,121.444297790527,25.0354804992676,新莊區
1754,財團法人台北市南福宮,天上聖母,,,臺北市,南福里和平西路1段55巷1號,道教,02-23920979,王建男,121.51830291748,25.0268898010254,中正區
1755,老崩山天賜宮,周倉聖爺,,,新北市,山溪里老崩山30號之1,道教,02-26383912,蔡文賢,121.557601928711,25.2771091461182,石門區
1756,海山天后宮,天上聖母,,,新北市,海山里長安街138巷1弄臨83之5號,道教,02-29573045,洪正明,121.474800109863,25.0111999511719,板橋區
1757,廣玄宮,玄天上帝,,,新北市,東安里漢生東路193巷97號,道教,02-29559593,吳麗花,121.473197937012,25.0121593475342,板橋區
1758,上山福德祠,福德正神,,,新竹縣,上山村6鄰文山路869巷5之1號,道教,03-5922260,彭達棟,121.072639465332,24.7846584320068,芎林鄉
1759,龜山九天宮,九天玄女,,,桃園市,振興路1089巷27號,道教,03-3590199,陳進隆,121.370338439941,25.0287475585938,龜山區
1760,慈音寺,普庵祖師,,,新北市,大寮路63巷11號,佛教,02-24972027,吳強台,121.778900146484,25.0928401947021,瑞芳區
1761,萬福宮,福德正神,,,新北市,吉慶里中央路48號,道教,02-24579654,李福卿,121.761901855469,25.1029396057129,瑞芳區
1762,安德宮,福德正神,,,新北市,東和里中山路266號旁,道教,02-24978490,林光明,121.799621582031,25.1076488494873,瑞芳區
1763,財團法人台北市永靜廟,孚佑帝君,,,臺北市,集英里錦西街9號,道教,02-25416038,陳世民,121.521438598633,25.0604286193848,中山區
1764,財團法人桃園市仁德宮,三官大帝,,,桃園市,中和南路70號,道教,03-3294023,王有任,121.338798522949,24.9949607849121,龜山區
1766,財團法人台北市天師宮,正一天師,,,臺北市,國慶里延平北路3段99號,道教,02-25956499,郭添福,121.511009216309,25.0677680969238,大同區
1767,湖口中興德厚宮,福德正神,,,新竹縣,中興村永順街28之1號,道教,03-5985203,黃乾海,121.034576416016,24.8691520690918,湖口鄉
1768,福靈宮,福德正神,,,桃園市,員本里12鄰新富5街22號,道教,03-4723901,王文松,121.092918395996,24.9356174468994,楊梅區
1769,山佳法照宮,法主聖君,,,新北市,新興街11巷10號,道教,02-26807663,陳文玉,121.401702880859,24.9736194610596,樹林區
1770,樹林慈恩宮,地藏王菩薩,,,新北市,彭興里太平路227號,道教,02-86845616,王永結,121.418502807617,24.9767894744873,樹林區
1771,樹林區樹德宮,福德正神,,,新北市,樹東里博愛街33號,道教,02-26823456,王吉二,121.42749786377,24.99241065979,樹林區
1772,聖榮宮,榮府王爺,,,新北市,尖山里尖山路258巷42號,道教,02-26792366,卓木川,121.341598510742,24.9468402862549,鶯歌區
1773,雲陽寺,釋迦牟尼佛,,,新北市,員潭里銀河路23號,佛教,02-22173773,郭永進,121.573303222656,24.9573707580566,新店區
1774,財團法人新北市福慧寺,釋迦牟尼佛,,,新北市,三興里三興路77號,佛教,02-26892744,陳頂果,121.396202087402,25.0147094726563,樹林區
1775,財團法人台北市法華寺,普庵祖師,,,臺北市,仁德里西寧南路194號,佛教,02-23120437,黃書瑋,121.505966186523,25.0387859344482,萬華區
1776,北台寶凰宮,地母至尊,,,新北市,同榮里黎頭窠7之3號,道教,02-22970951,許錫倫,121.423698425293,25.0581493377686,泰山區
1777,指修宮,釋迦牟尼佛,,,基隆市,過港路234號,佛教,02-24572358,周雪,121.73509979248,25.1091499328613,暖暖區
1778,青草湖王爺宮,黃府王爺,,,新竹市,柴橋里4鄰明湖路488號,道教,03-5203330,林明焜,120.967163085938,24.7775268554688,東區
1779,善導庵,釋迦牟尼佛,,,新北市,頭前里化成路554巷53號,佛教,02-85223630,林美雪,121.467597961426,25.0552425384521,新莊區
1780,佛光山擇善寺,普庵祖師,,,新北市,全安里新莊路543巷11號,佛教,02-22070859,張燕鳳,121.447944641113,25.0322284698486,新莊區
1781,無極金源靈山聖寶殿,玉皇大帝,,,新北市,樟坑湖路48號,道教,02-26682552,林嫄宜,121.443313598633,24.9295558929443,三峽區
1782,三峽一元宮,關聖帝君,,,新北市,溪北里介壽路三段172巷32之3號,道教,02-86716199,游志益,121.406867980957,24.9441184997559,三峽區
1783,五王宮,五府千歲,,,基隆市,中山一路9號,道教,02-24252061,吳錫鏗,121.736679077148,25.1301193237305,中山區
1784,獨山宮,三山國王,,,基隆市,文明路95號,道教,02-24281290,何梓鴻,121.72859954834,25.1572704315186,中山區
1785,木柵集應廟,保儀尊王,,,臺北市,保儀路76號,道教,02-29396572,張進福,121.568496704102,24.9873695373535,文山區
1786,台北市大慈佛社,釋迦牟尼佛,,,臺北市,試院路4巷22號,佛教,02-22366040,楊芷芸,121.549102783203,24.9905109405518,文山區
1787,北海聖安宮,孚佑帝君,,,新北市,尖鹿里尖子鹿臨76之1號,道教,02-26381437,練瑞草,121.57080078125,25.2971496582031,石門區
1788,文昌祠,文昌帝君,,,新北市,文德里碧江街20號,道教,02-29987556,黃林玲玲,121.455101013184,25.0345592498779,新莊區
1789,妙濟寺,普庵祖師,,,新北市,乾華里內阿里磅1號,佛教,02-26383591,曾清松,121.592300415039,25.2540798187256,石門區
1790,臺北鎮北宮,五府千歲,,,新北市,崑崙里存德街58號,道教,02-26814045,邱奕旺,121.43090057373,24.9913997650146,板橋區
1791,聯庄廣惠宮,三山國王,,,新竹縣,上坪里6鄰48號,道教,03-5963003,巫春維,121.120826721191,24.6625690460205,竹東鎮
1792,振天宮,天上聖母,,,桃園市,舊路里振興路1278巷29號,道教,03-3297108,鄭創發,121.377799987793,25.0291595458984,龜山區
1793,東大福德宮,福德正神,,,新竹市,東大路2段217巷56弄3號,道教,03-5316835,鄭榮一,120.964775085449,24.8160076141357,北區
1794,屯山古聖廟行忠堂,關聖帝君,,,新北市,忠山里椿子林18號,道教,02-26212649,李宇宙,121.480400085449,25.2010803222656,淡水區
1795,鎮凡宮,普庵祖師,,,新北市,雙坑里翠峰路55巷34之1號,道教,02-22178591,顏福禧,121.585777282715,24.9446277618408,新店區
1796,合興宮,福德正神,,,新北市,龍鳳里中正路893巷136號之1,道教,02-29015520,陳義政,121.41259765625,25.0218696594238,新莊區
1797,光明禪寺,釋迦牟尼佛,,,新北市,光明里碇南路2段鹿窟巷17號,佛教,02-26631298,柯來春,121.665901184082,25.0322608947754,石碇區
1798,蘆洲保和宮,保生大帝,,,新北市,保和里成功路182號,道教,02-22812536,李讚生,121.471397399902,25.084020614624,蘆洲區
1799,蘆洲慈惠堂,瑤池金母,,,新北市,正義里中原路18號,道教,02-22811231,林根陣,121.460403442383,25.0833492279053,蘆洲區
1800,桃園龍德宮,天上聖母,,,桃園市,富國路一段8號,道教,03-3136488,丁素珠,121.277503967285,25.0267887115479,蘆竹區
1801,慈惠聖道院,瑤池金母,,,桃園市,東龍街166號,道教,03-4990466,陳炎生,121.249397277832,24.8841590881348,龍潭區
1802,永福宮,三官大帝,,,桃園市,三坑里三坑老街66號,道教,03-4712420,劉修甲,121.248474121094,24.8444061279297,龍潭區
1803,福德祀,福德正神,,,桃園市,錦中里13鄰南崁路222號,道教,03-3524071,黃國煌,121.293685913086,25.0486259460449,蘆竹區
1804,源福宮,福德正神,,,桃園市,坑口里20鄰源福街55號,道教,03-3543478,徐垂勇,121.259704589844,25.099630355835,蘆竹區
1805,靈鷲山無生道場,釋迦牟尼佛,,,新北市,福連里香蘭街7之1號,佛教,02-24991100,釋星道,121.972900390625,25.017650604248,貢寮區
1806,坪頂大湖福德宮,福德正神,,,桃園市,福德街2號,道教,03-3281403,李鴻模,121.357109069824,25.0502471923828,龜山區
1807,佛慈禪寺,釋迦牟尼佛,,,新北市,新峰里員山子路39號,佛教,02-24976080,蕭錦,121.821296691895,25.0961799621582,瑞芳區
1808,水尾福德宮,福德正神,,,新北市,北深路三段280號旁,道教,02-26621774,林銘智,121.597686767578,25.0051956176758,深坑區
1809,五顯慈恩堂,五顯大帝,,,新北市,光興里光興街402號,道教,02-26881350,簡麗卿,121.400299072266,25.007640838623,樹林區
1810,永寧福德宮,福德正神,,,新北市,永寧里永平街1號,道教,02-22688516,江金崙,121.42749786377,24.9634609222412,土城區
1811,福興宮,福德正神,,,臺北市,光信里延吉街263號,道教,02-27037651,蕭金水,121.556968688965,25.0340137481689,大安區
1812,竹北市廣聖宮,天上聖母,,,新竹縣,十興里勝利2路85號,道教,03-5501996,徐銥詅,121.026924133301,24.8248062133789,竹北市
1813,慶山慈惠堂,瑤池金母,,,新北市,外柑里三叉坑13號,道教,02-24934055,吳進賢,121.834182739258,24.9985427856445,雙溪區
1814,五股聖天宮,天上聖母,,,新北市,五股里民義路1段51號,道教,02-22932438,李世仁,121.435997009277,25.0847206115723,五股區
1815,玄聖殿,瑤池金母,,,新北市,尚德里仁愛街112巷10號,道教,02-29725421,吳建勳,121.494697570801,25.0741500854492,三重區
1816,大化佛堂,普庵祖師,,,新北市,華潭街21號,佛教,02-29141542,王贊煜,121.528656005859,24.9524269104004,新店區
1817,紫竹禪寺,準提菩薩,,,新北市,五峰路67巷16號,佛教,02-29126889,郝寶華,121.547172546387,24.9679870605469,新店區
1818,寶寧宮,三代祖師,,,新北市,光榮街4巷15號,道教,02-26886463,李文柱,121.412300109863,25.0044193267822,樹林區
1819,鶯歌高明寺,釋迦牟尼佛,,,新北市,建德里中正一路437號,佛教,02-86781333,凃傑生,121.362396240234,24.9574794769287,鶯歌區
1820,財團法人台北湄聖宮,天上聖母,,,臺北市,榮德里武成街124號,道教,02-23077996,施振欽,121.493850708008,25.0204811096191,萬華區
1821,護安宮,楊府聖王,,,新北市,永安里北宜路六段小金瓜寮巷2-1號,道教,02-26651947,楊武雄,121.657302856445,24.9375305175781,石碇區
1822,南聖宮,南嶽聖侯,,,新北市,國隆里大仁街27號,道教,02-29711483,朱清發,121.492401123047,25.0649700164795,三重區
1823,南天府五府千歲,五府千歲,,,新北市,光正里環河南路220之4號,道教,02-29764559,李金福,121.493797302246,25.0530204772949,三重區
1824,萬人同廟,東嶽大帝,,,新北市,永寧里永安街81號,道教,02-22673448,吳金山,121.431701660156,24.9631996154785,土城區
1825,西盛庄福德宮,福德正神,,,新北市,民安西路410巷6號,道教,02-22022707,吳原豪,121.42847442627,25.009614944458,新莊區
1826,三元宮,三官大帝,,,新竹縣,沙坑村中豐路三段243號,道教,03-5811410,溫正道,121.166961669922,24.7458171844482,橫山鄉
1827,新莊頭前庄福德宮,福德正神,,,新北市,福基里化成路750號,道教,02-85218390,陳慶隆,121.465599060059,25.0578193664551,新莊區
1828,石門桃源殿,中央混元真母靈源天尊,,,新北市,乾華里內阿里磅55號,道教,02-26381160,鄭金城,121.579696655273,25.2473907470703,石門區
1829,保星慈明宮,林府千歲,,,新竹縣,西濱路1段193巷66號,道教,03-5564889,蔡秀梅,120.944000244141,24.8553161621094,竹北市
1830,福正宮,福德正神,,,新北市,真理里美灩山街35號,道教,02-24903608,蔡和順,121.925003051758,25.0564193725586,貢寮區
1831,忠聖宮,關聖帝君,,,新北市,福連里香蘭街31之1號,道教,02-24991976,郭正成,121.984596252441,25.0208606719971,貢寮區
1832,福龍宮,三山國王,,,新竹縣,柯湖路三段291號,道教,03-5826753,呂建宏,121.037231445313,24.7592926025391,竹東鎮
1833,修善堂,普庵祖師,,,新竹縣,員崠里東峰路446巷29號,佛教,03-5955086,張阿進,121.096618652344,24.7213268280029,竹東鎮
1834,下寮福安宮,福德正神,,,新北市,智慧里大同路2段169巷40號之1,道教,02-26437744,周石田,121.650299072266,25.0652503967285,汐止區
1835,三元宮,三官大帝,,,新竹縣,員崠里東峰路403巷9之1號,道教,03-5968843,林勳義,121.097839355469,24.7098503112793,竹東鎮
1836,北星福德宮,福德正神,,,新竹市,城北街137巷15號,道教,03-5426787,彭金全,120.960861206055,24.8121643066406,北區
1837,頂溪埔福德宮,福德正神,,,新竹市,前溪里經國路一段210之1號,道教,03-5354298,呂寬義,120.987243652344,24.8155689239502,東區
1838,福嚴精舍,釋迦牟尼佛,,,新竹市,明湖路365巷3號,佛教,03-5201240,楊宏毅,120.970703125,24.7830505371094,東區
1839,新莊英靈祠,有應公,,,新北市,中正路97號,道教,02-22763693,周茂男,121.46070098877,25.038890838623,新莊區
1840,板橋港尾福德宮,福德正神,,,新北市,港尾里中正路254之1號,道教,02-22729117,黃茂松,121.455596923828,25.0193996429443,板橋區
1841,板橋區港仔嘴福德宮,福德正神,,,新北市,縣民大道三段247巷80號,道教,02-22519778,郭小萍,121.48210144043,25.0268802642822,板橋區
1842,真武廟,玄天上帝,,,新北市,光復里光復街192巷11號,道教,02-29628769,吳秀陽,121.486099243164,25.0200691223145,板橋區
1843,湄洲臺北北后宮,天上聖母,,,新北市,安業街215巷12號,道教,02-22114689,涂仁樑,121.523399353027,24.9724407196045,新店區
1844,財團法人樹林千霞山海明寺,普庵祖師,,,新北市,海明街22號,佛教,02-26812839,許却,121.410301208496,24.9923992156982,樹林區
1845,四腳亭福興宮,福德正神,,,新北市,吉慶里月眉路10之1號,道教,02-24570801,黃俊強,121.76000213623,25.1046009063721,瑞芳區
1846,新北市樹林勝安宮,瑤池金母,,,新北市,大安路386巷11號,道教,02-26814164,翁英銘,121.414398193359,24.9901008605957,樹林區
1847,樹林賢聖宮,普庵祖師,,,新北市,備內街176之3號,道教,02-26811528,簡明華,121.400703430176,24.9913692474365,樹林區
1848,文山清水巖,清水祖師,,,新北市,新烏路二段451號,道教,02-26667506,王瑞妙,121.550300598145,24.911190032959,新店區
1849,靈山媽祖廟,天上聖母,,,新北市,員潭里銀河路86之1號,道教,02-22177999,陳信均,121.580703735352,24.9596099853516,新店區
1850,新莊鳳山宮,武德英侯秀江公,,,新北市,化成里化成路116號,道教,02-29918296,陳金隆,121.465599060059,25.0445194244385,新莊區
1851,新北市鶯歌區宏德宮,孫臏祖師,,,新北市,北鶯里中正一路301巷1號,道教,02-26794029,黃銣銡,121.355903625488,24.9571704864502,鶯歌區
1852,財團法人台北市艋舺龍山寺,普庵祖師,,,臺北市,富民里廣州街211號,佛教,02-23025162,黃書瑋,121.499900817871,25.0367794036865,萬華區
1853,財團法人桃園市南天壇玉京聖殿,九天玄女,,,桃園市,富竹村富宏街290巷58弄65號,道教,091-0155029,,121.262397766113,25.0373497009277,蘆竹區
1854,峰德宮,福德正神,,,新竹市,高峰里15鄰高峰路386巷60弄2之1號,道教,03-5236852,謝漢漾,120.979797363281,24.7791194915771,東區
1855,新莊慈惠堂,瑤池金母,,,新北市,興漢里碧江街82號,道教,02-29926636,詹博顯,121.451202392578,25.0329608917236,新莊區
1856,西安嚴顯應祖師廟,顯應祖師,,,新北市,瓊林南路305巷18號,道教,02-29066581,石聯旺,121.435096740723,25.0053005218506,新莊區
1857,慈航紀念堂,慈航菩薩,,,新北市,秀山里秀峰路247號,佛教,02-26412605,吳淑貞,121.663902282715,25.0596008300781,汐止區
1858,二二八公園福德宮,福德正神,,,臺北市,黎明里懷寧街109號旁,道教,02-23715624,黃阿北,121.514099121094,25.0409507751465,中正區
1859,普陀寺,阿彌陀佛,觀世音菩薩,大勢至菩薩,桃園市,高山里梅高路120巷3弄92號,佛教,03-4750959,許玉清,121.148582458496,24.9245357513428,楊梅區
1860,道山宮,福德正神,,,新北市,吉祥街16號,道教,093-6232918,陳美錡,121.396102905273,24.973669052124,樹林區
1861,妙慧精舍,釋迦牟尼佛,,,新北市,北宜路2段615巷20號,佛教,02-29118960,胡美昊,121.570899963379,24.9574604034424,新店區
1862,新莊順恩宮,五夫人媽,,,新北市,幸福里中華路二段138之1號,道教,02-29944539,林平男,121.453193664551,25.0495281219482,新莊區
1863,財團法人艋舺清水巖祖師廟,清水祖師,,,臺北市,新起里康定路81號,佛教,02-23711517,周昇平,121.502639770508,25.0402812957764,萬華區
1864,永和宮,三官大帝,,,桃園市,大平里8鄰永和路65巷19號,道教,03-4712053,黃新萬,121.245056152344,24.8276405334473,龍潭區
1865,鎮新宮,福德正神,,,新竹市,南大里4鄰西大路72巷1號,道教,03-5225791,江雲水,120.971000671387,24.7974262237549,東區
1866,真修寺,釋迦牟尼佛,,,臺北市,試院路134號,佛教,02-22368348,周呈熹,121.546203613281,24.9905891418457,文山區
1867,石門洞五龍宮,玉皇大帝,,,新北市,尖鹿里中路37之2號,道教,02-26381024,范重,121.568901062012,25.2966003417969,石門區
1868,石門代天府,關聖帝君,,,新北市,山溪里大溪墘9之3號,道教,02-26380636,鄭錫銘,121.553100585938,25.2747993469238,石門區
1869,比南山普明堂,普庵祖師,,,新北市,備內街113號,佛教,02-26814351,沈泰鴻,121.400398254395,24.9903297424316,樹林區
1870,新莊中港福德宮,福德正神,,,新北市,新北大道4段2號,道教,02-85218810,蔣根煌,121.450897216797,25.0606708526611,新莊區
1871,全安宮,福德正神,,,新北市,全安里新莊路523號,道教,02-22012772,李宏勇,121.447898864746,25.0333690643311,新莊區
1872,中正宮,福德正神,,,新北市,二橋里中正三路291巷15弄4號旁,道教,02-86772645,林清松,121.330001831055,24.9357395172119,鶯歌區
1873,保佑宮,池府王爺,,,新北市,保佑里中正路192巷8號,道教,02-22837158,陳光銘,121.467796325684,25.0886192321777,蘆洲區
1874,清海宮,三官大帝,,,新北市,水河里民族路422巷82弄9號,道教,02-22855020,李次雄,121.473899841309,25.0942192077637,蘆洲區
1875,護國九天宮,九天玄女,,,臺北市,舊莊里南深路91巷33號,道教,02-27865494,林文松,121.627601623535,25.0369892120361,南港區
1876,妙華山慈惠堂,瑤池金母,,,桃園市,兔坑村大同路1851號,道教,03-2509128,陳松漠,121.381240844727,24.9910278320313,龜山區
1877,忠仁廟,保儀尊王,,,新北市,新峰里三爪子坑路309之2號,道教,02-24976247,吳金龍,121.818298339844,25.10498046875,瑞芳區
1878,崇德宮,三府王爺,,,新北市,直潭里灣潭路12之2號,道教,02-29117227,李永傳,121.53929901123,24.9468994140625,新店區
1879,旨雲宮,開漳聖王,,,新北市,東山里東和街73號,道教,02-86858855,陳敏男,121.392097473145,24.9868698120117,樹林區
1880,淨律寺,阿彌陀佛,,,新北市,樂山里中山路3段180號,佛教,02-26807361,宋淑婉,121.388198852539,24.9704704284668,樹林區
1881,北投代天府,五府千歲,,,臺北市,大同里豐年路1段35之1號,道教,02-28912767,陳永章,121.497703552246,25.1338996887207,北投區
1882,褒忠亭,義民,,,桃園市,南崁村南崁路166號,道教,03-3228643,曾文敬,121.294319152832,25.0476169586182,蘆竹區
1883,吉德宮,福德正神,,,新北市,永吉里鶯桃路285巷26弄2號,道教,02-26785599,游兆權,121.334197998047,24.9591808319092,鶯歌區
1884,財團法人桃園市平鎮區東勢建安宮,開漳聖王,,,桃園市,建安里17鄰平東路1段98之1號,道教,03-4501174,何庚生,0.0,0.0,平鎮區
1885,台灣新北玉佛寺,釋迦牟尼佛,,,新北市,山溪里九芎林5之1號,佛教,02-26383765,簡坤良,121.559997558594,25.2677898406982,石門區
1886,台北南港慈岩宮,吳府千歲,,,臺北市,九如里研究院路3段161巷12號,道教,02-26517997,謝伯麟,121.615196228027,25.0259208679199,南港區
1887,仁安宮,三山國王,,,新北市,新港街26號53-1號,道教,02-24902606,郭朝慶,121.925796508789,25.055419921875,貢寮區
1888,五福宮,財神爺,,,桃園市,五福里5鄰五福路1號,道教,03-3227521,陳宗賢,121.29517364502,25.0537261962891,蘆竹區
1889,忠義廟,池府王爺,,,新北市,忠義里長安街106號,道教,02-22887979,陳丕哲,121.461097717285,25.0813694000244,蘆洲區
1890,楊梅天德堂,彌勒佛,,,桃園市,秀才里12鄰秀才路845巷85弄5號,一貫道,03-4755951,周榮輝,121.13826751709,24.886697769165,楊梅區
1891,日興宮,關聖帝君,,,新北市,安康路3段530號,道教,02-22152596,廖金枝,121.482276916504,24.9494590759277,新店區
1892,福興宮,福德正神,,,新北市,光興里光榮街2之1號,道教,02-26882754,楊金鐘,121.412803649902,25.0042095184326,樹林區
1893,永安宮,福德正神,,,新北市,二橋里中正三路37號旁,道教,02-86777032,秦泉,121.338996887207,24.9418601989746,鶯歌區
1894,財團法人台灣省桃園市楊梅奉天宮,關聖帝君,,,桃園市,上田里1鄰中華南路2段480巷50號,佛教,03-4786338,温國臺,121.123611450195,24.9367771148682,楊梅區
1895,竹塹社采田福地,七姓公王爺,,,新竹縣,新國里中正西路219巷38號,道教,03-5551478,衛金石,121.00439453125,24.8391895294189,竹北市
1896,白境福地宮,福德正神,,,新竹縣,長青路一段333巷6號,道教,03-5563403,莊根生,120.958190917969,24.8503322601318,竹北市
1897,竹北市隆昌宮,福德正神,,,新竹縣,竹仁里中正東路161巷2之1號,道教,03-0000000,鄭仁相,121.016021728516,24.834867477417,竹北市
1898,保安宮,廣澤尊王,,,新竹縣,中正西路266號,道教,03-5558369,陳火南,120.997924804688,24.8422756195068,竹北市
1899,蓮花寺,普庵祖師,,,新竹縣,尚義里蓮花路925號,佛教,03-5561805,童進財,120.961166381836,24.8765544891357,竹北市
1900,福德宮,福德正神,,,新竹縣,東海里東興路2段588巷30號,道教,03-5502300,吳明增,121.050880432129,24.8026161193848,竹北市
1901,福海宮,天上聖母,,,桃園市,福德路38號,道教,03-4550836,林仲秋,121.258743286133,24.9740543365479,中壢區
1902,慈航宮,普庵祖師,,,新北市,嶺腳里田子22號,道教,02-24952815,林傳宗,121.747100830078,25.0283203125,平溪區
1903,大德廟,大德禪師,,,基隆市,大德路42號,道教,02-24513172,余松次,121.690002441406,25.081859588623,七堵區
1904,泰山巖,顯應祖師,,,基隆市,華友一里新一路94號,道教,02-24512559,陳志益,121.670845031738,25.0948696136475,七堵區
1905,中股福德宮,福德正神,,,基隆市,瑪東里大同街22之1號邊,道教,02-24565189,謝連堂(暫代),121.69889831543,25.1209697723389,七堵區
1906,靜心院,關聖帝君,,,新北市,五龍里民義路二段37號之58,道教,02-22924431,林季臻,121.413101196289,25.1004390716553,五股區
1907,五股玄天宮,玄天上帝,,,新北市,更寮里中興路2段9巷8號,道教,02-29885178,蔡書杰,121.462600708008,25.0737400054932,五股區
1908,天濟宮,玉皇大帝,,,基隆市,復興街113巷17號,道教,02-24268390,羅慶安,121.75309753418,25.1246395111084,仁愛區
1909,悟玄宮,王禪老祖,,,基隆市,復興街73巷91號,道教,02-24252117,林王秀鳳,121.754203796387,25.1250095367432,仁愛區
1910,光德宮,福德正神,,,基隆市,南新街230之4號,道教,02-24228738,林勇松,121.745445251465,25.122091293335,仁愛區
1911,洪福宮,福德正神,,,新北市,下福139號之11,道教,02-26062251,周坤城,121.299301147461,25.1168899536133,林口區
1912,淡水保安堂,達摩祖師,,,新北市,屯山里番社前4之7號,道教,02-28010093,李永清,121.474197387695,25.236629486084,淡水區
1913,九天宮,九天玄女,,,新北市,行忠路136號之1,道教,02-26252721,蔡正宗,121.455497741699,25.1991996765137,淡水區
1914,妙覺寺,釋迦牟尼佛,,,新北市,民生里樹梅坑6之2號,佛教,02-28095925,方淑美,121.473297119141,25.1461906433105,淡水區
1915,福元宮,廣澤尊王,,,桃園市,福元街246號,道教,03-3551614,陳炎坤,121.315696716309,25.0095901489258,桃園區
1916,長德祠,福德正神,,,桃園市,中正5街212號,道教,092-1169382,黃添其,121.30101776123,25.0043411254883,桃園區
1917,天華山慈惠堂,瑤池金母,,,新北市,猴硐里猴硐路38號,道教,02-24966485,廖茂松,121.825798034668,25.0826301574707,瑞芳區
1918,觀音堂,普庵祖師,,,桃園市,金陵路4段26巷82-1號,佛教,03-4605913,賴王春金,121.226654052734,24.9210395812988,平鎮區
1919,天上聖母廟,天上聖母,,,新竹縣,寶山村新湖路一段270號,道教,03-5761443,田煥禎,121.027191162109,24.7395496368408,寶山鄉
1920,新竹縣寶山鄉溪源洞,太乙真人,,,新竹縣,山湖村仙爺路88號,佛教,03-5761103,邱鏡淳,121.042404174805,24.7255306243896,寶山鄉
1921,蓮池庵,燃燈佛,釋迦牟尼佛,彌勒佛,新北市,碇南路二段8號,佛教,02-26633431,林麗英,121.666801452637,25.031099319458,石碇區
1922,福安宮,福德正神,,,新北市,溪北里溪崑二街73巷1號右邊,道教,02-26832249,王榮夫,121.428100585938,24.9903106689453,板橋區
1923,接源堂,普庵祖師,,,新北市,漢生里光正街34巷3之1號,佛教,02-29680731,張憲政,121.462097167969,25.0174102783203,板橋區
1924,新北市板橋區大佛寺,釋迦牟尼佛,藥師佛,阿彌陀佛,新北市,聯翠里文化路二段75號,佛教,02-22515454,林國英,121.469398498535,25.0258502960205,板橋區
1925,福德宮,福德正神,,,新北市,溫泉街1號之1,道教,02-26616526,張樹林,121.549697875977,24.8658599853516,烏來區
1926,國功宮,周府將軍,,,基隆市,東光路62之3號,道教,02-24652338,陳同現,121.77131652832,25.1347770690918,信義區
1927,正明淨寺,普庵祖師,,,基隆市,信二路74巷149之2號,佛教,02-24279562,林清泉,121.756500244141,25.1329002380371,信義區
1928,財團法人台灣佛教道友會,普庵祖師,,,臺北市,民權里保安街1之12號8樓,佛教,02-25572401,王立德,121.514358520508,25.0596408843994,大同區
1929,乾元宮,玉皇大帝,,,新北市,水德里10鄰東坑5之1號,道教,02-26655154,鄭德勝,121.747100830078,24.9298706054688,坪林區
1930,天地靈元宮,地母至尊,,,新北市,仁里坂2號之1,道教,02-26657481,翁健治,121.707397460938,24.9537296295166,坪林區
1931,圓通佛導眾寺,普庵祖師,,,新北市,大科里1鄰大科坑18之1號,佛教,02-22961208,李聖門,121.411918640137,25.0603408813477,泰山區
1932,慈福宮,福德正神,,,基隆市,八堵路185巷93之1號,道教,02-24565174,鍾金龍,121.724700927734,25.1006298065186,暖暖區
1933,福興宮,七府王爺,,,桃園市,蚵間里6鄰55號,道教,-0928294172,林吳海平,120.990928649902,24.9388313293457,新屋區
1934,松山慈福宮,福德正神,,,臺北市,慈祐里八德路4段829巷26號,道教,02-27686479,陳秋和,121.564529418945,25.0497722625732,松山區
1935,元聖宮,三官大帝,,,桃園市,廟前白鷺里14鄰東泰街2號,道教,03-3631731,邱明政,121.278396606445,24.9638690948486,八德區
1936,印覺禪寺,釋迦牟尼佛,,,新北市,有木里有木6之6號,佛教,02-26720474,李浩榕,121.423896789551,24.8706798553467,三峽區
1937,行修宮,關聖帝君,,,新北市,嘉添里白雞155號,道教,02-26711476,吳岳羽,121.401802062988,24.9050407409668,三峽區
1938,仁和宮,天上聖母,,,新北市,仁和路9號,道教,02-24901845,周鴻鏗,121.922698974609,25.0516796112061,貢寮區
1939,進寶殿董公真人,董公真人,,,新北市,中興路三段324號,佛教,02-29154851,林宏逵,121.542198181152,24.9862194061279,新店區
1940,印月禪寺,釋迦牟尼佛,,,新北市,廣興里小坑一路12號,佛教,02-26665129,莊秀珍,121.534698486328,24.9129695892334,新店區
1941,財團法人新北市護國吉祥寺,藥師佛,,,新北市,吉祥街55號,佛教,02-26806469,鄭寶泰,121.397903442383,24.9741306304932,樹林區
1942,聖威宮,通天元帥,,,桃園市,海豐坡17-15號,道教,03-3866830,徐婉婷,121.211181640625,25.0643215179443,大園區
1943,三元宮,三官大帝,,,桃園市,三林村19鄰富華街三林段395巷140號,道教,03-4801602,郭阿海,121.230171203613,24.8400726318359,龍潭區
1944,法蓮寺,普庵祖師,,,新竹縣,仁愛路47號,佛教,03-5897213,陳桂英,121.08080291748,24.8260803222656,新埔鎮
1945,明志書院,紫陽朱夫子,,,新北市,明志路2段276號,道教,02-22974528,李江河,121.426597595215,25.046989440918,泰山區
1946,新店蕭府王爺廟,蕭府王爺,,,新北市,中正路418巷2號,道教,02-82192600,廖添進,121.534599304199,24.9779090881348,新店區
1947,錫福宮,三官大帝,,,桃園市,紅梅里大華街172-1號,道教,03-4758843,鄭石榔,121.142654418945,24.9070682525635,楊梅區
1948,受安宮,玄天上帝,,,新北市,二甲路61號,佛教,02-86775787,彭劍金,121.334999084473,24.9333400726318,鶯歌區
1949,文化彌勒佛院,彌勒佛,,,新北市,陳厝坑61-8號,彌勒大道,02-22874096,張進財,121.507797241211,25.2739791870117,三芝區
1950,無極日月太子宮,中壇元帥,,,新北市,大崁3街21號,道教,02-26100728,鍾信豐,121.416397094727,25.1574001312256,八里區
1951,千佛山白雲禪寺,釋迦牟尼佛,,,新北市,新烏路二段178號,佛教,02-26663171,莊妙芳,121.547996520996,24.9181003570557,新店區
1952,鶯歌聖鶯宮,天上聖母,,,新北市,尖山路101巷10號,道教,02-26705888,蘇盛治,121.347099304199,24.9426708221436,鶯歌區
1953,萬里情月老廟,月下老人,,,新北市,公館崙55之2號,道教,02-24983030,黎萱,121.625999450684,25.2057991027832,萬里區
1954,財團法人新北市寶山關帝廟,關聖帝君,,,新北市,里瑞松街204巷23號,道教,02-25066602,蔡金萬,0.0,0.0,汐止區
1955,忠德聖宮,彌勒佛,,,桃園市,宏竹里16鄰大華北街136號,一貫道,03-3233812,洪牡丹,121.247901916504,25.0397720336914,蘆竹區
1956,文林閣,文昌帝君,,,新竹縣,文林村文山路238號,道教,03-5924871,劉阿鋉,121.082901000977,24.7735805511475,芎林鄉
1957,晉福宮,福德正神,,,桃園市,吉昌街232號,道教,093-5526598,鄭聰枝,121.287696838379,24.9885082244873,桃園區
1958,豐林宮,福德正神,,,桃園市,豐林里三民路3段478號,道教,03-3381886,陳崇忠,121.307304382324,24.9840221405029,桃園區
1959,新永安宮,福德正神,,,桃園市,中正里正光路112巷102號,道教,093-5029039,鄭賜鏈,121.297302246094,24.9955806732178,桃園區
1960,桃園市保順宮馬舍公廟,舍人公,,,桃園市,大竹里12鄰興豐路1725號,道教,03-3652411,江正俊,121.314376831055,24.9442958831787,八德區
1961,大普仁福德祠,福德正神,,,桃園市,普仁里協同街79號,道教,03-4568688,朱清淇,121.238227844238,24.954719543457,中壢區
1962,雲谷寺,普庵祖師,,,新竹縣,新鳳村10燥坑18號,佛教,03-5121256,張依慈,121.100700378418,24.7657203674316,芎林鄉
1963,法雨山宏修禪苑,釋迦牟尼佛,,,新竹市,高峰里7鄰高峰路237號,佛教,03-5233937,何玉女,120.980003356934,24.7837600708008,東區
1964,財團法人台灣省新竹市普天宮,關聖帝君,,,新竹市,高峰路306巷66號,道教,03-5225287,,120.978790283203,24.780403137207,東區
1965,存齋堂,普庵祖師,,,新竹市,民生路10巷5號,佛教,03-5322508,黃鴻銘,120.979499816895,24.8076000213623,東區
1966,菩提廣講堂,釋迦牟尼佛,,,桃園市,裕成里11鄰光裕南街175號,佛教,-4819173,,121.161552429199,24.8932914733887,楊梅區
1967,玄清宮,玄天上帝,,,桃園市,北港里14鄰許厝港路632號,道教,-0930541313,許金勇,121.17130279541,25.0759906768799,大園區
1968,永仁佛堂,彌勒佛,,,桃園市,鎮興里2鄰鎮德路152號,一貫道,03-4965315,廖裕萬,121.191612243652,24.9188747406006,平鎮區
1969,桃園區文中宮,福德正神,,,桃園市,文中三路21號,道教,091-7209613,鄭錫銓,121.288627624512,24.9966297149658,桃園區
1970,普南宮,普庵祖師,,,桃園市,三水里南坑路500號,道教,03-4091006,陳慶超,121.160499572754,24.8375396728516,龍潭區
1971,唯心聖教大凡寺,王禪老祖,,,新竹縣,水坑村2鄰71之9號,其他(唯心聖教),03-5925669,張勳桐,121.099807739258,24.7869853973389,芎林鄉
1972,藥師佛禪寺,藥師佛,,,新竹縣,東山里11鄰四寮4-2號,佛教,03-5171626,邱美慧,121.205001831055,24.7910499572754,關西鎮
1973,中壢福仁宮,福德正神,,,桃園市,仁美里榮民南路350巷56號,道教,03-4566232,洪文吉,121.255279541016,24.9490165710449,中壢區
1974,清蓮宮,三府王爺,,,臺北市,大理街91巷23號,道教,02-00000000,王春成,121.498497009277,25.0351390838623,萬華區
1975,明山寺玄寶殿,玄天上帝,,,臺北市,北安里劍南路648巷12號,道教,02-25326871,,121.553604125977,25.0863208770752,中山區
1976,明山寺福天宮,玄天上帝,,,臺北市,北安里劍南路648巷12號,道教,02-25326871,林慶宗,121.553596496582,25.0863208770752,中山區
1977,財團法人台北市景美集應廟,保儀尊王,,,臺北市,景美街37號,道教,02-29348446,高義秀,121.541885375977,24.9916954040527,文山區
1978,福裕宮,福德正神,,,臺北市,文林北路5巷58號1樓,道教,02-28234059,何許碧雲,121.51789855957,25.1030006408691,北投區
1979,凌振宮,五府千歲,,,臺北市,木柵路1段191巷54號,道教,02-22363152,李采樺,121.551010131836,24.9884128570557,文山區
1980,華寶寺,釋迦牟尼佛,,,桃園市,大同路1855號,佛教,03-3500467,巫應泰,121.38159942627,24.9911499023438,龜山區
1981,呂山財神廟,財神爺,,,桃園市,龍壽里17鄰大青坑31-1號,道教,03-3494578,簡瑞金,121.395233154297,25.0035514831543,龜山區
1982,香林精舍,釋迦牟尼佛,,,新竹縣,新興村14鄰九讚頭280號,佛教,03-5280917,,121.135902404785,24.710880279541,橫山鄉
1983,萬善祠(上山),有應公,,,新竹縣,上山村2鄰上山23號,道教,03-5922077,彭正章,121.073348999023,24.7854671478271,芎林鄉
1984,德風蓮苑,釋迦牟尼佛,,,新竹縣,後湖村後湖子2鄰39之8號,佛教,03-3541543,吳淑澄,121.004768371582,24.9393157958984,新豐鄉
1985,臺北市大龍峒包公廟,閻羅天子包青天,,,臺北市,敦煌路臨71號,道教,02-25867438,陳建明,121.516403198242,25.0762996673584,大同區
1986,台北保仁宮,保生大帝,,,臺北市,承德路3段214巷9號,道教,02-25932666,黃慶堂,121.517601013184,25.0715408325195,大同區
1987,收圓新竹廣玄宮,玄天上帝,,,新竹縣,深井村9鄰雙林路二段702號,道教,03-5762758,,120.943832397461,24.7320384979248,寶山鄉
1988,桃園姜太公廟,姜太公,,,桃園市,長興路360巷31弄100號,道教,03-3654000,邱金標,121.27759552002,24.9343662261963,八德區
1989,北巡五府玄德宮,五府千歲,,,基隆市,武聖街329號,道教,02-24327625,李朝一,121.700416564941,25.1617088317871,安樂區
1990,天祥禪寺,燃燈佛,釋迦牟尼佛,彌勒佛,新北市,雙興里二坪6之3號,佛教,02-24929114,黃瓊萱,121.649131774902,25.1751537322998,萬里區
1991,鑽金宮,財神爺,,,新北市,磺潭里公館崙52之3號,道教,02-24980131,黎清美,121.626899719238,25.2062892913818,萬里區
1992,濟仁佛院,彌勒佛,,,新北市,大同路87巷17號,一貫道,02-86718100,彭榮滿,121.376899719238,24.9220695495605,三峽區
1993,萬里鄉野柳村福德祠,福德正神,,,新北市,野柳里港東路167號旁,道教,-123,陳有進,121.689399719238,25.2056102752686,萬里區
1994,新逍遙園譯經院,釋迦牟尼佛,,,桃園市,永寧里4鄰大北坑街一段215號,道教,03-4790680,,121.172302246094,24.8735675811768,楊梅區
1995,湖口新工福德宮,福德正神,,,新竹縣,鳳凰村33鄰興仁路59號,道教,03-5572628,,121.014503479004,24.8743000030518,湖口鄉
1996,金剛寺,釋迦牟尼佛,,,新竹縣,七星村6寮57號,佛教,03-5809206,,121.01570892334,24.646598815918,峨眉鄉
1997,載福宮,福德正神,,,新北市,一坑路297號,道教,093-7426420,張清風,121.801002502441,25.108470916748,瑞芳區
1998,淨慈寺,彌勒佛,,,新北市,石門路63之6號(暫厝),一貫道,-22649219,黃金昌,121.458000183105,24.9612693786621,土城區
1999,西盛福德宮,福德正神,,,新北市,民安路395號,道教,-22023498,陳瑞明,121.432411193848,25.023078918457,新莊區
2000,崎仔頭福德宮,福德正神,,,新北市,景平路159巷9號,道教,02-29403036,陳鄭廖月霞,121.512741088867,24.9918727874756,中和區
2001,保安宮,福德正神,,,新北市,金包里街70號,道教,02-24985522,許坤地,121.63892364502,25.2215251922607,金山區
2002,大眾廟,大眾爺,,,新北市,外平林21號之1,道教,097-2230155,黃添松,121.85880279541,25.0365505218506,雙溪區
2003,洲子洋福德祠,福德正神,,,新北市,芳洲八路78號,道教,02-82955993,蔡孟穎,121.446403503418,25.0869998931885,五股區
2004,玉勅后谷宮,天上聖母,,,新北市,廣興里10鄰小坑三路52之1號,道教,02-26669612,朱永立,121.517105102539,24.9081268310547,新店區
2005,財團法人新北市白馬寺,釋迦牟尼佛,,,新北市,安忠路57巷5之1號,佛教,02-23370233,林永文,121.513618469238,24.9591674804688,新店區
2006,新竹市東和宮,福德正神,,,新竹市,公園路96之1號,道教,03-5368423,,120.983489990234,24.8057765960693,東區
2007,無極三竹宮,天上聖母,,,桃園市,沙崙里中央路361巷230弄68號,道教,03-3832226,,121.216903686523,25.0992698669434,大園區
2008,淨行寺,釋迦牟尼佛,,,桃園市,內柵路一段79巷42號,佛教,03-3627078,胡美錦,121.28205871582,24.8584289550781,大溪區
2009,明行寺,釋迦牟尼佛,觀世音菩薩,地藏王菩薩,桃園市,高原里南坑路1550號,佛教,-0952231332,釋果建,121.183700561523,24.8307075500488,龍潭區
2010,頭湖福德宮,福德正神,,,新北市,民權路169號,道教,02-26090633,汪誠一,121.374603271484,25.0846195220947,林口區
2011,禪靈宮,玄天上帝,,,新北市,田尾街39之2號,道教,02-26805411,洪守堉,121.409217834473,24.9624328613281,樹林區
2012,無極天雲宮,九天玄女,,,新北市,水源里17鄰山子頂28號,道教,-26260195,楊金枝,121.491264343262,25.186222076416,淡水區
2013,松樹腳慶安宮,地藏王菩薩,,,桃園市,介壽路539號,道教,091-6994249,曾月娥,121.290100097656,24.9148902893066,大溪區
2014,新北市五股賀聖宮,玄天上帝,,,新北市,新五路三段1號,道教,02-22953166,王美雲,121.444732666016,25.0889339447021,五股區
2015,迎富送窮廟,玉皇大帝,,,桃園市,康莊路五段12巷18號,道教,03-3889355,黃寶治,121.269264221191,24.8343601226807,大溪區
2016,天皇宮,玉皇大帝,,,新北市,中正路54巷28號5樓(暫厝),道教,02-29186957,高銘章,121.545501708984,24.9705104827881,新店區
2017,興申宮,諸府千歲,,,新北市,民生路147巷2號,道教,02-82187012,林明志,121.528839111328,24.9806175231934,新店區
2018,財團法人新北市白象寺,釋迦牟尼佛,,,新北市,安忠路57巷5之1號,佛教,02-23370233,林永文,121.513618469238,24.9591674804688,新店區
2019,普庵寺,普庵祖師,,,新北市,中興街85號,佛教,02-22891166,李友親,121.48210144043,25.088020324707,蘆洲區
2020,桃園市慈善宮,玉皇大帝,,,桃園市,中正三街180號,道教,03-3362241,鄭乾隆,121.303901672363,24.9991397857666,桃園區
2021,泰祥宮,神農大帝,,,桃園市,員本里2鄰員本路661號,道教,095-5527922,蔡永富,121.109252929688,24.9381904602051,楊梅區
2022,觀音佛寺,釋迦牟尼佛,,,新竹市,光復路2段876號,佛教,-0931352916,曾國全(本願法師),120.982307434082,24.8027667999268,東區
2023,妙法蓮華寺,釋迦牟尼佛,,,基隆市,瑪南里大成街1之3號,佛教,02-24552268,黃慈雨,121.688972473145,25.1096420288086,七堵區
2024,長興宮,王爺,,,新竹市,長興街498號,道教,03-5373100,王炳南,120.904640197754,24.7455997467041,香山區
2025,雲谷寺,普庵祖師,,,新竹縣,新鳳村10鄰燥坑18號,佛教,-0988129363,張依慈,121.106803894043,24.7649211883545,芎林鄉
